,LoanRange,BusinessName,Address,City,State,Zip,NAICSCode,DateApproved
627793,$5-10 million,BENNINGTON COLLEGE CORPORATION,1 COLLEGE DR,BENNINGTON,VT,5201.0,611310.0,4/12/2020
627794,$5-10 million,"COPLEY HOSPITAL, INC.",528 WASHINGTON HWY,MORRISVILLE,VT,5661.0,622110.0,4/27/2020
627795,$5-10 million,"GW PLASTICS, INC.",239 PLEASANT ST,BETHEL,VT,5032.0,339112.0,4/5/2020
627796,$5-10 million,ITECH US INC,20 KIMBALL AVE Ste 303N,SOUTH BURLINGTON,VT,5403.0,541512.0,4/8/2020
627797,$5-10 million,MOMENTUM MANFACTURING GROUP LLC,210 PIERCE RD,SAINT JOHNSBURY,VT,5819.0,332710.0,4/5/2020
627798,$5-10 million,PC CONSTRUCTION COMPANY,193 TILLEY DR,SOUTH BURLINGTON,VT,5403.0,237110.0,4/11/2020
627799,$5-10 million,VERMONT ENERGY INVESTMENT CORPORATION,20 Winooski Falls Way,WINOOSKI,VT,5404.0,541690.0,4/5/2020
627800,$2-5 million,AUTUMN HARP INC,26 THOMPSON DRIVE,ESSEX JUNCTION,VT,5452.0,325620.0,4/9/2020
627801,$2-5 million,BAKER DISTRIBUTING CORPORATION,130 Orion Drive,COLCHESTER,VT,5446.0,424810.0,4/7/2020
627802,$2-5 million,"BELLAVANCE TRUCKING, INC.",PO BOX 398,BARRE,VT,5641.0,484110.0,4/12/2020
627803,$2-5 million,"BOWL NEW ENGLAND, INC.",506 HERCULES DR,COLCHESTER,VT,5446.0,713950.0,4/27/2020
627804,$2-5 million,BURR & BURTON SEMINARY,57 Seminary Ave,MANCHESTER,VT,5254.0,611110.0,4/9/2020
627805,$2-5 million,"CABOT HOSIERY MILLS, INC",364 WHETSTONE DR,NORTHFIELD,VT,5663.0,315110.0,4/5/2020
627806,$2-5 million,CARLOS G OTIS HEALTH CARE CENTER INC,185 Grafton Rd,TOWNSHEND,VT,5353.0,622110.0,4/6/2020
627807,$2-5 million,CERSOSIMO LUMBER COMPANY INC.,1103 VERNON ST,BRATTLEBORO,VT,5301.0,423310.0,4/5/2020
627808,$2-5 million,"COMMUNITY HEALTH CENTERS OF BURLINGTON, INC.",617 Riverside Avenue,BURLINGTON,VT,5401.0,621498.0,4/11/2020
627809,$2-5 million,"COMMUNITY HEALTH CENTERS OF THE RUTLAND REGION, INC.",71 ALLEN ST SUITE 101,RUTLAND,VT,5701.0,621111.0,4/5/2020
627810,$2-5 million,CONTROL TECHNOLOGIES,121 PARK AVE,WILLISTON,VT,5495.0,238210.0,4/5/2020
627811,$2-5 million,D.E.W. CONSRUCTION CORP.,277 Blair Park Rd Suite 130,WILLISTON,VT,5495.0,236220.0,4/9/2020
627812,$2-5 million,DOWNS RACHLIN MARTIN PLLC,90 PROSPECT ST,SAINT JOHNSBURY,VT,5819.0,541110.0,4/9/2020
627813,$2-5 million,"DUBOIS & KING, INC.",28 N. MAIN ST,RANDOLPH,VT,5060.0,541330.0,4/7/2020
627814,$2-5 million,"ENGELBERTH CONSTRUCTION, INC.",150 WATER TOWER CIR,COLCHESTER,VT,5446.0,236116.0,4/5/2020
627815,$2-5 million,ENGINEERS CONSTRUCTION INC.,98 ENGINEERS DR,WILLISTON,VT,5495.0,237310.0,4/5/2020
627816,$2-5 million,EUSTIS CABLE ENTERPRISES LTD,355 EAST ST,BROOKFIELD,VT,5036.0,237130.0,5/7/2020
627817,$2-5 million,FARRELL DISTRIBUTING CORPORATION,5 Holmes Road,SOUTH BURLINGTON,VT,5403.0,424490.0,4/14/2020
627818,$2-5 million,FOODSCIENCE CORPORATION,929 HARVEST LN,WILLISTON,VT,5495.0,424210.0,4/11/2020
627819,$2-5 million,GALVION BALLISTICS LTD.,30 Industrial Drive,NEWPORT,VT,5855.0,339999.0,4/15/2020
627820,$2-5 million,"GARDENER'S SUPPLY COMPANY, INC",128 Intervale Road,BURLINGTON,VT,5401.0,444220.0,4/13/2020
627821,$2-5 million,HAZELETT STRIP-CASTING CORP.,135 West Lakeshore Drive,COLCHESTER,VT,5446.0,333519.0,4/8/2020
627822,$2-5 million,HERITAGE AUTOMOTIVE GROUP INC,30 GREEN MOUNTAIN DRIVE,SOUTH BURLINGTON,VT,5403.0,441110.0,4/12/2020
627823,$2-5 million,HUBBARDTON FORGE LLC,154 Route 30 South,CASTLETON,VT,5735.0,335121.0,4/11/2020
627824,$2-5 million,"JOLLEY ASSOCIATES, LLC",54 Lower Welden St,SAINT ALBANS,VT,5478.0,446110.0,4/15/2020
627825,$2-5 million,KAYCAN LTD,402 Boyer Cir,WILLISTON,VT,5495.0,423330.0,5/3/2020
627826,$2-5 million,"KOFFEE KUP DONUT SHOP, INC.",59 Rathe Rd. Suite 100,COLCHESTER,VT,5446.0,311812.0,4/30/2020
627827,$2-5 million,"LAMOILLE COUNTY MENTAL HEALTH SERVICES, INC.",72 Harrel Street,MORRISVILLE,VT,5661.0,621330.0,4/4/2020
627828,$2-5 million,LANDMARK COLLEGE INC,19 RIVER RD S,PUTNEY,VT,5346.0,611310.0,4/10/2020
627829,$2-5 million,"LARK INNS, L.P.",410 Shelburne Road,BURLINGTON,VT,5401.0,721110.0,4/8/2020
627830,$2-5 million,"LOGIC SUPPLY, INC.",35 Thompson Street,SOUTH BURLINGTON,VT,5403.0,541512.0,4/11/2020
627831,$2-5 million,"MACTAW, INC",4016 Williston Road,SOUTH BURLINGTON,VT,5403.0,441210.0,4/15/2020
627832,$2-5 million,NEW ENGLAND AIR SYSTEMS LLC,43 KRUPP DR,WILLISTON,VT,5495.0,238220.0,4/5/2020
627833,$2-5 million,NORTHEAST KINGDOM HUMAN SERVICES,181 Crawford Road,NEWPORT,VT,5855.0,621420.0,4/27/2020
627834,$2-5 million,ONION RIVER COOPERATIVE INC.,82 SOUTH WINOOSKI AVE,BURLINGTON,VT,5401.0,445110.0,4/28/2020
627835,$2-5 million,PEERLESS CLOTHING INTERNATIONAL INC,200 INDUSTRIAL PARK RD,SAINT ALBANS,VT,5478.0,315220.0,4/28/2020
627836,$2-5 million,"PLANNED PARENTHOOD OF NORTHERN NEW ENGLAND, INC.",784 HERCULES DR Suite 110,COLCHESTER,VT,5446.0,621410.0,4/5/2020
627837,$2-5 million,"R.K. MILES, INC.",P.O Box 1125,MANCHESTER CENTER,VT,5255.0,444190.0,4/8/2020
627838,$2-5 million,"RESOURCE SYSTEMS GROUP, INC.",55 RAILROAD ROW,WHITE RIVER JUNCTION,VT,5001.0,541690.0,4/8/2020
627839,$2-5 million,S.D. IRELAND CONCRETE CONSTRUCTION CORPORATION,193 Industrial Avenue,WILLISTON,VT,5495.0,238110.0,4/14/2020
627840,$2-5 million,"SIMON PEARCE, INC",109 PARK RD,WINDSOR,VT,5089.0,327212.0,4/14/2020
627841,$2-5 million,SMUGGLERS NOTCH MANAGEMENT CO. LTD.,4323 Vermont Route 108 South,JEFFERSONVILLE,VT,5464.0,721110.0,4/4/2020
627842,$2-5 million,"SOLARCOMMUNITIES, INC.",442 US Route 2,WATERBURY,VT,5676.0,221114.0,4/28/2020
627843,$2-5 million,"SPRINGFIELD HOSPITAL, INC.",25 Ridgewood Road,SPRINGFIELD,VT,5156.0,622110.0,5/15/2020
627844,$2-5 million,SUPERIOR TECHNICAL CERAMICS CORP,600 INDUSTRIAL PARK RD,SAINT ALBANS,VT,5478.0,327110.0,4/8/2020
627845,$2-5 million,THE LANE PRESS,87 MEADOWLAND DR,SOUTH BURLINGTON,VT,5403.0,323111.0,4/8/2020
627846,$2-5 million,THUNDERBIRD LLC,265 AVIATION AVE SUITE 201,SOUTH BURLINGTON,VT,5403.0,722511.0,4/10/2020
627847,$2-5 million,TRANS RAIL HOLDING COMPANY,1 Railway Lane,BURLINGTON,VT,5401.0,482112.0,4/8/2020
627848,$2-5 million,TRAPP FAMILY LODGE INC.,700 Trapp Hill Road,STOWE,VT,5672.0,721110.0,4/3/2020
627849,$2-5 million,TRUSTEES OF THE ST. JOHNSBURY ACADEMY,1000 MAIN ST,SAINT JOHNSBURY,VT,5819.0,611110.0,4/6/2020
627850,$2-5 million,"TWINCRAFT, INC.",2 Tigan Street,WINOOSKI,VT,5404.0,325611.0,4/8/2020
627851,$2-5 million,UNITED COUNSELING SERVICE OF BENNINGTON COUNTY INC,100 LEDGEHILL RD,BENNINGTON,VT,5201.0,621610.0,4/6/2020
627852,$2-5 million,"VERMONT ELECTRIC COOPERATIVE, INC.",42 WESCOM RD,JOHNSON,VT,5656.0,221122.0,4/6/2020
627853,$2-5 million,"VERMONT LAW SCHOOL, INC.",PO Box 96,SOUTH ROYALTON,VT,5068.0,611310.0,4/14/2020
627854,$2-5 million,VHV COMPANY,"16 Tigan Street, Suite A",WINOOSKI,VT,5404.0,238220.0,4/6/2020
627855,$2-5 million,VNA & HOSPICE OF THE SOUTHWEST REGION INC.,7 Albert Cree Drive,RUTLAND,VT,5701.0,621610.0,4/13/2020
627856,$2-5 million,VT. PRECISION-FRAN CTY IND CO.,10 Precision Lane,SWANTON,VT,5488.0,333515.0,4/5/2020
627857,$2-5 million,WOODSTOCK RESORT CORPORATION,9 CROSS ST,WOODSTOCK,VT,5091.0,721110.0,4/9/2020
627858,$2-5 million,WORLD LEARNING INC.,"1 Kipling Road, PO Box 676",BRATTLEBORO,VT,5302.0,611210.0,4/11/2020
627859,$1-2 million,"98 STARR FARM ROAD OPERATING COMPANY, LLC",98 STARR FARM RD,BURLINGTON,VT,5408.0,623110.0,4/28/2020
627860,$1-2 million,"ADA TRAFFIC CONTROL, LTD.",35 CLAY POINT RD,COLCHESTER,VT,5446.0,561990.0,4/5/2020
627861,$1-2 million,"ADDISON COUNTY HOME HEALTH & HOSPICE, INC.",P.O. Box 754,MIDDLEBURY,VT,5753.0,621610.0,4/6/2020
627862,$1-2 million,ALLIANCE MECHANICAL INC.,6 David Drive PO Box 666,ESSEX JUNCTION,VT,5452.0,238220.0,4/15/2020
627863,$1-2 million,"ARC MECHANICAL CONTRACTORS,INC",229 DEPOT ST,BRADFORD,VT,5033.0,238220.0,4/4/2020
627864,$1-2 million,"AUTOMASTER MOTOR CO., INC.",3328 Shelburne Road,SHELBURNE,VT,5482.0,441110.0,4/5/2020
627865,$1-2 million,"AWH STOWE RESORT HOTEL, LLC",4000 Mountain Rd,STOWE,VT,5672.0,721110.0,4/9/2020
627866,$1-2 million,"BENOIT ELECTRIC, INC.",254 Industrial Lane,BARRE,VT,5641.0,238210.0,4/5/2020
627867,$1-2 million,"BENOURE PLUMBING AND HEATING, INC.",34 Commerce Ave,SOUTH BURLINGTON,VT,5403.0,238220.0,4/9/2020
627868,$1-2 million,BIRCHWOOD OPERATIONS LLC,43 Starr Farm Road,BURLINGTON,VT,5408.0,623110.0,4/8/2020
627869,$1-2 million,BLA PARTNERS LLC,30 Community Drive,SOUTH BURLINGTON,VT,5403.0,621511.0,4/13/2020
627870,$1-2 million,"BOURNE'S, INC.",72 Lower Main St,MORRISVILLE,VT,5661.0,454310.0,4/7/2020
627871,$1-2 million,BURLINGTON SUBARU INC.,333 Shelburne RD 0.0,BURLINGTON,VT,5041.0,441110.0,4/9/2020
627872,$1-2 million,CAPITAL CANDY COMPANY INC.,32 BURNHAM ST,BARRE,VT,5641.0,424940.0,4/5/2020
627873,$1-2 million,CAPSTONE COMMUNITY ACTION,20 Gable Place,BARRE,VT,5641.0,624190.0,4/14/2020
627874,$1-2 million,"CASELLA CONSTRUCTION, INC.",25 Industrial Lane,MENDON,VT,5701.0,238910.0,4/10/2020
627875,$1-2 million,CATHEDRAL SQUARE CORPORATION,412 FARRELL ST Suite 100,SOUTH BURLINGTON,VT,5403.0,531110.0,4/5/2020
627876,$1-2 million,"CENTRAL VERMONT HOME HEALTH & HOSPICE, INC",600 Granger Rd,BARRE,VT,5641.0,621610.0,4/14/2020
627877,$1-2 million,CHAMPLAIN CHOCOLATE COMPANY,750 Pine St,BURLINGTON,VT,5401.0,311352.0,4/10/2020
627878,$1-2 million,"CHAMPLAIN HOUSING TRUST, INC.",88 KING ST,BURLINGTON,VT,5401.0,531110.0,4/9/2020
627879,$1-2 million,"CHAMPLAIN VALLEY EQUIPMENT, INC.","PO BOX 522, 453 Exchange Street",MIDDLEBURY,VT,5753.0,444210.0,4/7/2020
627880,$1-2 million,"CHUCK'S HEATING AND AIR CONDITIONING, INC.",416 ROOSEVELT HWY,COLCHESTER,VT,5446.0,238220.0,4/10/2020
627881,$1-2 million,"CITY FEED AND LUMBER CO., INC.",44 LOWER NEWTON STREET,SAINT ALBANS,VT,5478.0,444110.0,4/11/2020
627882,$1-2 million,CLARA MARTIN CENTER INC.,11 North Main Street,RANDOLPH,VT,5060.0,624190.0,4/13/2020
627883,$1-2 million,COMMANDO LLC,472 Meadowland Drive Unit 10,SOUTH BURLINGTON,VT,5403.0,315240.0,4/3/2020
627884,$1-2 million,COMPETITIVE COMPUTING INC.,354 MOUNTAIN VIEW DR SUITE 400,COLCHESTER,VT,5446.0,541512.0,4/9/2020
627885,$1-2 million,"CONCEPT2, INC.",105 INDUSTRIAL PARK DR,MORRISVILLE,VT,5661.0,339920.0,4/9/2020
627886,$1-2 million,CONCEPTS NREC LLC,217 Billings Farm Road,WHITE RIVER JUNCTION,VT,5001.0,541330.0,4/3/2020
627887,$1-2 million,COPLEY PROFESSIONAL SERVICES GROUP INC.,65 Northgate Plaza,MORRISVILLE,VT,5661.0,621111.0,4/3/2020
627888,$1-2 million,DARTMOUTH JOURNAL SERVICES INC,5 Pilgram Park Rd Ste 5 2nd FL,WATERBURY,VT,5676.0,323117.0,4/27/2020
627889,$1-2 million,"DEALERPOLICY, INC",2300 ST GEORGE RD,WILLISTON,VT,5495.0,524210.0,4/7/2020
627890,$1-2 million,"DORE & WHITTIER ARCHITECTS, INC.",212 Battery St,BURLINGTON,VT,5401.0,541310.0,4/11/2020
627891,$1-2 million,ESSEX INN LIMITED PARTNERSHIP,70 ESSEX WAY,ESSEX JUNCTION,VT,5452.0,721110.0,4/8/2020
627892,$1-2 million,"FLEX-A-SEAL, INC.",291 HURRICANE LN,WILLISTON,VT,5495.0,423840.0,4/5/2020
627893,$1-2 million,"FRANKLIN COUNTY HOME HEALTH AGENCY, INC.",3 Home Health Circle,SAINT ALBANS,VT,5478.0,621610.0,4/3/2020
627894,$1-2 million,"GALLAGHER, FLYNN & COMPANY, LLP",55 Community Drive Suite 401,SOUTH BURLINGTON,VT,5403.0,541211.0,4/9/2020
627895,$1-2 million,GLOBAL SOURCING GROUP INC.,112 Lake St Ste 110,BURLINGTON,VT,5401.0,517911.0,4/15/2020
627896,$1-2 million,GODDARD COLLEGE CORPORATION,123 PITKIN RD,PLAINFIELD,VT,5667.0,611310.0,4/9/2020
627897,$1-2 million,GOSS DODGE INC,1485 SHELBURNE RD,SOUTH BURLINGTON,VT,5403.0,441110.0,4/13/2020
627898,$1-2 million,GREATER BURLINGTON YOUNG MENS CHRISTIAN ASSOCIATION INC,298 College Street,BURLINGTON,VT,5401.0,713940.0,4/7/2020
627899,$1-2 million,GREEN MOUNTAIN ELECTRIC SUPPLY,356 Rathe Road,COLCHESTER,VT,5446.0,423610.0,4/7/2020
627900,$1-2 million,"GREEN MTN. CONCERT SERVICES, INC.",25 Wentworth Drive,WILLISTON,VT,5495.0,561612.0,4/15/2020
627901,$1-2 million,"HALLAM ASSOCIATES, INC",38 EASTWOOD DR,SOUTH BURLINGTON,VT,5403.0,541330.0,4/11/2020
627902,$1-2 million,"HARRISON CONCRETE CONSTRUCTION, INC.",P.O. Box 2098,GEORGIA,VT,5468.0,238110.0,4/9/2020
627903,$1-2 million,"HAYWARD TYLER, INC.",480 ROOSEVELT HWY,COLCHESTER,VT,5446.0,333996.0,4/10/2020
627904,$1-2 million,HUNGER MOUNTAIN COOPERATIVE INC.,623 Stone Cutters Way,MONTPELIER,VT,5602.0,445110.0,4/8/2020
627905,$1-2 million,IVEK CORPORATION,10 Fairbanks Road,NORTH SPRINGFIELD,VT,5150.0,334513.0,4/13/2020
627906,$1-2 million,J HUTCHINS INC,88 Rodgers Lane,RICHMOND,VT,5477.0,237310.0,4/4/2020
627907,$1-2 million,KINGSBURY COMPANIES LLC,58 Center Rd,MIDDLESEX,VT,5602.0,238910.0,4/6/2020
627908,$1-2 million,KP BUILDING PRODUCTS INC,402 Boyer Cir,WILLISTON,VT,5495.0,326199.0,5/3/2020
627909,$1-2 million,LAKE CHAMPLAIN TRANSPORTATION COMPANY,1 KING ST,BURLINGTON,VT,5401.0,483212.0,4/7/2020
627910,$1-2 million,"LARAWAY YOUTH & FAMILY SERVICES, INC.",275 VT Route 15 West,JOHNSON,VT,5656.0,624190.0,4/14/2020
627911,$1-2 million,LONG FALLS PAPERBOARD LLC,161 WELLINGTON RD,BRATTLEBORO,VT,5301.0,322130.0,4/7/2020
627912,$1-2 million,"LUND FAMILY CENTER, INC.",50 JOY DR,SOUTH BURLINGTON,VT,5403.0,624190.0,4/5/2020
627913,$1-2 million,MANUFACTURING SOLUTIONS INC.,153 Stafford Ave,MORRISVILLE,VT,5661.0,339999.0,4/6/2020
627914,$1-2 million,MARK ST PIERRE,1546 RICHFORD RD,RICHFORD,VT,5476.0,112120.0,4/7/2020
627915,$1-2 million,MAYO HEALTHCARE INC,71 Richardson St,NORTHFIELD,VT,5663.0,623110.0,4/8/2020
627916,$1-2 million,MOUNT ANTHONY HOUSING CORPORATION,160 Hospital Drive,BENNINGTON,VT,5201.0,622110.0,4/15/2020
627917,$1-2 million,"NAYLOR & BREEN BUILDERS, INC.",191 Alta Woods,BRANDON,VT,5733.0,236220.0,4/6/2020
627918,$1-2 million,"NEW ENGLAND WOODCRAFT, INC",481 North Street,BRANDON,VT,5733.0,337127.0,4/14/2020
627919,$1-2 million,NORTH HARTLAND TOOL CORPORATIO,14 Evarts Road,NORTH HARTLAND,VT,5052.0,336412.0,4/11/2020
627920,$1-2 million,NORTHEAST WASHINGTON COUNTY COMMUNITY HEALTH INC,157 Towne Avenue,PLAINFIELD,VT,5667.0,621111.0,4/14/2020
627921,$1-2 million,OUTDOOR GEAR EXCHANGE,37 Church Street,BURLINGTON,VT,5401.0,451110.0,4/8/2020
627922,$1-2 million,PAD PRINT MACHINERY OF VERMONT INC.,201 Tennis Way,EAST DORSET,VT,5253.0,333244.0,4/13/2020
627923,$1-2 million,PECK ELECTRIC CO.,4050 WILLISTON ROAD,SOUTH BURLINGTON,VT,5403.0,238210.0,4/15/2020
627924,$1-2 million,"PHOENIX FEEDS & NUTRITION, INC.",5482 ETHAN ALLEN HWY,NEW HAVEN,VT,5472.0,311119.0,4/6/2020
627925,$1-2 million,"POULIN GRAIN, INC.",24 Railroad Square,NEWPORT,VT,5855.0,311119.0,4/10/2020
627926,$1-2 million,"PREMIER COACH CO., INC.",946 ROUTE 7 South,MILTON,VT,5468.0,485510.0,4/13/2020
627927,$1-2 million,"PRIMARY CARE HEALTH PARTNERS-VERMONT, LLP",66 Knight Lane,WILLISTON,VT,5495.0,621111.0,4/14/2020
627928,$1-2 million,PRIMMER PIPER EGGLESTON AND CRAMER PC,30 MAIN ST STE 500,BURLINGTON,VT,5401.0,541110.0,4/9/2020
627929,$1-2 million,QUECHEE LAKES LANDOWNERS' ASSO,3268 Quechee Main Street,QUECHEE,VT,5059.0,531312.0,4/27/2020
627930,$1-2 million,"R.R. CHARLEBOIS, INC.",950 ROUTE 7 South,MILTON,VT,5468.0,441110.0,4/13/2020
627931,$1-2 million,"RHINO, INC",179 Queen City Park Rd,BURLINGTON,VT,5401.0,311520.0,4/5/2020
627932,$1-2 million,"RICHARDS, INC.",48 HARRIS PLACE,BRATTLEBORO,VT,5301.0,524210.0,4/4/2020
627933,$1-2 million,"ROAD TO HANA, INC.",222 Dorset Street,SOUTH BURLINGTON,VT,5403.0,445110.0,4/4/2020
627934,$1-2 million,"S. B. COLLINS, INC.",54 LOWER WELDEN STREET,SAINT ALBANS,VT,5478.0,424720.0,4/13/2020
627935,$1-2 million,S.D. IRELAND BROTHERS CORPORATION,193 Industrial Avenue,WILLISTON,VT,5495.0,238110.0,4/14/2020
627936,$1-2 million,"SAC INCORPORATED, A VERMONT CORPORATION",135 Talcott Road,WILLISTON,VT,5495.0,423840.0,4/3/2020
627937,$1-2 million,"SD ASSOCIATES, LLC",37 TALCOTT RD,WILLISTON,VT,5495.0,621420.0,4/14/2020
627938,$1-2 million,SELECT DESIGN LTD,208 FLYNN AVE,BURLINGTON,VT,5401.0,541430.0,4/3/2020
627939,$1-2 million,SEWIN LOVE FABRIC SHOPPE,168 Institute Circle,LYNDON CENTER,VT,5850.0,611110.0,4/3/2020
627940,$1-2 million,SPORTS &AMP; FITNESS EDGE INC,142 N Twin Oaks Ter,SOUTH BURLINGTON,VT,5403.0,713940.0,5/3/2020
627941,$1-2 million,"SPRINGFIELD MEDICAL CARE SYSTEMS, INC",25 Ridgewood Road,SPRINGFIELD,VT,5156.0,621498.0,5/15/2020
627942,$1-2 million,"SSG-ADVISORS, LLC",1 Mill Street Suite 201,BURLINGTON,VT,5401.0,541611.0,4/8/2020
627943,$1-2 million,"TATA'S NATURAL ALCHEMY, LLC",1136 Wooster Road,WHITING,VT,5778.0,325620.0,4/13/2020
627944,$1-2 million,"THE PEOPLE'S COMPUTER COMPANY, INC.",20 WINOOSKI FALLS WAY Suite 7,WINOOSKI,VT,5404.0,541511.0,4/5/2020
627945,$1-2 million,THE SKINNY PANCAKE INC.,21 Bright St,BURLINGTON,VT,5401.0,722511.0,4/8/2020
627946,$1-2 million,THE VERMONT TEDDY BEAR CO INC,6655 SHELBURNE ROAD,SHELBURNE,VT,5482.0,453220.0,4/11/2020
627947,$1-2 million,THETFORD ACADEMY,304 Academy Rd,THETFORD CENTER,VT,5075.0,611110.0,4/14/2020
627948,$1-2 million,"TIVOLY, INC.",434 Baxter Avenue,DERBY LINE,VT,5830.0,332721.0,4/13/2020
627949,$1-2 million,"TOTAL TEMPERATURE INSTRUMENTATION, INC.",35 Green Mountain Drive,SOUTH BURLINGTON,VT,5403.0,423490.0,4/8/2020
627950,$1-2 million,TYGATE MOTEL CORPORATION,1076 Williston Road,SOUTH BURLINGTON,VT,5403.0,722511.0,4/7/2020
627951,$1-2 million,UNDERWOOD CATERING INC,6212 VT ROUTE 105,ENOSBURG FALLS,VT,5450.0,722310.0,4/9/2020
627952,$1-2 million,"UPPER VALLEY SERVICES, INC.",2881 VT ROUTE 66,RANDOLPH,VT,5060.0,623110.0,4/8/2020
627953,$1-2 million,VERMONT ACADEMY,10 LONG WALK PO Box 500,SAXTONS RIVER,VT,5154.0,611699.0,4/12/2020
627954,$1-2 million,VERMONT BREAD COMPANY,80 Cotton Mill Hill,BRATTLEBORO,VT,5302.0,311812.0,4/30/2020
627955,$1-2 million,VERMONT COLLEGE OF FINE ARTS,36 COLLEGE ST,MONTPELIER,VT,5602.0,611610.0,4/8/2020
627956,$1-2 million,VERMONT LEGAL AID INC,264 N WINOOSKI AVE,BURLINGTON,VT,5401.0,541110.0,4/9/2020
627957,$1-2 million,"VERMONT MAPLE SUGAR COMPANY, INC.",37 Industrial Park Drive,MORRISVILLE,VT,5661.0,311930.0,4/4/2020
627958,$1-2 million,VERMONT MECHANICAL INCORPORATED,211 Blair Park Road,WILLISTON,VT,5495.0,238220.0,4/5/2020
627959,$1-2 million,VERTEK CORPORATION,356 Mountain View Drive,COLCHESTER,VT,5446.0,541618.0,4/12/2020
627960,$1-2 million,WAKE ROBIN CORPORATION,200 Wake Robin Drive,SHELBURNE,VT,5482.0,623312.0,4/15/2020
627961,$1-2 million,WESCO INC,32 SAN REMO DR,SOUTH BURLINGTON,VT,5403.0,447110.0,4/5/2020
627962,$1-2 million,"WESTMINSTER CRACKER COMPANY, INC.",1 Scale Ave Suite 81 Bldg 14,RUTLAND,VT,5701.0,424410.0,4/7/2020
627963,$1-2 million,"WHITNEY BLAKE OF VT, INC",20 INDUSTRIAL DR,BELLOWS FALLS,VT,5101.0,335931.0,4/7/2020
627964,"$350,000-1 million","***TIMBERLANE AD-DENT, PLC",60 TIMBER LANE,SOUTH BURLINGTON,VT,5403.0,621210.0,4/28/2020
627965,"$350,000-1 million","***TIMBERLANE DENTAL ASSOCIATES, PLC",60 TIMBER LN,SOUTH BURLINGTON,VT,5403.0,621210.0,4/27/2020
627966,"$350,000-1 million",3835 MAIN LLC,3835 Main St,MANCHESTER,VT,5254.0,721110.0,4/15/2020
627967,"$350,000-1 million",41 CHERRY STREET LLC,41 CHERRY ST,BURLINGTON,VT,5401.0,721110.0,6/5/2020
627968,"$350,000-1 million",800 RESPONSE MARKETING LLLC,1795 WILLISTON RD SUITE 200,SOUTH BURLINGTON,VT,5403.0,541613.0,4/13/2020
627969,"$350,000-1 million","A. COOPER MECHANICAL, INC.",171 Leroy Road,WILLISTON,VT,5495.0,238220.0,4/29/2020
627970,"$350,000-1 million",AADCO,2279 VT Route 66,RANDOLPH,VT,5060.0,423450.0,4/5/2020
627971,"$350,000-1 million","ABACUS AUTOMATION, INC.",264 SHIELDS DR,BENNINGTON,VT,5201.0,333999.0,4/10/2020
627972,"$350,000-1 million",ACTION MOVING & STORAGE,359 Jasper Mine Road PO Box 34,COLCHESTER,VT,5446.0,531130.0,4/8/2020
627973,"$350,000-1 million","ADAMS GRANITE CO., INC.",58 Pitman Rd,WEBSTERVILLE,VT,5678.0,327991.0,4/3/2020
627974,"$350,000-1 million","ADAMS, J.K. COMPANY, INC",1430 Route 30,DORSET,VT,5251.0,321999.0,4/13/2020
627975,"$350,000-1 million","ADVANCE TRANSIT, INC.",1027 PO BOX,WILDER,VT,5088.0,485999.0,4/11/2020
627976,"$350,000-1 million",ADVANCED ILLUMINATIONS,STATE GARAGE RD,ROCHESTER,VT,5767.0,334418.0,4/9/2020
627977,"$350,000-1 million","AE MACKENZIE, INC.",4854 MAIN ST,MANCHESTER CENTER,VT,5255.0,999990.0,4/5/2020
627978,"$350,000-1 million",AGAINST THE GRAIN GOURMET FOOD LLC,22 Browne Court Unit 119,BRATTLEBORO,VT,5301.0,311812.0,4/5/2020
627979,"$350,000-1 million",ALDERMAN MOTOR CAR LLC,33 SEWARD RD,RUTLAND,VT,5701.0,441110.0,4/10/2020
627980,"$350,000-1 million",ALDERMAN'S CHEVROLET INC,65 WINDCREST Road,RUTLAND,VT,5701.0,441110.0,4/10/2020
627981,"$350,000-1 million","ALKEN, INC.",40 HERCULES DR,COLCHESTER,VT,5446.0,334513.0,4/5/2020
627982,"$350,000-1 million",ALLARD LUMBER COMPANY,74 Glen Orne Drive,BRATTLEBORO,VT,5301.0,423310.0,4/14/2020
627983,"$350,000-1 million",ALLEARTH RENEWABLES INC,94 Harvest Lane,WILLISTON,VT,5495.0,532490.0,4/7/2020
627984,"$350,000-1 million",ALLEN ENGINEERING & CHEMICAL,1901 US Route 4,RUTLAND,VT,5701.0,424690.0,4/12/2020
627985,"$350,000-1 million","ALLEN LUMBER COMPANY, INC.",502 N MAIN ST,BARRE,VT,5641.0,444190.0,4/5/2020
627986,"$350,000-1 million","ALMARTIN MOTORS, INC.",85 Executive Drive 0.0,SHELBURNE,VT,5482.0,441110.0,4/9/2020
627987,"$350,000-1 million",AMERICAN INTERNATIONAL DISTRIBUTION CORPORATION,82 WINTER SPORT LN,WILLISTON,VT,5495.0,511199.0,4/8/2020
627988,"$350,000-1 million",AMERICAN MEADOWS INC.,2438 SHELBURNE RD,SHELBURNE,VT,5482.0,454110.0,4/9/2020
627989,"$350,000-1 million","AMR AUTO HOLDINGS - SN, LLC",429 Sykes Mountain Road,WHITE RIVER JUNCTION,VT,5001.0,441110.0,4/27/2020
627990,"$350,000-1 million",APPLIED BOLT TECH PRODUCTS LLC,1413 ROCKINGHAM RD,BELLOWS FALLS,VT,5101.0,332510.0,4/11/2020
627991,"$350,000-1 million","AREA RESOURCES FOR INDIVIDUAL SERVICES, INC.",72 South MAIN ST,WHITE RIVER JUNCTION,VT,5001.0,541214.0,4/7/2020
627992,"$350,000-1 million",ASK-INTTAG,1000 RIVER ST,ESSEX JCT,VT,5452.0,325211.0,5/5/2020
627993,"$350,000-1 million",AUGMENTATIVE LEARNING & MOVEMENT CENTER,786 College Parkway,COLCHESTER,VT,5446.0,611699.0,4/7/2020
627994,"$350,000-1 million","AURORA NORTH SOFTWARE, INC.",29 CHURCH ST,BURLINGTON,VT,5401.0,541512.0,4/11/2020
627995,"$350,000-1 million",AUTO MALL INC,800 PUTNEY RD,BRATTLEBORO,VT,5301.0,441110.0,4/7/2020
627996,"$350,000-1 million","AVE MARIA COMMUNITY CARE HOME, INC.",1 Pinnacle Meadows,RICHFORD,VT,5476.0,623110.0,4/10/2020
627997,"$350,000-1 million",AVERY INNS OF VERMONT INC,82 CLUBHOUSE RD,FAIRLEE,VT,5045.0,721110.0,4/5/2020
627998,"$350,000-1 million",AVONDA AIR SYSTEMS INC,1 Green Tree Dr,SOUTH BURLINGTON,VT,5403.0,238220.0,4/6/2020
627999,"$350,000-1 million",AWAKENING SANCTUARIES INC,1200 North Avenue,BURLINGTON,VT,5408.0,813219.0,4/7/2020
628000,"$350,000-1 million",B-D-R TRANSPORT INC.,7994 US ROUTE 5,WESTMINSTER,VT,5158.0,484110.0,4/12/2020
628001,"$350,000-1 million",BADGE MOTOR COMPANY,1325 SHELBURNE ROAD,SOUTH BURLINGTON,VT,5403.0,441110.0,4/12/2020
628002,"$350,000-1 million",BALANCE TEAM INC.,125 Battery Street,BURLINGTON,VT,5401.0,722511.0,4/6/2020
628003,"$350,000-1 million",BARAW ENTERPRISES INC,1746 MOUNTAIN RD,STOWE,VT,5672.0,813990.0,4/14/2020
628004,"$350,000-1 million",BARIATRIX NUTRITION CORP,308 INDUSTRIAL PARK RD,FAIRFAX,VT,5454.0,424210.0,4/13/2020
628005,"$350,000-1 million",BARRE GARDENS NURSING AND REHAB LLC,378 PROSPECT ST,BARRE,VT,5641.0,623110.0,4/27/2020
628006,"$350,000-1 million",BARRETT TRUCKING CO INC,16 Austin Drive,BURLINGTON,VT,5401.0,484110.0,4/8/2020
628007,"$350,000-1 million",BARTLEY OF VERMONT,4518 US RT 5,DERBY,VT,5829.0,722511.0,4/15/2020
628008,"$350,000-1 million","BAZIN BROTHERS TRUCKING, INC.",2425 BACK WESTMINSTER RD,WESTMINSTER,VT,5158.0,237310.0,4/12/2020
628009,"$350,000-1 million",BEACH PROPERTIES INC,4800 BASIN HARBOR RD,VERGENNES,VT,5491.0,721110.0,4/5/2020
628010,"$350,000-1 million","BEAUCO, LLC",3038 SHELBURNE RD,SHELBURNE,VT,5482.0,621610.0,4/8/2020
628011,"$350,000-1 million","BEE'S WRAP, LLC",383 Exchange Street,MIDDLEBURY,VT,5753.0,339999.0,4/4/2020
628012,"$350,000-1 million",BELLCATE LLC,1 Corporate Drive,ESSEX JUNCTION,VT,5452.0,923110.0,4/15/2020
628013,"$350,000-1 million","BENNINGTON AUTO MART, INC.",527 N. BENNINGTON RD,BENNINGTON,VT,5201.0,441110.0,4/3/2020
628014,"$350,000-1 million","BENNINGTON FURNITURE, INC.",1371 HARWOOD HILL RD,BENNINGTON,VT,5201.0,442110.0,4/4/2020
628015,"$350,000-1 million",BENNINGTON-RUTLAND OPPORTUNITY COUNCIL INC,45 UNION ST,RUTLAND,VT,5701.0,813319.0,4/6/2020
628016,"$350,000-1 million","BERLIN AUTOMOTIVE H1, INC.",224 Paine TPK N 0.0,BERLIN,VT,5602.0,441110.0,4/14/2020
628017,"$350,000-1 million","BERLIN AUTOMOTIVE S1, LLC",142 Berlin Mall Rd 0.0,BERLIN,VT,5602.0,441110.0,4/10/2020
628018,"$350,000-1 million","BERLIN AUTOMOTIVE T1, LLC",30 Berlin Mall Rd 0.0,BERLIN,VT,5602.0,441110.0,4/9/2020
628019,"$350,000-1 million","BERLIN CITY'S VERMONT REMARKETED AUTOS, INC.",586 Marshall Avenue 0.0,WILLISTON,VT,5495.0,441120.0,4/10/2020
628020,"$350,000-1 million","BETA TECHNOLOGIES, INC.",1150 AIRPORT DR,SOUTH BURLINGTON,VT,5403.0,336411.0,4/14/2020
628021,"$350,000-1 million","BETHEL MILLS, INC.",40 MARSH MEADOW RD,BETHEL,VT,5032.0,444190.0,4/3/2020
628022,"$350,000-1 million","BIBENS HOME CENTER, INC.",362 River Street,NORTH SPRINGFIELD,VT,5150.0,444130.0,4/12/2020
628023,"$350,000-1 million","BILODEAU WELLS AND COMPANY, PC",20 Main Street,ESSEX JUNCTION,VT,5452.0,541211.0,4/7/2020
628024,"$350,000-1 million",BIRDSEYE BUILDING COMPANY,3104 Huntington Rd,RICHMOND,VT,5477.0,236115.0,4/7/2020
628025,"$350,000-1 million",BLISSRITE PIZZA COMPANY INC,PO BOX 51,LYNDONVILLE,VT,5851.0,722511.0,4/4/2020
628026,"$350,000-1 million","BLUE SPRUCE FARM, INC.",1796 VT Rte. 22A,BRIDPORT,VT,5734.0,112120.0,4/9/2020
628027,"$350,000-1 million",BOGNER OF AMERICA INC,128 Lakeside Drive Suite 302,BURLINGTON,VT,5401.0,424320.0,4/15/2020
628028,"$350,000-1 million",BOMFRIED FOODSERVICE LLC,401 WATERTOWER CIR STE 302,COLCHESTER,VT,5446.0,541211.0,4/9/2020
628029,"$350,000-1 million","BOOSKA MOVERS, INC.",180 Flynn Ave,BURLINGTON,VT,5401.0,484210.0,4/28/2020
628030,"$350,000-1 million","BOUCHARD-PIERCE, INC.",127 PEARL ST,ESSEX JUNCTION,VT,5452.0,443141.0,4/10/2020
628031,"$350,000-1 million",BOURDEAU BROS. INC.,25 Severance Road,SHELDON,VT,5483.0,424910.0,4/10/2020
628032,"$350,000-1 million",BRATTLEBORO FOOD CO-OP INC,2 Main Street,BRATTLEBORO,VT,5301.0,445110.0,4/5/2020
628033,"$350,000-1 million","BRATTLEBORO MUTUAL AID ASSOCIATION, INC.",80 Maple Street,BRATTLEBORO,VT,5301.0,623110.0,4/29/2020
628034,"$350,000-1 million",BRATTLEBORO SUBARU LLC,1234 Putney Road 0.0,BRATTLEBORO,VT,5301.0,441110.0,4/13/2020
628035,"$350,000-1 million",BREAD LOAF CORPORATION,1293 Route 7,MIDDLEBURY,VT,5753.0,236220.0,4/5/2020
628036,"$350,000-1 million","BRITTON LUMBER COMPANY, LLC",7 ELY RD,FAIRLEE,VT,5045.0,423310.0,4/4/2020
628037,"$350,000-1 million","BRUNWICK PUBLISHING, LLC",77 GROVE ST SUITE 102,RUTLAND,VT,5701.0,511110.0,4/15/2020
628038,"$350,000-1 million",BUILT BY NEWPORT CORPORATION,450 MAIN ST,NEWPORT,VT,5855.0,337122.0,6/8/2020
628039,"$350,000-1 million",BURKE MOUNTAIN ACADEMY INCORPORATED,60 ALPINE LN,EAST BURKE,VT,5832.0,611110.0,4/4/2020
628040,"$350,000-1 million","BURLINGTON HARBOR HOTEL GROUP, LLC",25 CHERRY ST,BURLINGTON,VT,5401.0,721110.0,6/5/2020
628041,"$350,000-1 million",BUTSON HOTEL INVESTMENTS LLC,47 FARRELL RD,RUTLAND,VT,5701.0,531120.0,4/12/2020
628042,"$350,000-1 million","BUTTURA & SONS, INC.",109 Boynton St,BARRE,VT,5641.0,327991.0,4/3/2020
628043,"$350,000-1 million",BVR LLC,4302 Bolton Valley Access Road,BOLTON VALLEY,VT,5477.0,713920.0,4/5/2020
628044,"$350,000-1 million",C.R.W. CORPORATION,795 MARSHALL AVE,WILLISTON,VT,5495.0,423810.0,4/10/2020
628045,"$350,000-1 million","CALEDONIA SPIRITS, INC.",116 GIN LN,MONTPELIER,VT,5602.0,312140.0,4/8/2020
628046,"$350,000-1 million",CALEDONIAN RECORD PUBLISHING COMPANY INC,190 FEDERAL ST,SAINT JOHNSBURY,VT,5819.0,511110.0,4/3/2020
628047,"$350,000-1 million","CALMONT BEVERAGE COMPANY, INC",308 INDUSTRIAL LN,BARRE,VT,5641.0,424820.0,4/9/2020
628048,"$350,000-1 million","CAMP PRECAST CONCRETE PRODUCTS, INC.",78 Precast Rd,MILTON,VT,5468.0,327390.0,4/6/2020
628049,"$350,000-1 million","CAPITOL CITY AUTO MART, INC.",1162 US ROUTE 2,BERLIN,VT,5602.0,441110.0,4/3/2020
628050,"$350,000-1 million",CATAMOUNT COMMERCIAL SERVICES INC,100 BANK ST STE 200,BURLINGTON,VT,5401.0,531311.0,4/5/2020
628051,"$350,000-1 million","CATAMOUNT HOSPITALITY, LLC",78 MAIN ST,BURLINGTON,VT,5401.0,722511.0,4/7/2020
628052,"$350,000-1 million","CATAMOUNT VETERINARY SPECIALTY AND EMERGENCY HOSPITAL, P.C.",1417 Marshall Ave,WILLISTON,VT,5495.0,541940.0,4/12/2020
628053,"$350,000-1 million",CAVE MANUFACTURING INC,22 BROWNE CT Unit 104,BRATTLEBORO,VT,5301.0,332710.0,4/10/2020
628054,"$350,000-1 million","CCS CONSTRUCTORS, INC.",138 Munson Ave,MORRISVILLE,VT,5661.0,238990.0,4/6/2020
628055,"$350,000-1 million",CEDAR HILL HEALTH CARE CTR,49 CEDAR HILL DR,WINDSOR,VT,5089.0,623110.0,4/9/2020
628056,"$350,000-1 million",CELLARS AT JASPER HILL LLC,884 GARVIN HILL RD,GREENSBORO BEND,VT,5842.0,311513.0,4/4/2020
628057,"$350,000-1 million","CELTIC MARKETING FOOD BROKERS, INC.",1350 Main Street,SAINT JOHNSBURY,VT,5819.0,425120.0,4/28/2020
628058,"$350,000-1 million",CERSOSIMO INDUSTRIES INC,1103 VERNON ST,BRATTLEBORO,VT,5301.0,113110.0,4/6/2020
628059,"$350,000-1 million",CHAMPLAIN COMMUNITY SERVICES INC,512 TROY AVE,COLCHESTER,VT,5446.0,624310.0,4/9/2020
628060,"$350,000-1 million",CHAMPLAIN MILL RESTAURANT,20 Winooski Falls Way,WINOOSKI,VT,5404.0,722511.0,4/13/2020
628061,"$350,000-1 million","CHIPPERS, INC.",1241 561POMFRET RD,WOODSTOCK,VT,5091.0,561730.0,4/10/2020
628062,"$350,000-1 million",CHITTENDEN RESORTS LLC,195 MT TOP RD,CHITTENDEN,VT,5737.0,721110.0,4/10/2020
628063,"$350,000-1 million",CHURCH STREET HOSPITALITY INC,740 PO BOX 740,DORSET,VT,5251.0,721191.0,4/6/2020
628064,"$350,000-1 million","CITIZEN CIDER, LLC",315 Pine Street Suite 114,BURLINGTON,VT,5401.0,312120.0,4/3/2020
628065,"$350,000-1 million","CLIMATE SYSTEMS, INC.","177 Avenue C, Suite 110",WILLISTON,VT,5495.0,238220.0,4/11/2020
628066,"$350,000-1 million",CM HEALTHCARE LLC,312 Crescent Blvd,BENNINGTON,VT,5201.0,623110.0,4/12/2020
628067,"$350,000-1 million","CODY CHEVROLET, INC.",364 RIVER ST,MONTPELIER,VT,5602.0,441110.0,4/5/2020
628068,"$350,000-1 million","COLE ELECTRIC, INC.",205 CHURCH LN,EAST THETFORD,VT,5043.0,238210.0,4/4/2020
628069,"$350,000-1 million",COMMITTEE ON TEMPORARY SHELTER,95 North Avenue,BURLINGTON,VT,5401.0,624190.0,4/10/2020
628070,"$350,000-1 million","CONCRETE FOUNDATION, INC",535 Lost Nation Road,CRAFTSBURY COMMON,VT,5827.0,813410.0,4/13/2020
628071,"$350,000-1 million","CONNOR CONTRACTING, INC.",1100 U.S. Route 2,MONTPELIER,VT,5602.0,236220.0,4/30/2020
628072,"$350,000-1 million",CONVERSE HOME INC.,272 Church Street,BURLINGTON,VT,5401.0,623312.0,4/14/2020
628073,"$350,000-1 million",CORNELL ONLINE LLC,131 Battery Street,BURLINGTON,VT,5401.0,454110.0,4/11/2020
628074,"$350,000-1 million","CREATIVE LABELS OF VERMONT,INC",11TIGAN ST,WINOOSKI,VT,5404.0,323111.0,4/3/2020
628075,"$350,000-1 million",CREATIVE MICROSYSTEMS CORPORATION,49 Fiddler's Green,WAITSFIELD,VT,5673.0,541713.0,4/10/2020
628076,"$350,000-1 million",D & C TRANSPORTATION INC,32 Railroad Ave,ORLEANS,VT,5860.0,423990.0,4/10/2020
628077,"$350,000-1 million",DA CAPO PUBLISHING,255 S Champlain St,BURLINGTON,VT,5401.0,511110.0,4/9/2020
628078,"$350,000-1 million","DALE E PERCY, INC.",269 Weeks Hill Rd,STOWE,VT,5672.0,238910.0,4/4/2020
628079,"$350,000-1 million","DANFORTH PEWTERERS, LTD",52 SEYMOUR ST,MIDDLEBURY,VT,5753.0,453920.0,4/6/2020
628080,"$350,000-1 million","DARREN BOLES, D.D.S., P.L.L.C.",1 Place Notre Dame,SAINT JOHNSBURY,VT,5819.0,621210.0,4/11/2020
628081,"$350,000-1 million","DAVIS & HODGDON ASSOCIATES, CPAS, PLC",33 Blair Park Rd,WILLISTON,VT,5495.0,541211.0,4/10/2020
628082,"$350,000-1 million","DENECKER CHEVROLET, INC.",510 Route 7 South,MIDDLEBURY,VT,5753.0,441110.0,4/6/2020
628083,"$350,000-1 million",DENNIS WHITE INTERIOR CONTRACTORS INC,462 SHUNPIKE RD,WILLISTON,VT,5495.0,238310.0,4/10/2020
628084,"$350,000-1 million",DERBY CHRYSLER DODGE JEEP INC.,4441 US ROUTE 2,DERBY,VT,5829.0,441110.0,4/3/2020
628085,"$350,000-1 million",DINELEY CLAIMS SERVICES INC,236 Elkhorn Road,WAITSFIELD,VT,5673.0,524126.0,4/7/2020
628086,"$350,000-1 million",DINSE P.C.,209 Battery Street,BURLINGTON,VT,5401.0,541110.0,4/9/2020
628087,"$350,000-1 million",DIRT TECH COMPANY LLC,68 CHAMPLAIN DRIVE,COLCHESTER,VT,5446.0,238910.0,4/12/2020
628088,"$350,000-1 million","DONUTS OF RUTLAND, INC",217 NORTH MAIN ST,RUTLAND,VT,5701.0,445120.0,4/3/2020
628089,"$350,000-1 million","DOWNEY, PIECIAK, FITZGERALD AND CO, PC",10 Park Place,BRATTLEBORO,VT,5301.0,541219.0,4/8/2020
628090,"$350,000-1 million",DOWNSTREET HOUSING & COMMUNITY DEVELOPMENT INC,KEITH AVE,BARRE,VT,5641.0,236115.0,4/5/2020
628091,"$350,000-1 million","DRIVEN STUDIO, INC.",1 LAWSON LN STE 225,BURLINGTON,VT,5401.0,812990.0,4/8/2020
628092,"$350,000-1 million","DUNKIEL SAUNDERS ELLIOTT RAUBVOGEL & HAND, PLLC",91 COLLEGE ST,BURLINGTON,VT,5401.0,541110.0,4/15/2020
628093,"$350,000-1 million","E. F. WALL & ASSOCIATES, INC.",131 SOUTH MAIN ST,BARRE,VT,5641.0,236220.0,4/5/2020
628094,"$350,000-1 million","EASTVIEW AT MIDDLEBURY, INC.",100 EASTVIEW TER,MIDDLEBURY,VT,5753.0,623110.0,4/27/2020
628095,"$350,000-1 million",EBLOCK CORPORATION,212 BATTERY ST Suite 3,BURLINGTON,VT,5401.0,511210.0,4/8/2020
628096,"$350,000-1 million",EDGE PHARMACY SERVICES,856 Hercules Drive,COLCHESTER,VT,5446.0,325411.0,4/15/2020
628097,"$350,000-1 million",ENDYNE INC,160 James Brown Drive,WILLISTON,VT,5495.0,541380.0,4/9/2020
628098,"$350,000-1 million","EQUINOX TERRACE ASSOCIATES, LLC",324 EQUINOX TERRACE RD,MANCHESTER CENTER,VT,5255.0,623312.0,4/13/2020
628099,"$350,000-1 million",ESSEX FAMILY DENTISTRY,11 MARKET PL,ESSEX JUNCTION,VT,5452.0,621210.0,4/15/2020
628100,"$350,000-1 million","ESSEX MANSFIELD, LLC, TOWN",18 CARMICHAEL ST,ESSEX JUNCTION,VT,5452.0,623311.0,4/9/2020
628101,"$350,000-1 million","ESSEX PEDIATRICS, PC",89 MAIN ST,ESSEX JUNCTION,VT,5452.0,621111.0,4/7/2020
628102,"$350,000-1 million",ESSEX RENTAL & SALES CENTER,26 Kellogg Road,ESSEX JUNCTION,VT,5452.0,444210.0,4/7/2020
628103,"$350,000-1 million",EVERGREEN FAMILY HEALTH PARTNERS,28 PARK AVE,WILLISTON,VT,5495.0,621111.0,4/7/2020
628104,"$350,000-1 million","F.R. LAFAYETTE, INC.",52 KELLOGG ROAD,ESSEX JUNCTION,VT,5452.0,237310.0,4/11/2020
628105,"$350,000-1 million","FABIAN EARTH MOVING, INC",1409 PLEASANT ST,WEST RUTLAND,VT,5777.0,238910.0,4/3/2020
628106,"$350,000-1 million",FAITH'S FORD LLC,1147 PUTNEY RD,BRATTLEBORO,VT,5301.0,441110.0,4/11/2020
628107,"$350,000-1 million",FAMBA AUTOMOTIVE INC,6896 US - 5,WESTMINSTER,VT,5158.0,441110.0,4/13/2020
628108,"$350,000-1 million",FAMILIES FIRST IN SOUTHERN VERMONT,18 AUSTINE DR,BRATTLEBORO,VT,5301.0,621999.0,4/10/2020
628109,"$350,000-1 million","FARADAY, INC.",431 PINE ST,BURLINGTON,VT,5401.0,541511.0,4/8/2020
628110,"$350,000-1 million",FARM AND WILDERNESS FOUNDATION INC,401 FARM AND WILDERNESS RD,PLYMOUTH,VT,5056.0,721214.0,4/8/2020
628111,"$350,000-1 million",FARMWAY INC,286 WAITS RIVER RD,BRADFORD,VT,5033.0,453998.0,4/5/2020
628112,"$350,000-1 million",FARRINGTON CONSTRUCTION COMPANY INC,4724 Spear Street,SHELBURNE,VT,5482.0,236117.0,4/6/2020
628113,"$350,000-1 million","FEED COMMODITIES INTERNATIONAL, INC.",47 Feed Mill Lane,MIDDLEBURY,VT,5753.0,484110.0,4/13/2020
628114,"$350,000-1 million","FLYNN CENTER FOR THE PERFORMING ARTS, LTD.",153 MAIN ST,BURLINGTON,VT,5401.0,711110.0,4/5/2020
628115,"$350,000-1 million",FOLEY DISTRIBUTING CORP,280 Seward Road,RUTLAND,VT,5702.0,423850.0,4/14/2020
628116,"$350,000-1 million",FOLEY SERVICES INC,133 STATE ST,RUTLAND,VT,5701.0,812332.0,4/11/2020
628117,"$350,000-1 million",FORMULA FORD INC,265 River St,MONTPELIER,VT,5602.0,441110.0,4/7/2020
628118,"$350,000-1 million",FORMULA FORD LINCOLN OF RUTLAND COUNTY INC,4318 Middle Rd,RUTLAND,VT,5701.0,441110.0,4/7/2020
628119,"$350,000-1 million","FOTHERGILL SEGALE & VALLEY, P.C.",143 BARRE ST,MONTPELIER,VT,5602.0,541211.0,4/5/2020
628120,"$350,000-1 million",FOUR /SEASONS DERMOTOLOGY LLC,354 MOUNTAIN VIEW DR Suite 300,COLCHESTER,VT,5446.0,621111.0,4/7/2020
628121,"$350,000-1 million",FOUR HILLS FARM PARTNERSHIP,722 Burpee Rd,BRISTOL,VT,5443.0,424510.0,4/14/2020
628122,"$350,000-1 million",FOUR SEASON INTERNATIONAL REALTY,550 Hinesburg Road,SOUTH BURLINGTON,VT,5403.0,531210.0,4/10/2020
628123,"$350,000-1 million","FRANKLIN COUNTY REHAB CENTER, LLC",110 Fairfax Rd,SAINT ALBANS,VT,5478.0,623990.0,4/4/2020
628124,"$350,000-1 million","FRED'S PLUMBING & HEATING, INC.",326 Main St,DERBY,VT,5829.0,238220.0,4/10/2020
628125,"$350,000-1 million","FRED'S PROPANE, INC.",326 Main St,DERBY,VT,5829.0,424720.0,4/9/2020
628126,"$350,000-1 million","FREEDOM NISSAN, INC.",1095 Shelburne Rd,SOUTH BURLINGTON,VT,5403.0,441110.0,4/3/2020
628127,"$350,000-1 million",FUSE INTEGRATED  SPORTS MARKET,110 West Canal Street #101,WINOOSKI,VT,5404.0,541613.0,4/4/2020
628128,"$350,000-1 million",FYLES BROTHERS INC,425 NEEDHAM HILL RD,ORWELL,VT,5760.0,454310.0,4/7/2020
628129,"$350,000-1 million","G. STONE MOTORS, INC.",36 Boardman Street P.O. Box 527,MIDDLEBURY,VT,5753.0,441110.0,4/7/2020
628130,"$350,000-1 million",G. W. TATRO CONSTRUCITON INC.,17 G.W. Tatro Drive,JEFFERSONVILLE,VT,5464.0,238910.0,4/4/2020
628131,"$350,000-1 million",G.W. SAVAGE CORP,16 GREGORY DR,SOUTH BURLINGTON,VT,5403.0,238990.0,4/6/2020
628132,"$350,000-1 million","GARDEN PATH ELDER LIVING, INC.",65 Harris Avenue,BRATTLEBORO,VT,5301.0,623312.0,4/27/2020
628133,"$350,000-1 million",GAUTHIER TRUCKING CO INC,5 Gauthier Dr,ESSEX JCT,VT,5452.0,212321.0,4/29/2020
628134,"$350,000-1 million",GENFOOT AMERICA INC,33 CATAMOUNT DR,MILTON,VT,5468.0,316210.0,4/27/2020
628135,"$350,000-1 million",GILLESPIE FUELS & PROPANE INC,141 Wall street,NORTHFIELD,VT,5663.0,454310.0,4/9/2020
628136,"$350,000-1 million",GILMAN HOUSING TRUST,59 Elm Street,LYNDONVILLE,VT,5851.0,921190.0,4/6/2020
628137,"$350,000-1 million","GLOUCESTER ASSOCIATES, INC.",10 Transport Drive,BARRE,VT,5641.0,332710.0,4/28/2020
628138,"$350,000-1 million","GMH LEASING, LLC",7668 US ROUTE 5,WESTMINSTER,VT,5158.0,484110.0,4/7/2020
628139,"$350,000-1 million",GORDINI USA INC,67 Allen Martin Dr,ESSEX JUNCTION,VT,5452.0,314999.0,4/13/2020
628140,"$350,000-1 million","GRAND AVENUE ENTERPRISES, INC.",PO Box 222,SWANTON,VT,5488.0,811111.0,4/6/2020
628141,"$350,000-1 million",GRAVEL & SHEA PC,76 ST PAUL STREET,BURLINGTON,VT,5402.0,541110.0,4/13/2020
628142,"$350,000-1 million","GREEN MOUNTAIN BEHAVIOR CONSULTING, INC.",288 Gallison Hill Rd Suite 3,MONTPELIER,VT,5602.0,611710.0,4/8/2020
628143,"$350,000-1 million","GREEN MOUNTAIN MESSENGER, INC.",54 ECHO PL #1,WILLISTON,VT,5495.0,492110.0,4/5/2020
628144,"$350,000-1 million",GREEN MOUNTAIN NURSING AND REHABILITATION CENTER LLC,475 ETHAN ALLEN AVE,COLCHESTER,VT,5446.0,623110.0,4/29/2020
628145,"$350,000-1 million","GREEN MOUNTAIN SEMICONDUCTOR, INC.",182 MAIN ST,BURLINGTON,VT,5401.0,541330.0,4/30/2020
628146,"$350,000-1 million",GREEN MOUNTAIN SUPPORT SERVICES INC,93 James Rd,MORRISVILLE,VT,5661.0,623110.0,4/9/2020
628147,"$350,000-1 million",GREEN MOUNTAIN VALLEY SCHOOL,271 Moulton Road,WAITSFIELD,VT,5673.0,611110.0,4/10/2020
628148,"$350,000-1 million",GREENSBORO HOSPITAL ASSOCIATION INC.,47 Maggies Pond Road,GREENSBORO,VT,5841.0,623110.0,4/3/2020
628149,"$350,000-1 million","GREENSEA SYSTEMS, INC.",10 E Main Street,RICHMOND,VT,5477.0,541330.0,4/8/2020
628150,"$350,000-1 million","GREENSTONE SLATE COMPANY, INC.",325 Upper Road,POULTNEY,VT,5764.0,212311.0,4/7/2020
628151,"$350,000-1 million","HAEMATOLOGIC TECHNOLOGIES, LLC",57 River Rd Unit 1021,ESSEX JUNCTION,VT,5452.0,325414.0,4/14/2020
628152,"$350,000-1 million","HANDY AUTOMOTIVE, INC",701 Highgate Road,SAINT ALBANS,VT,5478.0,441110.0,4/7/2020
628153,"$350,000-1 million",HANDY BUICK GMC CADILLAC INC,405 Swanton Road,SAINT ALBANS,VT,5478.0,441110.0,4/10/2020
628154,"$350,000-1 million",HANDY CHEVROLET INC,699 Highgate Road,SAINT ALBANS,VT,5478.0,441110.0,4/7/2020
628155,"$350,000-1 million",HARRISON REDI-MIX CORP.,P.O. Box 2098,GEORGIA,VT,5468.0,327320.0,4/9/2020
628156,"$350,000-1 million",HB ENERGY SOLUTIONS INC,132 BRIDGE ST,SPRINGFIELD,VT,5156.0,238220.0,4/6/2020
628157,"$350,000-1 million",HEARTHSTONE QHHP,317 STAFFORD AVE,MORRISVILLE,VT,5661.0,333414.0,4/29/2020
628158,"$350,000-1 million",HEIRLOOM HOSPITALITY,23 Main Street,WATERBURY,VT,5676.0,722511.0,4/8/2020
628159,"$350,000-1 million",HERITAGE AVIATION INC,228 AVIATION AVE,SOUTH BURLINGTON,VT,5403.0,488119.0,4/6/2020
628160,"$350,000-1 million",HICKOK & BOARDMAN FINANCIAL PLANNING & GROUP BENEFITS INC.,346 Shelburne Road,BURLINGTON,VT,5401.0,523999.0,4/6/2020
628161,"$350,000-1 million",HIGH MOWING SEEDS COMPANY,76 QUARRY RD,WOLCOTT,VT,5680.0,424910.0,4/15/2020
628162,"$350,000-1 million","HOMESTEAD LANDSCAPING & GARDEN CENTER, LTD.",5 Lower Taylor Hill Road,BONDVILLE,VT,5340.0,561730.0,4/12/2020
628163,"$350,000-1 million",HOUSING VERMONT,100 BANK ST SUITE 400,BURLINGTON,VT,5401.0,531390.0,4/10/2020
628164,"$350,000-1 million",HUNTER EXCAVATING INC,2218 VT Route 100,SOUTH LONDONDERRY,VT,5155.0,237990.0,4/4/2020
628165,"$350,000-1 million","HUNTINGTON HOMES, INC",344 FASSETT RD,EAST MONTPELIER,VT,5651.0,321992.0,4/5/2020
628166,"$350,000-1 million",IMARKET SOLUTIONS INC,150 SOUTH CHAMPLAIN ST 3rd FLOOR,BURLINGTON,VT,5401.0,541810.0,4/8/2020
628167,"$350,000-1 million",INDUSTRIAL FOUR INC,18 Corporate Dr,ESSEX JUNCTION,VT,5452.0,236210.0,4/6/2020
628168,"$350,000-1 million",INNER TRADITIONS INTERNATIONAL LTD,ONE PARK ST,ROCHESTER,VT,5767.0,511130.0,4/10/2020
628169,"$350,000-1 million",INSTITUTE FOR SUSTAINABLE COMMUNITIES,535 Stone Cutters Way,MONTPELIER,VT,5602.0,541611.0,4/7/2020
628170,"$350,000-1 million","IP CAPITAL GROUP, INC.",426 INDUSTRIAL AVE Suite 150,WILLISTON,VT,5495.0,541219.0,4/9/2020
628171,"$350,000-1 million",J A MORRISSEY INC,464 Shunpike Rd,WILLISTON,VT,5495.0,236220.0,4/6/2020
628172,"$350,000-1 million",J AND B INTERNATIONAL TRKS INC,964 HERCULES DR,COLCHESTER,VT,5446.0,441228.0,4/10/2020
628173,"$350,000-1 million","JACK ASSOCIATES REAL ESTATE, INC.",1161 Williston Road,SOUTH BURLINGTON,VT,5403.0,531210.0,4/6/2020
628174,"$350,000-1 million","JAMAICA COTTAGE SHOP, INC.",170 WINHALL STATION RD,SOUTH LONDONDERRY,VT,5155.0,321992.0,4/7/2020
628175,"$350,000-1 million",JBM SHERMAN CARMEL INC,14 MORSE RD,BENNINGTON,VT,5201.0,332313.0,4/8/2020
628176,"$350,000-1 million",JOSEPH P CARRARA & SONS INC,167 NORTH SHREWSBURY ROAD,NORTH CLARENDON,VT,5759.0,238120.0,4/11/2020
628177,"$350,000-1 million",JP SICARD INC,234 GLOVER RD,BARTON,VT,5822.0,238910.0,4/6/2020
628178,"$350,000-1 million",K-INVEST-CORP.,158 Brentwood drive # 7,COLCHESTER,VT,5446.0,531110.0,4/10/2020
628179,"$350,000-1 million",KAYTEC INC,402 Boyer Cir,WILLISTON,VT,5495.0,999990.0,5/3/2020
628180,"$350,000-1 million","KB ACQUISITIONS 2, LLC",2 Franklin Park West,SAINT ALBANS,VT,5478.0,531120.0,4/3/2020
628181,"$350,000-1 million","KB ACQUISITIONS, LLC",2 Franklin Park West,SAINT ALBANS,VT,5478.0,441110.0,4/3/2020
628182,"$350,000-1 million",KBP COIL COATERS INC,402 Boyer Circle,WILLISTON,VT,5495.0,,5/3/2020
628183,"$350,000-1 million",KEEYWAYDIN FOUNDATION,500 Rustic Lane,SALISBURY,VT,5769.0,721214.0,4/6/2020
628184,"$350,000-1 million","KEY MOTORS OF RUTLAND, LLC",211 US Route 7,RUTLAND,VT,5701.0,441110.0,4/5/2020
628185,"$350,000-1 million",KEY MOTORS OF SOUTH BURLINGTON LLC,1675 Shelburne Rd.,SOUTH BURLINGTON,VT,5043.0,441110.0,4/11/2020
628186,"$350,000-1 million",KILLINGTON MOUNTAIN SCHOOL INC,2708 Killington Road,KILLINGTON,VT,5751.0,611110.0,4/7/2020
628187,"$350,000-1 million","KINGDOM REHABILITATION CENTER, LLC",60 Maple Lane,BARTON,VT,5822.0,623110.0,4/6/2020
628188,"$350,000-1 million","KINNEY MOTORS, LTD",176 US Route 7 S 0.0,RUTLAND,VT,5701.0,441110.0,4/10/2020
628189,"$350,000-1 million",KINNEY PIKE INSURANCE INC,98 MERCHANTS ROW,RUTLAND,VT,5702.0,524210.0,4/6/2020
628190,"$350,000-1 million",KITTELL BRANAGAN & SARGENT,154 NORTH MAIN ST,SAINT ALBANS,VT,5478.0,541211.0,4/7/2020
628191,"$350,000-1 million",KOMBI LTD,6 THOMPSON DR,ESSEX JUNCTION,VT,5452.0,423910.0,4/12/2020
628192,"$350,000-1 million",L&D SAFETY MARKING CORPORATION,304 East Montpelier Rd,BARRE,VT,5641.0,237310.0,4/10/2020
628193,"$350,000-1 million",LAMELL LUMBER CORPORATION,82 #A Jericho Rd,ESSEX JUNCTION,VT,5452.0,321113.0,4/9/2020
628194,"$350,000-1 million",LAMOILLE HOME HEALTH AGENCY INC.,54 Farr Avenue,MORRISVILLE,VT,5661.0,621610.0,4/10/2020
628195,"$350,000-1 million",LAMOILLE VALLEY CHEVROLET INC.,868 VT Rte 15 East,HYDE PARK,VT,5655.0,441110.0,4/4/2020
628196,"$350,000-1 million",LAMOILLE VALLEY FORD INC.,222 VT Rte 15 West,HARDWICK,VT,5843.0,441110.0,4/3/2020
628197,"$350,000-1 million",LAMOILLE VALLEY TRANSPORTATION INC,643 VT ROUTE 15W,MORRISVILLE,VT,5661.0,485410.0,4/8/2020
628198,"$350,000-1 million","LANCE SMITH, INC",85 Gonyeau Rd,COLCHESTER,VT,5446.0,711219.0,4/13/2020
628199,"$350,000-1 million",LANDM SERVICE CONTRACTORS LLC,287 River ROad,NORWICH,VT,5055.0,237110.0,4/16/2020
628200,"$350,000-1 million","LANGROCK SPERRY & WOOL, LLP",111 SOUTH PLEASANT ST,MIDDLEBURY,VT,5753.0,541110.0,4/7/2020
628201,"$350,000-1 million","LAWSON'S FINEST LIQUIDS, LLC",155 CARROLL RD,WAITSFIELD,VT,5673.0,312120.0,4/10/2020
628202,"$350,000-1 million",LEADER DISTRIBUTION SYSTEMS,1568 PUTNEY RD,BRATTLEBORO,VT,5301.0,424490.0,4/11/2020
628203,"$350,000-1 million","LEADER EVAPORATOR CO., INC.",49 Jonergin Drive,SWANTON,VT,5488.0,423440.0,4/4/2020
628204,"$350,000-1 million",LEAHY CENTER FOR LAKE CHAMPLAIN INC,1 College Street,BURLINGTON,VT,5401.0,712130.0,4/7/2020
628205,"$350,000-1 million","LEDDYNAMICS, INC.",296 BEANVILLE RD,RANDOLPH,VT,5060.0,334413.0,4/13/2020
628206,"$350,000-1 million",LENNY'S SHOE & APPAREL INC.,359 North Main Street,BARRE,VT,5641.0,448140.0,4/3/2020
628207,"$350,000-1 million","LEONINE PUBLIC AFFAIRS, LLP","1 BLANCHARD CT, STE 101",MONTPELIER,VT,5602.0,541820.0,4/10/2020
628208,"$350,000-1 million","LET'S GROW KIDS, INC.",3 Court Street C/O VCF,MIDDLEBURY,VT,5753.0,813219.0,5/5/2020
628209,"$350,000-1 million",LINCOLN STREET INC.,374 RIVER ST,SPRINGFIELD,VT,5156.0,624120.0,4/9/2020
628210,"$350,000-1 million","LIQUID MEASUREMENT SYSTEMS, INC",141 Morse Drive,MILTON,VT,5468.0,336412.0,4/10/2020
628211,"$350,000-1 million",LITTLE RIVERS HEALTH CARE INC.,146 MILL ST,BRADFORD,VT,5033.0,621111.0,4/9/2020
628212,"$350,000-1 million",LONG TRAIL BREWING COMPANY,5520 US Rte. 4,BRIDGEWATER CORNERS,VT,5035.0,312120.0,4/3/2020
628213,"$350,000-1 million","LONG TRAIL SCHOOL, INC.",1045 Kirby Hollow Road,DORSET,VT,5251.0,611110.0,4/13/2020
628214,"$350,000-1 million","LOUIS GARNEAU USA, INC.",3916 US ROUTE 5,DERBY,VT,5829.0,423910.0,4/29/2020
628215,"$350,000-1 million",LOVEJOY TOOL CO,133 MAIN ST,SPRINGFIELD,VT,5156.0,333515.0,4/8/2020
628216,"$350,000-1 million","LUCKY'S TRAILER SALES, INC. (LTS)",402 Vermont Route 107,SOUTH ROYALTON,VT,5068.0,532120.0,4/3/2020
628217,"$350,000-1 million",LYNDON WOODWORKING INC,PO Box 59,LYNDON,VT,5849.0,337125.0,4/4/2020
628218,"$350,000-1 million","MAITRI HEALTH CARE FOR WOMEN, PC",185 TILLEY DR,SOUTH BURLINGTON,VT,5403.0,621111.0,4/10/2020
628219,"$350,000-1 million",MAMAVA INC,180 BATTERY ST Suite 210,BURLINGTON,VT,5401.0,423210.0,4/7/2020
628220,"$350,000-1 million",MAMMUT SPORTS GROUP INC,458 Hurricane Lane suite 111,WILLISTON,VT,5495.0,423910.0,4/15/2020
628221,"$350,000-1 million",MANCHESTER CAPITAL MANAGEMENT LLC,416 PO BOX 416 3657 MAIN STREET,MANCHESTER,VT,5254.0,523920.0,4/7/2020
628222,"$350,000-1 million","MANSFIELD HALL, LLC",289 COLLEGE ST,BURLINGTON,VT,5401.0,611710.0,4/9/2020
628223,"$350,000-1 million",MANUFACTURING INFORMATION SYSTEMS INC,217-4 Maxham Meadow Way 2G,WOODSTOCK,VT,5091.0,511210.0,4/15/2020
628224,"$350,000-1 million",MAPLE CAPITAL MANAGEMENT,535 Stone Cutters Way,MONTPELIER,VT,5602.0,541611.0,4/8/2020
628225,"$350,000-1 million",MAPLE PRO INC,3 Lemnah Drive,SAINT ALBANS,VT,5478.0,423830.0,4/13/2020
628226,"$350,000-1 million","MARKOWSKI EXCAVATING, INC","2704 West Creek Road, P.O. Box 69",FLORENCE,VT,5744.0,238910.0,4/13/2020
628227,"$350,000-1 million","MARY JOHNSON CHILDREN'S CENTER, INC.",81 WATER ST,WEYBRIDGE,VT,5753.0,624410.0,4/9/2020
628228,"$350,000-1 million",MARY MEYER CORP,155 HILLWINDS ln,BRATTLEBORO,VT,5301.0,423920.0,4/10/2020
628229,"$350,000-1 million","MATRIX HEALTH SYSTEMS, P.C.",86 Lake St,BURLINGTON,VT,5401.0,621112.0,4/7/2020
628230,"$350,000-1 million","MAZEL TEC, INC",1652 Mountain Road,STOWE,VT,5672.0,451110.0,4/3/2020
628231,"$350,000-1 million",MCBRIDE COMPANY INC,62 Highland Ave,MANCHESTER CENTER,VT,5255.0,541310.0,4/6/2020
628232,"$350,000-1 million",MCCULLOUGH CRUSHING INC,584 McCullough Hill Rd,MIDDLESEX,VT,5602.0,212319.0,4/6/2020
628233,"$350,000-1 million",MCSOLEY MCCOY & CO.,118 TILLEY DRIVE SUITE 202,SOUTH BURLINGTON,VT,5403.0,541211.0,4/10/2020
628234,"$350,000-1 million","MED ASSOCIATES, INC",166 Industrial Park Road,FAIRFAX,VT,5454.0,621511.0,4/3/2020
628235,"$350,000-1 million",MEHURONS MARKET LTD,5121 Main Street Unit 6,WAITSFIELD,VT,5673.0,445110.0,4/9/2020
628236,"$350,000-1 million","MERRY MEADOWS FARM, INC",2122 Lower Plain,BRADFORD,VT,5033.0,623220.0,4/11/2020
628237,"$350,000-1 million",METAL FLEX WELDED BELLOWS INC,149 LAKEMONT RD,NEWPORT,VT,5855.0,811310.0,4/7/2020
628238,"$350,000-1 million",MICROBRIGHTFIELD LLC,185 Allen Brook Lane Suite 101,WILLISTON,VT,5495.0,541714.0,4/8/2020
628239,"$350,000-1 million",MIDDLEBURY NATURAL FOODS CO-OP,1 WASHINGTON ST,MIDDLEBURY,VT,5753.0,446191.0,4/11/2020
628240,"$350,000-1 million",MIDSTATE AUTO GROUP OF VERMONT LLC,1365 US-302,BARRE,VT,5641.0,441110.0,4/13/2020
628241,"$350,000-1 million",MIDWAY OIL CORPORATION,217 NORTH MAIN ST,RUTLAND,VT,5701.0,447110.0,4/3/2020
628242,"$350,000-1 million",MIKES ELECTRIC INC,1571 VT ROUTE 100,WESTFIELD,VT,5874.0,238210.0,4/3/2020
628243,"$350,000-1 million",MIMMOS PIZZA INC,22 South Main Street,SAINT ALBANS,VT,5478.0,722511.0,4/7/2020
628244,"$350,000-1 million",MOBILE MEDICAL INTERN. CORP.,2176 Portland St Suite 4,SAINT JOHNSBURY,VT,5819.0,541990.0,4/14/2020
628245,"$350,000-1 million",MONUMENT FARMS INC,2107 JAMES RD,WEYBRIDGE,VT,5753.0,112120.0,4/16/2020
628246,"$350,000-1 million",MOUNT FAMILY GROUP LTD.,188 ALLEN BROOK LN,WILLISTON,VT,5495.0,561990.0,4/6/2020
628247,"$350,000-1 million",MOUNT MANSFIELD DENTISTRY,294 UPPER MAIN ST,MORRISVILLE,VT,5661.0,621210.0,4/10/2020
628248,"$350,000-1 million","MOUNTAIN AIR SYSTEMS, INC.",430 Commerce Street Suite 220,WILLISTON,VT,5495.0,238220.0,4/4/2020
628249,"$350,000-1 million",MOUNTAIN MOZZARELLA LLC,441 Water St,NORTH BENNINGTON,VT,5257.0,311513.0,4/7/2020
628250,"$350,000-1 million","MOUNTAIN VIEW EQUIPMENT, LLC",1137 Route 7 North,MIDDLEBURY,VT,5753.0,423820.0,4/11/2020
628251,"$350,000-1 million","MR. G'S LIQUIDATION CENTER, LLC",7752 US ROUTE 5,WESTMINSTER,VT,5158.0,452319.0,4/15/2020
628252,"$350,000-1 million","MT. SNOW CONSTRUCTION, LLC",89 Timson Hill Road,NEWFANE,VT,5355.0,532412.0,4/7/2020
628253,"$350,000-1 million",MUNSON EARTH MOVING CORP,85 SHUNPIKE RD,WILLISTON,VT,5495.0,238910.0,4/10/2020
628254,"$350,000-1 million",MYERS CONTAINER SERVICE CORPORATION,P.O. Box 38,WINOOSKI,VT,5404.0,562111.0,4/8/2020
628255,"$350,000-1 million","N.A. MANOSH, INC.",120 Northgate Plaza,MORRISVILLE,VT,5661.0,811192.0,4/6/2020
628256,"$350,000-1 million",NATIONAL HANGER COMPANY INC.,276 Water Street,NORTH BENNINGTON,VT,5257.0,326199.0,4/5/2020
628257,"$350,000-1 million",NEAGLEY AND CHASE CONSTRUCTION COMPANY,"66 Bowdoin Street, Suite 100",SOUTH BURLINGTON,VT,5403.0,236220.0,4/8/2020
628258,"$350,000-1 million","NEIL H. DANIELS, INC.",4409 Route 5,ASCUTNEY,VT,5030.0,237990.0,4/6/2020
628259,"$350,000-1 million",NEPCON LLC,13 Jolina Ct,RICHMOND,VT,5477.0,561110.0,4/15/2020
628260,"$350,000-1 million",NEW APPLICATION,PO Box 505,CAMBRIDGE,VT,5444.0,713930.0,4/7/2020
628261,"$350,000-1 million","NEW BREED MARKETING, LLC","20 WINOOSKI FALLS WAY, Ste 306",WINOOSKI,VT,5404.0,541810.0,4/10/2020
628262,"$350,000-1 million","NEW ENGLAND EXCESS EXCHANGE, LTD.",57 Parker Street,BARRE,VT,5641.0,524210.0,4/5/2020
628263,"$350,000-1 million",NEW ENGLAND KENWORTH,3640 Shelburne Rd,SHELBURNE,VT,5482.0,522220.0,4/6/2020
628264,"$350,000-1 million",NEW ENGLAND KURN HATTIN HOMES,708 Kurn Hattin Road,WESTMINSTER,VT,5158.0,611110.0,4/8/2020
628265,"$350,000-1 million","NEW ENGLAND RESEARCH, INC",331 Olcott Dr Suite L1,WHITE RIVER JUNCTION,VT,5001.0,333132.0,4/12/2020
628266,"$350,000-1 million",NEW ENGLAND SUPPLY,34 Commerce Street,WILLISTON,VT,5495.0,238220.0,4/28/2020
628267,"$350,000-1 million",NEW ENGLAND TREE EXPERTS INC,1868 VT RTE 16,EAST HARDWICK,VT,5843.0,237130.0,4/16/2020
628268,"$350,000-1 million","NEW SCHOOL OF MONTPELIER, INC.",9 West Street,MONTPELIER,VT,5602.0,611699.0,4/4/2020
628269,"$350,000-1 million",NEWPORT AMBULANCE SERVICE INC,830 UNION ST,NEWPORT,VT,5855.0,621910.0,4/15/2020
628270,"$350,000-1 million",NICOM COATINGS CORPORATION,140 Industrial Lane,BARRE,VT,5641.0,237310.0,4/7/2020
628271,"$350,000-1 million",NIGHT OWL CLEANING INC.,388 MAIN ST Ste 1,WINOOSKI,VT,5404.0,561720.0,6/30/2020
628272,"$350,000-1 million","NORTHEAST AGRICULTURAL SALES, INC.",205 East St,LYNDONVILLE,VT,5851.0,424910.0,4/4/2020
628273,"$350,000-1 million","NORTHERN BUILDING SUPPLIES, INC",551 VT Route 30,NEWFANE,VT,5345.0,444110.0,4/5/2020
628274,"$350,000-1 million","NORTHERN GAS TRANSPORT, INC.",212 NORTHERN CIRCLE PO BOX 106,LYNDONVILLE,VT,5851.0,484121.0,4/3/2020
628275,"$350,000-1 million","NOTT'S EXCAVATING, INC.",185 EQUESTRIAN WAY,WHITE RIVER JUNCTION,VT,5001.0,238910.0,4/9/2020
628276,"$350,000-1 million",NOYLE JOHNSON INSURANCE AGENCY,119 River Street,MONTPELIER,VT,5602.0,524298.0,4/8/2020
628277,"$350,000-1 million","NPC PROCESSING, INC.",97 Executive Drive,SHELBURNE,VT,5482.0,311612.0,4/15/2020
628278,"$350,000-1 million",NUHARBOR SECURITY INC.,553 Roosevelt Hwy,COLCHESTER,VT,5446.0,541690.0,4/3/2020
628279,"$350,000-1 million","OAK MEADOW, INC.",74 COTTON MILL HL,BRATTLEBORO,VT,5301.0,611110.0,4/14/2020
628280,"$350,000-1 million","OAS, LLC",23 UPPER PLN,BRADFORD,VT,5033.0,623220.0,6/24/2020
628281,"$350,000-1 million",OLEO CORPORATION,PO Box 525,LUDLOW,VT,5149.0,721110.0,4/8/2020
628282,"$350,000-1 million","OMEGA EXCAVATION AND SITE DEVELOPMENT, INC",31 COMMERCE AVE,SOUTH BURLINGTON,VT,5403.0,238910.0,4/5/2020
628283,"$350,000-1 million",OMEGA OPTICAL INC,21 OMEGA DR,BRATTLEBORO,VT,5301.0,333314.0,4/11/2020
628284,"$350,000-1 million","OMNI MEASUREMENT SYSTEMS, INC.",808 HERCULES DR,COLCHESTER,VT,5446.0,335311.0,4/8/2020
628285,"$350,000-1 million","OPTIMAL ENERGY, INC.","10600 Route 116, Suite 3",HINESBURG,VT,5461.0,541990.0,4/7/2020
628286,"$350,000-1 million","ORLEANS ESSEX VISITING NURSE ASSOCIATION & HOSPICE, INC.",46 Lakemont Road,NEWPORT,VT,5855.0,621610.0,4/7/2020
628287,"$350,000-1 million",OUELLETTE PLUMBING & HEATING CORPORATION,36 Dorset Lane,WILLISTON,VT,5495.0,238220.0,4/14/2020
628288,"$350,000-1 million","PANACHE OF PARIS, INC.",115 Church Street,BURLINGTON,VT,5401.0,722511.0,6/11/2020
628289,"$350,000-1 million","PATHWAYS VERMONT, INC.","125 College Street, Floor 2",BURLINGTON,VT,5401.0,624229.0,4/10/2020
628290,"$350,000-1 million",PAUL FRANK + COLLINS P.C.,One Church Street,BURLINGTON,VT,5401.0,541110.0,4/8/2020
628291,"$350,000-1 million","PET FOOD WAREHOUSE, LTD.",2500 WILLISTON RD,SOUTH BURLINGTON,VT,5403.0,424490.0,4/10/2020
628292,"$350,000-1 million",PIECASSO INC.,1899 Mountain Rd,STOWE,VT,5672.0,722513.0,4/4/2020
628293,"$350,000-1 million",PIGASUS LLC,23 Main Street,WATERBURY,VT,5676.0,722511.0,4/8/2020
628294,"$350,000-1 million","PINE KNOLL NURSING HOME, INC.",604 Red Village Rd.,LYNDONVILLE,VT,5851.0,623110.0,4/6/2020
628295,"$350,000-1 million",POMPANOOSUC MILLS CORP,3184 ROUTE 5,EAST THETFORD,VT,5043.0,442110.0,5/3/2020
628296,"$350,000-1 million","PORTA-BRACE, INC.",160 BENMONT AVE,BENNINGTON,VT,5201.0,339999.0,4/5/2020
628297,"$350,000-1 million","PRE TECH PLASTICS, INC.",211 BLAIR PARK RD,WILLISTON,VT,5495.0,334511.0,4/10/2020
628298,"$350,000-1 million","PRECI MANUFACTURING, INC",400 WEAVER ST,WINOOSKI,VT,5404.0,336413.0,4/9/2020
628299,"$350,000-1 million",PRIDE SUPPORT SERVICES INC,36 Summer Street,BARRE,VT,5641.0,624120.0,4/7/2020
628300,"$350,000-1 million","PRIORITY EXPRESS, INC.",316 Engineers Drive,WILLISTON,VT,5495.0,492110.0,4/14/2020
628301,"$350,000-1 million","PROGRESSIVE PLASTICS, INC",85 Industry St,WILLIAMSTOWN,VT,5679.0,326199.0,4/7/2020
628302,"$350,000-1 million","PT 360, INC.",426 Industrial Ave. Suite 190,WILLISTON,VT,5495.0,621340.0,4/10/2020
628303,"$350,000-1 million","PUTNEY STUDENT TRAVEL, INC",345 Hickory Ridge Road,PUTNEY,VT,5346.0,611710.0,4/10/2020
628304,"$350,000-1 million","QUERREY GROUP, LLC",4270 US Route 7,PITTSFORD,VT,5763.0,237990.0,4/7/2020
628305,"$350,000-1 million",QUESTECH CORPORATION,92 Park Street,RUTLAND,VT,5701.0,326199.0,4/15/2020
628306,"$350,000-1 million",R G GOSSELIN INC,193 Gosselin Drive,DERBY,VT,5829.0,238910.0,4/4/2020
628307,"$350,000-1 million",R.S.D. TRANSPORTATION INC.,601 OLD RIVER RD,WHITE RIVER JUNCTION,VT,5001.0,484121.0,4/5/2020
628308,"$350,000-1 million","RAYMOND GADUE'S, INC..",P.O. Box 385,SAINT ALBANS,VT,5478.0,339112.0,4/11/2020
628309,"$350,000-1 million","REARCH COMPANY, INC.",88 technology Park Way,SOUTH BURLINGTON,VT,5403.0,236220.0,4/10/2020
628310,"$350,000-1 million",RED HEN BAKING COMPANY,961 US Route 2,MONTPELIER,VT,5602.0,311811.0,4/14/2020
628311,"$350,000-1 million",RED HOUSE INC,PO Box 296,BURLINGTON,VT,5446.0,236115.0,4/15/2020
628312,"$350,000-1 million",REEL HOSPITALITY LLC,120 Church Street,BURLINGTON,VT,5401.0,722511.0,4/5/2020
628313,"$350,000-1 million","REGIONAL AMBULANCE SERVICE, INC.",275 STRATTON RD,RUTLAND,VT,5701.0,621910.0,4/15/2020
628314,"$350,000-1 million",RENAUD BROS. INC.,283 Fort Bridgeman Road,VERNON,VT,5354.0,237310.0,4/6/2020
628315,"$350,000-1 million",RESCUE INC.,541 Canal Street,BRATTLEBORO,VT,5301.0,621910.0,4/8/2020
628316,"$350,000-1 million",RESOURCE A NONPROFIT COMMUNITY ENTERPRISE,HARVEST LN,WILLISTON,VT,5495.0,813410.0,4/5/2020
628317,"$350,000-1 million",REYNOLDS AND SON INC,47 Bridge Street,SOUTH BARRE,VT,5670.0,423830.0,4/8/2020
628318,"$350,000-1 million",RICE MEMORIAL HIGH SCHOOL,99 Proctor Avenue,SOUTH BURLINGTON,VT,5403.0,611110.0,4/30/2020
628319,"$350,000-1 million",ROGER G BROWN ASSOCIATES INC,170 DEPOT TER,CASTLETON,VT,5735.0,423140.0,4/8/2020
628320,"$350,000-1 million",ROVERS NORTH INC.,1319 VT ROUTE 128,WESTFORD,VT,5494.0,441310.0,4/10/2020
628321,"$350,000-1 million",RUNAMOK MAPLE LLC,293 Fletcher Road,FAIRFAX,VT,5454.0,311930.0,4/3/2020
628322,"$350,000-1 million","RYAN SMITH & CARBINE, LTD.",98 Merchants Row,RUTLAND,VT,5702.0,541110.0,4/11/2020
628323,"$350,000-1 million",S & A TROMBLEY CORP.  DBA LWI METALWORKS,76  Houle Ave,MORRISVILLE,VT,5661.0,238990.0,4/3/2020
628324,"$350,000-1 million",SATHORN CORPORATION,581 Industrial Avenue,WILLISTON,VT,5495.0,332710.0,4/11/2020
628325,"$350,000-1 million","SHEEHEY FURLONG & BEHM, PC",30 MAIN ST,BURLINGTON,VT,5401.0,541110.0,4/9/2020
628326,"$350,000-1 million",SHELBURNE FARMS,1611 Harbor Road,SHELBURNE,VT,5482.0,112120.0,4/8/2020
628327,"$350,000-1 million",SHELBURNE LIMESTONE CORPORATION,688 Quarry Road,SHELBURNE,VT,5482.0,212312.0,4/15/2020
628328,"$350,000-1 million",SHELBURNE MUSEUM INC.,6000 SHELBURNE ROAD,SHELBURNE,VT,5482.0,712110.0,4/7/2020
628329,"$350,000-1 million","SHRED THIS, INC.",P.O. Box 2123,SOUTH BURLINGTON,VT,5403.0,561990.0,4/8/2020
628330,"$350,000-1 million",SILVER FOREST OF VERMONT INC,40 Industrial Drive,BELLOWS FALLS,VT,5101.0,333991.0,4/3/2020
628331,"$350,000-1 million","SILVER MAPLE CONSTRUCTION, LLC",50 RIVER RD,NEW HAVEN,VT,5472.0,236115.0,4/7/2020
628332,"$350,000-1 million","SISLER BUILDERS, INC.",56 PARK ST,STOWE,VT,5672.0,236117.0,4/10/2020
628333,"$350,000-1 million",SKI BROMLEY LLC,3984 VT Route 11,PERU,VT,5152.0,713920.0,4/8/2020
628334,"$350,000-1 million","SKI RACK, INC, THE",85 Main Street,BURLINGTON,VT,5401.0,451110.0,4/13/2020
628335,"$350,000-1 million",SKYVIEW NATURALS PBC,180 Battery Street Suite 250,BURLINGTON,VT,5401.0,454390.0,4/7/2020
628336,"$350,000-1 million","SNO-ENGINEERING, INC.",131 Curch Street,BURLINGTON,VT,5401.0,541620.0,4/12/2020
628337,"$350,000-1 million","SOCIAL SENTINEL, INC.","128 Lakeside Ave, Suite 100, Burlington, VT, 05401, US,",BURLINGTON,VT,5401.0,511210.0,4/28/2020
628338,"$350,000-1 million",SOUTHEASTERN VERMONT COMMUNITY ACTION,91 Buck Drive,WESTMINSTER,VT,5158.0,448140.0,4/27/2020
628339,"$350,000-1 million",SPECIAL SERVICES TRANSPORTATION AGENCY,2091 Main Street,COLCHESTER,VT,5446.0,485991.0,4/16/2020
628340,"$350,000-1 million","SPECIALIZED COMMUNITY CARE, INC.",P.O. Box 578,EAST MIDDLEBURY,VT,5740.0,621610.0,4/8/2020
628341,"$350,000-1 million",SPECTRUM YOUTH & FAMILY SERVICES,31 ELMWOOD AVE,BURLINGTON,VT,5401.0,624110.0,4/9/2020
628342,"$350,000-1 million",SPORTS VENUE FOUNDATION,PO BOX 1198,WHITE RIVER JUNCTION,VT,5001.0,713990.0,4/7/2020
628343,"$350,000-1 million","SPRING LAKE RANCH, INC.",1169 Spring Lake Road,CUTTINGSVILLE,VT,5738.0,623220.0,4/28/2020
628344,"$350,000-1 million","SPRINGFIELD AUTO MART, INC.",429 River Road,NORTH SPRINGFIELD,VT,5150.0,441110.0,4/3/2020
628345,"$350,000-1 million",SPRINGFIELD PRINTING CORPORATION,19 Prescision Drive,NORTH SPRINGFIELD,VT,5150.0,323111.0,4/14/2020
628346,"$350,000-1 million","SSW ERECTORS, LLC",4808 RANDOLPH RD,MORRISVILLE,VT,5661.0,238120.0,4/6/2020
628347,"$350,000-1 million",ST JOHNSBURY SUBARU,664 MEMORIAL DR,SAINT JOHNSBURY,VT,5819.0,441110.0,4/8/2020
628348,"$350,000-1 million",ST. ALBANS GLASS CO. INC.,498 Franklin Park West,ST. ALBANS,VT,5478.0,238150.0,5/3/2020
628349,"$350,000-1 million","ST. JOHNSBURY SUBARU, LLC",500 MEMORIAL DR,SAINT JOHNSBURY,VT,5819.0,441110.0,4/8/2020
628350,"$350,000-1 million",STERLING COLLEGE,16 Sterling Drive,CRAFTSBURY COMMON,VT,5827.0,611310.0,4/3/2020
628351,"$350,000-1 million","STERN CENTER FOR LANGUAGE AND LEARNING, INC.",183 TALCOTT RD,WILLISTON,VT,5495.0,611710.0,4/6/2020
628352,"$350,000-1 million",STEVENS & ASSOCIATES PC,95 Main Street,BRATTLEBORO,VT,5301.0,541330.0,4/5/2020
628353,"$350,000-1 million",STEWART CONSTRUCTION INC.,24 Pearl Street,ESSEX JUNCTION,VT,5452.0,236115.0,4/30/2020
628354,"$350,000-1 million","STONE ENVIRONMENTAL, INC.",535 Stone Cutters Way,MONTPELIER,VT,5602.0,541620.0,4/12/2020
628355,"$350,000-1 million",STONE MOTORS LLC,2149 Route 7 South,MIDDLEBURY,VT,5753.0,441110.0,4/13/2020
628356,"$350,000-1 million",STOWE FAMILY DENTISTRY,1593 PUCKER ST,STOWE,VT,5672.0,621210.0,4/13/2020
628357,"$350,000-1 million",STRATTON AVIATION LLC,1 Tigan Street Suite 103,WINOOSKI,VT,5404.0,423860.0,4/13/2020
628358,"$350,000-1 million",STRATTON MOUNTAIN SCHOOL & SKI FOUNDATION,7 World Cup Circle,SOUTH LONDONDERRY,VT,5155.0,611110.0,4/9/2020
628359,"$350,000-1 million","SUMMIT PROPERTY MANAGEMENT GROUP, LLC",7 Aspen Drive Suite 1,SOUTH BURLINGTON,VT,5403.0,531190.0,4/7/2020
628360,"$350,000-1 million",SUPERPLASTIC INC.,688 Pine St Ste 2A,BURLINGTON,VT,5401.0,451120.0,4/11/2020
628361,"$350,000-1 million",SURFACE CREATIONS OF VT,93 GONYEAU RD,MILTON,VT,5468.0,327991.0,4/7/2020
628362,"$350,000-1 million","SWEET TREE HOLDINGS 1, LLC",74 Ethan Allen Drive,ISLAND POND,VT,5846.0,111998.0,4/14/2020
628363,"$350,000-1 million",SWISH WHITE RIVER LTD,1118 Rte 14,HARTFORD,VT,5047.0,424130.0,5/3/2020
628364,"$350,000-1 million","SWITCHBACK BEERWORKS, INC. D/B/A SWITCHBACK BREWING",160 FLYNN AVE,BURLINGTON,VT,5401.0,312120.0,4/6/2020
628365,"$350,000-1 million","T COPELAND & SONS, INC",156 INDUSTRIAL DR,BRADFORD,VT,5033.0,442110.0,4/5/2020
628366,"$350,000-1 million",TCV LLC,"4 Andrew Avenue, Suite 1",ESSEX JUNCTION,VT,5452.0,334512.0,4/7/2020
628367,"$350,000-1 million","TECHTRON ENVIRONMENTAL, INC.",PO Box 5597,ESSEX JUNCTION,VT,5453.0,562998.0,4/13/2020
628368,"$350,000-1 million","TERRACE COMMUNITIES NORWICH, L.L.C.",2820 CHRISTIAN ST,WHITE RIVER JUNCTION,VT,5001.0,623312.0,4/11/2020
628369,"$350,000-1 million","THE A. JOHNSON CO., LLC",106 Andrew Johnson Drive,BRISTOL,VT,5443.0,321113.0,4/9/2020
628370,"$350,000-1 million",THE AFTERSCHOOL COLLABORATIVE LLC,1475 Shelburne Rd,SOUTH BURLINGTON,VT,5403.0,611110.0,4/3/2020
628371,"$350,000-1 million",THE ALOHA FOUNDATION INC.,2968 Lake Morey Road,FAIRLEE,VT,5045.0,721214.0,4/7/2020
628372,"$350,000-1 million","THE BUCKLEY CO., LLC","113 Acorn Lane, unit 1",COLCHESTER,VT,5446.0,238310.0,4/5/2020
628373,"$350,000-1 million",THE CORPORATION OF MARLBORO COLLEGE,2582 South Road,MARLBORO,VT,5344.0,611310.0,4/5/2020
628374,"$350,000-1 million","THE DOCK DOCTORS, LLC",19 LITTLE OTTER LN,FERRISBURGH,VT,5456.0,337122.0,4/5/2020
628375,"$350,000-1 million",THE ESSEX AGENCY INC,2 RAILROAD STREET BOX 239,ESSEX JUNCTION,VT,5452.0,524210.0,4/9/2020
628376,"$350,000-1 million","THE GREENWOOD SCHOOL, INC.",14 Greenwood Lane,PUTNEY,VT,5346.0,611110.0,4/5/2020
628377,"$350,000-1 million","THE MANOR, INC.",577 Washington Highway,MORRISVILLE,VT,5661.0,623312.0,5/14/2020
628378,"$350,000-1 million",THE MCKERNON GROUP,381 NEW RD,BRANDON,VT,5733.0,238310.0,4/12/2020
628379,"$350,000-1 million",THE MEADOWS AT EAST MOUNTAIN,240 GABLES PL,RUTLAND,VT,5701.0,623311.0,4/13/2020
628380,"$350,000-1 million","THE OFFSET HOUSE, INC.",89 Sand Hill Road,ESSEX JUNCTION,VT,5452.0,323111.0,4/13/2020
628381,"$350,000-1 million",THE PHARMACY INC,205 NORTH ST,BENNINGTON,VT,5201.0,446110.0,4/8/2020
628382,"$350,000-1 million","THE REHABGYM, INC.",373 BLAIR PARK RD,WILLISTON,VT,5495.0,713940.0,6/4/2020
628383,"$350,000-1 million",THE ROYAL GROUP INC,150 WOODSTOCK AVE,RUTLAND,VT,5701.0,561621.0,4/12/2020
628384,"$350,000-1 million","THE SHARON ACADEMY, INC.",207 PO BOX,SHARON,VT,5065.0,611110.0,4/7/2020
628385,"$350,000-1 million","THE SPORN COMPANY, INC.",227 Main St,BURLINGTON,VT,5401.0,339910.0,4/28/2020
628386,"$350,000-1 million",THE TRUSTEES OF THE GILL ODD FELLOWS HOME OF VERMONT,8 Gill Terrace,LUDLOW,VT,5149.0,623110.0,4/10/2020
628387,"$350,000-1 million",THE VILLAGE SCHOOL OF NORTH BENNINGTON INCORPORATED,9 SCHOOL ST PO BOX 847,NORTH BENNINGTON,VT,5257.0,611110.0,4/6/2020
628388,"$350,000-1 million","THOMAS CHITTENDEN HEALTH CENTER, PLC",586 oak hill rd,WILLISTON,VT,5495.0,621111.0,4/10/2020
628389,"$350,000-1 million","THREE C'S REALTY, THE",6 ORR ROAD,JERICHO,VT,5465.0,441228.0,4/10/2020
628390,"$350,000-1 million",THREE WHITE BIRCHES DEVELOPMENT CORPORATION,18 Main Street,STOWE,VT,5672.0,721110.0,4/27/2020
628391,"$350,000-1 million",TLC HOMECARE SERVICES INC.,1550 Williston Road,SOUTH BURLINGTON,VT,5403.0,623110.0,4/9/2020
628392,"$350,000-1 million",TLC NURSING ASSOCIATES LLC,1550 Williston Road,SOUTH BURLINGTON,VT,5403.0,621610.0,4/9/2020
628393,"$350,000-1 million",TOWN OF BENNINGTON RESCUE SQUAD INC,120 MCKINLEY ST,BENNINGTON,VT,5201.0,621910.0,4/13/2020
628394,"$350,000-1 million",TOWNSEND VERMONT HOLDINGS,225 Townshend road,GRAFTON,VT,5146.0,722511.0,4/7/2020
628395,"$350,000-1 million",TPW MANAGEMENT LLC,4903 Main Street,MANCHESTER CENTER,VT,5255.0,541611.0,4/5/2020
628396,"$350,000-1 million","TRIAD DESIGN SERVICE, INC.",156 COMMERCE ST,WILLISTON,VT,5495.0,541340.0,4/5/2020
628397,"$350,000-1 million",TRUE NORTH WILDERNESS PROGRAM LLC,PO box 857,WAITSFIELD,VT,5673.0,624110.0,4/7/2020
628398,"$350,000-1 million","TRUEXCULLINS, INC.",209 Battery Street,BURLINGTON,VT,5401.0,541310.0,4/16/2020
628399,"$350,000-1 million",TURTLE FUR COMPANY,146 Industrial Park Drive,MORRISVILLE,VT,5661.0,315210.0,4/13/2020
628400,"$350,000-1 million","TUTTLE LAW PRINT, INC",110 PO BOX 110,RUTLAND,VT,5702.0,323111.0,4/3/2020
628401,"$350,000-1 million",TWIN FARMS OPERATIONS LLC,452 ROYALTON TURNPIKE ROAD,BARNARD,VT,5031.0,721110.0,4/10/2020
628402,"$350,000-1 million",TWIN STATE FORD INC.,8 Memorial Drive,SAINT JOHNSBURY,VT,5819.0,441110.0,4/4/2020
628403,"$350,000-1 million","TYLER PLACE, INC.",120 North Main Street,SAINT ALBANS,VT,5478.0,721110.0,4/29/2020
628404,"$350,000-1 million","UNION HOUSE NURSING HOME, INC.",3086 Glover St.,GLOVER,VT,5839.0,623110.0,4/6/2020
628405,"$350,000-1 million",UNION STREET MEDIA INC,444 SOUTH UNION ST,BURLINGTON,VT,5401.0,541512.0,4/12/2020
628406,"$350,000-1 million","UNITED WAY OF NORTHWEST VERMONT, INC.",412 FARRELL ST STE 200,SOUTH BURLINGTON,VT,5403.0,813219.0,4/11/2020
628407,"$350,000-1 million","UPPER VALLEY HAVEN, INC",713 Hartford Avenue,WHITE RIVER JUNCTION,VT,5001.0,813319.0,4/4/2020
628408,"$350,000-1 million",UPPER VALLEY PRODUCE,211 OLCOTT DR,WHITE RIVER JUNCTION,VT,5001.0,424490.0,4/3/2020
628409,"$350,000-1 million","VAILLANCOURT TRANSPORT, LLC",200 SAMSONVILLE RD,ENOSBURG FALLS,VT,5450.0,484220.0,4/29/2020
628410,"$350,000-1 million",VERMONT ADULT LEARNING INC,46 S Main St,WATERBURY,VT,5676.0,611691.0,4/6/2020
628411,"$350,000-1 million",VERMONT ASSOCIATION OF BUSINESS-SBA SMALL 7A TERM,75 Talcott Rd Suite 70,WILLISTON,VT,5495.0,541611.0,4/29/2020
628412,"$350,000-1 million","VERMONT CATHOLIC CHARITIES, INC",55 JOY DR,SOUTH BURLINGTON,VT,5403.0,623110.0,4/10/2020
628413,"$350,000-1 million","VERMONT COMMUNITY FOUNDATIONS, INC.",3 Sourt Street,MIDDLEBURY,VT,5753.0,813219.0,4/7/2020
628414,"$350,000-1 million","VERMONT CONSULTANTS FOR LANGUAGE AND LEARNING, INC.",9 West St,MONTPELIER,VT,5602.0,611110.0,4/7/2020
628415,"$350,000-1 million","VERMONT COUNTRY CAMPER SALES, INC.",1498 US Route 2,EAST MONTPELIER,VT,5651.0,441210.0,4/15/2020
628416,"$350,000-1 million",VERMONT DENTAL CARE PROGRAMS,32 B MALLETTS BAY AVE,WINOOSKI,VT,5404.0,621210.0,4/6/2020
628417,"$350,000-1 million","VERMONT FOODBANK, INC.",33 Parker Road,BARRE,VT,5641.0,624210.0,4/30/2020
628418,"$350,000-1 million",VERMONT LAND TRUST,8 BAILEY AVE,MONTPELIER,VT,5602.0,813219.0,4/4/2020
628419,"$350,000-1 million","VERMONT OXFORD NETWORK, INC.",33 KILBURN ST,BURLINGTON,VT,5401.0,541720.0,4/11/2020
628420,"$350,000-1 million",VERMONT PUBLIC RADIO,365 Troy Avenue,COLCHESTER,VT,5446.0,515112.0,4/8/2020
628421,"$350,000-1 million","VERMONT RECREATIONAL SURFACING AND FENCING, INC.",55 Furguson Rd,BARNET,VT,5821.0,238990.0,4/15/2020
628422,"$350,000-1 million",VERMONT STORE FIXTURES,1566 U.S. Route 7,DANBY,VT,5739.0,337215.0,4/7/2020
628423,"$350,000-1 million","VERMONT STUDIO CENTER, INC.",PO BOX 613,JOHNSON,VT,5656.0,611610.0,4/8/2020
628424,"$350,000-1 million",VERMONT TELEPHONE COMPANY INC,354 RIVER ST,SPRINGFIELD,VT,5156.0,517919.0,4/28/2020
628425,"$350,000-1 million",VERMONT TENT COMPANY,331 Sunderland Way,ESSEX JUNCTION,VT,5452.0,532299.0,4/9/2020
628426,"$350,000-1 million",VERMONT TIRE & SERVICE INC.,90 River St,MONTPELIER,VT,5602.0,441320.0,4/9/2020
628427,"$350,000-1 million",VERMONT WINE MERCHANTS COMPANY THE,230 Battery Street,BURLINGTON,VT,5401.0,424820.0,4/13/2020
628428,"$350,000-1 million",VERNON ADVENT CHRISTIAN HOME INC,61 Greenway Drive,VERNON,VT,5354.0,623110.0,4/6/2020
628429,"$350,000-1 million","VILLAGE AT CEDAR HILL, INC",92 CEDAR HILL DR,WINDSOR,VT,5089.0,623312.0,4/9/2020
628430,"$350,000-1 million",VILLANTI & SONS PRINTERS,15 Catamount Dr,MILTON,VT,5468.0,323111.0,4/7/2020
628431,"$350,000-1 million","VOX AM/FM, LLC",265 HEGEMAN AVE,COLCHESTER,VT,5446.0,515112.0,4/3/2020
628432,"$350,000-1 million",VPEX MOTOR COMPANY,130 SHELBURNE ROAD,SOUTH BURLINGTON,VT,5403.0,441110.0,4/12/2020
628433,"$350,000-1 million","VRS DISABILITY MANAGEMENT, INC.",329 Valley View Road,WATERBURY CENTER,VT,5677.0,541618.0,4/15/2020
628434,"$350,000-1 million",WALKER CONSTRUCTION,5950 Waterbury Stowe Road,WATERBURY CENTER,VT,5677.0,238910.0,4/8/2020
628435,"$350,000-1 million",WASHINGTON COUNTY FAMILY CENTER,383 Sherwood Drive,MONTPELIER,VT,5602.0,624190.0,4/7/2020
628436,"$350,000-1 million",WASHINGTON ELECTRIC COOPERATIVE,40 Church Street,EAST MONTPELIER,VT,5651.0,221121.0,4/13/2020
628437,"$350,000-1 million",WCW INC,450 Natural Form Way,MANCHESTER CENTER,VT,5255.0,337910.0,4/10/2020
628438,"$350,000-1 million",WHETSTONE STATION RESTAURANT AND BREWERY,36 BRIDGE ST,BRATTLEBORO,VT,5301.0,722511.0,4/6/2020
628439,"$350,000-1 million",WHITE RIVER CHEVROLET LLC,32 Key Auto Drive,WHITE RIVER JUNCTION,VT,5001.0,441110.0,4/10/2020
628440,"$350,000-1 million",WILCOX & BARTON INC,1115 Route 100B Ste 200,MORETOWN,VT,5660.0,541620.0,5/1/2020
628441,"$350,000-1 million","WILDLIFE MANAGEMENT INSTITUTE, INCORPORATED",4426 VT ROUTE 215,CABOT,VT,5647.0,813312.0,4/4/2020
628442,"$350,000-1 million",WINDOWS & DOORS BY BROWNELL,800 MARSHALL AVE SUITE 50,WILLISTON,VT,5495.0,444190.0,4/6/2020
628443,"$350,000-1 million","WINOOSKI, LLC",2300 ST GEORGE RD,WILLISTON,VT,5495.0,524210.0,4/7/2020
628444,"$350,000-1 million",WOODSTOCK FARMERS MARKET INC,979 West Woodstock Rd,WOODSTOCK,VT,5091.0,445299.0,4/14/2020
628445,"$350,000-1 million",WRIGHT & MORRISSEY INC,99 SWIFT ST Suite 100,SOUTH BURLINGTON,VT,5403.0,236220.0,4/10/2020
628446,"$150,000-350,000","1 FOR THE PLANET, INC.",47 MAPLE ST Suite 103,BURLINGTON,VT,5401.0,813410.0,4/8/2020
628447,"$150,000-350,000","14TH STAR BREWING COMPANY, LLC",133 North Main St,SAINT ALBANS,VT,5478.0,312120.0,4/8/2020
628448,"$150,000-350,000",1500 EDSON HILL OPERATIONS LLC,1500 Edson Hill Road,STOWE,VT,5672.0,721110.0,4/4/2020
628449,"$150,000-350,000","83 CHURCH STREET, LLC",78 Main Street,BURLINGTON,VT,5401.0,722511.0,4/28/2020
628450,"$150,000-350,000","A SINGLE PEBBLE, INC",133 Bank Street,BURLINGTON,VT,5401.0,541613.0,4/9/2020
628451,"$150,000-350,000","A. L. TYLER & SONS, INC.",175 Canal Street,BRATTLEBORO,VT,5301.0,238210.0,4/9/2020
628452,"$150,000-350,000",AAM COLCHESTER HOTEL LLC,71 RATHE RD,COLCHESTER,VT,5446.0,531120.0,4/7/2020
628453,"$150,000-350,000","ABATIELLS FLOOR COVERING, INC.",256 N MAIN ST,RUTLAND,VT,5701.0,444190.0,4/7/2020
628454,"$150,000-350,000",ABC & LOL LLC,1448 MEMORIAL DR,SAINT JOHNSBURY,VT,5819.0,624410.0,4/6/2020
628455,"$150,000-350,000",ABLE PAINT GLASS & FLOORING,683 Pine Street,BURLINGTON,VT,5401.0,442299.0,4/29/2020
628456,"$150,000-350,000",AC POLYMERS INC,103 Lowry Drive P O Box 165,POULTNEY,VT,5764.0,424950.0,4/15/2020
628457,"$150,000-350,000",ACDCDDS PC,25 BISHOP AVE STE 1,WILLISTON,VT,5495.0,531312.0,4/30/2020
628458,"$150,000-350,000","ACKER CONTRACTING, LLC",240 MAIN ST,WHITE RIVER JUNCTION,VT,5001.0,238160.0,4/8/2020
628459,"$150,000-350,000",ACTD LLC,40 Main Street,BURLINGTON,VT,5401.0,531311.0,4/9/2020
628460,"$150,000-350,000","ADDISON COUNTY COMMUNITY TRUST, INC.",272 MAIN ST,VERGENNES,VT,5491.0,531110.0,4/6/2020
628461,"$150,000-350,000","ADDISON PRESS, INC.",58 MAPLE ST,MIDDLEBURY,VT,5753.0,451212.0,4/8/2020
628462,"$150,000-350,000","ADI, LLC",36 Precision Drive,NORTH SPRINGFIELD,VT,5150.0,339950.0,4/8/2020
628463,"$150,000-350,000","ADVANCED ANSWERING CENTER, INC.","1697 US Rt 4, Suite 6",RUTLAND,VT,5701.0,561421.0,4/29/2020
628464,"$150,000-350,000","ADVANCED EYECARE, INC",322 DEWEY ST,BENNINGTON,VT,5201.0,621320.0,4/4/2020
628465,"$150,000-350,000",ADVANCED MACHINE & TOOL CO.,48 Sidesaddle rd PO BOX 801 63B GONYEAU ROAD,MILTON,VT,5468.0,332710.0,4/11/2020
628466,"$150,000-350,000",ADVANCED POWER CONVERSION SOLUTIONS,81 Parker Rd,BARRE,VT,5641.0,334419.0,4/9/2020
628467,"$150,000-350,000",AEGIS RENEWABLE ENERGY,"340 Mad River Park, Suite 6",WAITSFIELD,VT,5673.0,423720.0,4/10/2020
628468,"$150,000-350,000","AERIE CONSULTING, LLC","110 W CANAL ST, SUITE 201",WINOOSKI,VT,5404.0,541512.0,4/8/2020
628469,"$150,000-350,000","AL JEFFERS AND SONS, INC",41 Oakwood Cemetery Rd,TOWNSHEND,VT,5353.0,238220.0,4/8/2020
628470,"$150,000-350,000","AL'S FRENCH FRYS, LTD.",1251 Williston Road,SOUTH BURLINGTON,VT,5403.0,722513.0,4/10/2020
628471,"$150,000-350,000",ALCHEMY BREWING STOWE LLC,100 Cottage Club Road,STOWE,VT,5672.0,312120.0,6/29/2020
628472,"$150,000-350,000",ALCHEMY CANNING LTD,35 Crossroad,WATERBURY,VT,5676.0,312120.0,6/29/2020
628473,"$150,000-350,000",ALDER BROOK DENTAL ASSOCIATES PC,8 ESSEX WAY,ESSEX JUNCTION,VT,5452.0,621210.0,4/8/2020
628474,"$150,000-350,000",ALDRICH   ELLIOTT PC,6 Market Place Suite 2,ESSEX JUNCTION,VT,5452.0,541330.0,4/15/2020
628475,"$150,000-350,000","ALL METALS RECYCLING, INC.",PO Box 1028,MORRISVILLE,VT,5661.0,562998.0,4/6/2020
628476,"$150,000-350,000","ALL SEASONS EXCAVATING & LANDSCAPING, INC.","PO Box 96, 1607 Mallets Bay Ave",COLCHESTER,VT,5446.0,238910.0,4/7/2020
628477,"$150,000-350,000",ALL-SEASONS PHYSICAL THERAPY C,789 Pine Street,BURLINGTON,VT,5401.0,621340.0,4/7/2020
628478,"$150,000-350,000",ALLAN EISEMANN DBA NONE,160 ALLEN ST,RUTLAND,VT,5701.0,621111.0,5/8/2020
628479,"$150,000-350,000","ALLAN'S VENDING SERVICES, LLC",1060 N HARTLAND RD,WHITE RIVER JUNCTION,VT,5001.0,454210.0,4/8/2020
628480,"$150,000-350,000",ALLANDRA FARM INC.,1535 MONKTON RD,VERGENNES,VT,5491.0,112120.0,4/13/2020
628481,"$150,000-350,000","ALLEN BROTHERS, INC",6023 US ROUTE 5,WESTMINSTER,VT,5158.0,445110.0,4/6/2020
628482,"$150,000-350,000",ALM OF NEW ENGLAND LLC,129 Lincoln Ave,MANCHESTER CENTER,VT,5255.0,531311.0,4/14/2020
628483,"$150,000-350,000",ALPHA ELECTRIC INC,29 Berard Drive,SOUTH BURLINGTON,VT,5403.0,238210.0,4/9/2020
628484,"$150,000-350,000","ALPINE TRACKS, INC. D/B/A THE ALPINE SHOP",1184 WILLISTON RD,SOUTH BURLINGTON,VT,5403.0,448190.0,4/5/2020
628485,"$150,000-350,000",AMCARE AMBULANCE SERVICE,PO BOX 207,SAINT ALBANS,VT,5478.0,621910.0,4/13/2020
628486,"$150,000-350,000",AMERICAN FLATBREAD HOLDING CO,46 LAREAU RD,WAITSFIELD,VT,5673.0,722511.0,4/11/2020
628487,"$150,000-350,000","AMERICAN RETROWORKS, INC. D/B/A GOOD POINT RECYCLING",227 POND LN,MIDDLEBURY,VT,5753.0,562920.0,4/7/2020
628488,"$150,000-350,000","ANDREW PEARCE BOWLS, LLC",59 US Route 4 East,WOODSTOCK,VT,5091.0,423210.0,4/6/2020
628489,"$150,000-350,000",ANICHINI INC,4 Larkin Road PO Box 67,TUNBRIDGE,VT,5077.0,339999.0,6/30/2020
628490,"$150,000-350,000",ANN CLARK LTD,453 Quality Ln,RUTLAND,VT,5701.0,332215.0,4/4/2020
628491,"$150,000-350,000","ANTI-OPPRESSION RESOURCE AND TRAINING ALLIANCE COOPERATIVE, INCORPORATED",865 TATRO RD,STARKSBORO,VT,5487.0,541690.0,4/29/2020
628492,"$150,000-350,000",APEX MOTOR COMPANY,1301 SHELBURNE ROAD,SOUTH BURLINGTON,VT,5403.0,441110.0,4/12/2020
628493,"$150,000-350,000","APEX SEALING, INC",178 RUSHFORD RD,JEFFERSONVILLE,VT,5464.0,339991.0,4/10/2020
628494,"$150,000-350,000","APPALACHIAN ENGINEERED FLOORING, INC.",105 INDUSTRIAL DR,NORTH TROY,VT,5859.0,321918.0,4/13/2020
628495,"$150,000-350,000","APPLETREE BAY PROPERTY MANAGEMENT, LLC",P.O. Box 3009,BURLINGTON,VT,5408.0,531311.0,4/9/2020
628496,"$150,000-350,000",AQUA VITEA LLC,153 POND,MIDDLEBURY,VT,5753.0,311920.0,4/4/2020
628497,"$150,000-350,000","ASCENSION CHILDCARE, INC.",2386 Shelburne Rd,SHELBURNE,VT,5482.0,624410.0,4/29/2020
628498,"$150,000-350,000",ASPEN LEADERSHIP GROUP LLC,1246 OLD STAGE RD,CHESTER,VT,5143.0,561312.0,4/13/2020
628499,"$150,000-350,000",ASSOCIATES FOR DENTAL CARE,2 SPRING ST,SWANTON,VT,5488.0,423450.0,4/15/2020
628500,"$150,000-350,000",ASSOCIATES IN GASTROENTEROLOGY PLLC,875 ROOSEVELT HWY Suite 132,COLCHESTER,VT,5446.0,621111.0,4/7/2020
628501,"$150,000-350,000","ASSOCIATES IN ORTHODONTICS, PC",55 San Remo Drive,SOUTH BURLINGTON,VT,5403.0,621210.0,4/16/2020
628502,"$150,000-350,000",ASSOCIATES IN PERIODONTICS,1775 Williston Road,SOUTH BURLINGTON,VT,5403.0,621210.0,4/30/2020
628503,"$150,000-350,000","ATOMIC PROFESSIONAL AUDIO, INC.",364 INNOVATION DR,NORTH CLARENDON,VT,5759.0,532490.0,4/11/2020
628504,"$150,000-350,000","AUTO CREEK, INC.",22 WEST ST,VERGENNES,VT,5491.0,441120.0,4/10/2020
628505,"$150,000-350,000",AUTO RESOURCE CENTER,60 Midas Drive,SOUTH BURLINGTON,VT,5403.0,811112.0,4/9/2020
628506,"$150,000-350,000",AUTOMOTIVE SERVICES INTERNATIONAL INC.,63 ETHAN ALLEN DR,SOUTH BURLINGTON,VT,5403.0,811122.0,4/9/2020
628507,"$150,000-350,000","AVIATRON, INC.",25 Customs Drive,SOUTH BURLINGTON,VT,5403.0,336412.0,4/8/2020
628508,"$150,000-350,000",BACK ROADS FOOD CO. LLC,74 Cotton Mill Hill A-110,BRATTLEBORO,VT,5301.0,311230.0,4/28/2020
628509,"$150,000-350,000",BAG RIDERS LLC,208 Flynn Ave STE 2C,BURLINGTON,VT,5401.0,441310.0,4/9/2020
628510,"$150,000-350,000","BARE, LTD.","95 St. Paul St., Suite 110",BURLINGTON,VT,5401.0,812199.0,4/14/2020
628511,"$150,000-350,000",BARNES BLACK & WHITEFACE RANCH,3811 Otter Creek Road,ADDISON,VT,5491.0,112990.0,4/16/2020
628512,"$150,000-350,000",BARRE TILE INC,Po box 601,SOUTH BARRE,VT,5670.0,444110.0,4/7/2020
628513,"$150,000-350,000","BARRETT'S TREE SERVICE, INC.",376 PATCHEN RD,SOUTH BURLINGTON,VT,5403.0,561730.0,5/2/2020
628514,"$150,000-350,000",BARTLEY OF NEWHAMPSHIRE,4518 US RT 5,DERBY,VT,5829.0,722511.0,4/15/2020
628515,"$150,000-350,000",BASHARA & CO LLC,100 State Street,MONTPELIER,VT,5602.0,531390.0,4/3/2020
628516,"$150,000-350,000",BASKETVILLE INC,8 Bellows Falls Road,PUTNEY,VT,5346.0,442299.0,4/8/2020
628517,"$150,000-350,000","BAUER GRAVEL FARNHAM, LLP",401 WATERTOWER CIR Suite 101,COLCHESTER,VT,5446.0,541110.0,4/6/2020
628518,"$150,000-350,000",BEAN'S MOBILE HOMES INC.,790 Main Street,LYNDONVILLE,VT,5851.0,453930.0,4/14/2020
628519,"$150,000-350,000","BENCHMARK SPACE SYSTEMS, INC.","12 Gregory Drive, Suite 6",SOUTH BURLINGTON,VT,5403.0,453998.0,4/15/2020
628520,"$150,000-350,000",BENNINGTON NISSAN,24 PERFORMANCE DR,BENNINGTON,VT,5201.0,441120.0,4/28/2020
628521,"$150,000-350,000","BENNINGTON PROJECT INDEPENDENCE, INC.",614 HARWOOD HILL RD,BENNINGTON,VT,5201.0,624410.0,4/27/2020
628522,"$150,000-350,000",BENSON'S CHEVROLET INC,25 POND ST,LUDLOW,VT,5149.0,441110.0,4/7/2020
628523,"$150,000-350,000",BERNIE GAGE P & H INC.,363 VT RTE 36,FAIRFIELD,VT,5455.0,238220.0,4/4/2020
628524,"$150,000-350,000",BEVERAGE BARON INC,411 North Main Street,BARRE,VT,5641.0,447110.0,4/7/2020
628525,"$150,000-350,000",BEVERAGE WAREHOUSE INC,PO BOX 86,WINOOSKI,VT,5404.0,445310.0,4/12/2020
628526,"$150,000-350,000",BIA DIAGNOSTICS LLC,480 Hercules Dr,COLCHESTER,VT,5446.0,541380.0,4/30/2020
628527,"$150,000-350,000","BIG GAME, INC.",740 Marshall Ave,WILLISTON,VT,5495.0,999990.0,4/28/2020
628528,"$150,000-350,000","BIG TREE FARMS, INC.",10516 Route 116,HINESBURG,VT,5461.0,111421.0,4/27/2020
628529,"$150,000-350,000",BIGGAM FOX SKINNER LLP,453 Stone Cutters Way,MONTPELIER,VT,5602.0,541110.0,4/8/2020
628530,"$150,000-350,000","BIRNN CHOCOLATES OF VERMONT, INC.",102 Kimball Avenue,SOUTH BURLINGTON,VT,5403.0,424450.0,4/5/2020
628531,"$150,000-350,000",BISHOP JOHN A MARSHALL SCHOOL,680 Laporte Road,MORRISVILLE,VT,5661.0,611110.0,4/4/2020
628532,"$150,000-350,000","BLACK MAGIC CHIMNEY SWEEPS OF SOUTHERN VT, LLC",254 TACONIC BUSINESS PARK RD,MANCHESTER CENTER,VT,5255.0,561720.0,4/7/2020
628533,"$150,000-350,000",BLACK RIVER DESIGN ARCHITECTS PLC,73 Main St. Ste 9,MONTPELIER,VT,5602.0,541310.0,4/4/2020
628534,"$150,000-350,000","BLACK ROCK STEAKHOUSE, INC.",284 RIVER ST,SPRINGFIELD,VT,5156.0,722511.0,4/11/2020
628535,"$150,000-350,000","BLONDIN BROS. AUTO BODY, INC.",992 So Brownell RD,WILLISTON,VT,5495.0,811111.0,4/12/2020
628536,"$150,000-350,000",BLOOD'S CATERING & PARTY RENTALS INC,1147 HARTFORD AVE,WHITE RIVER JUNCTION,VT,5001.0,722320.0,4/4/2020
628537,"$150,000-350,000","BLUE 2, INC.",193 South Winooski Ave Suite 100,BURLINGTON,VT,5401.0,541618.0,4/10/2020
628538,"$150,000-350,000",BLUE STONE INC,13 STOWE ST #2,WATERBURY,VT,5676.0,722511.0,4/15/2020
628539,"$150,000-350,000","BOURDEAU BROS. OF MIDDLEBURY, INC.",88 Seymour Street,MIDDLEBURY,VT,5753.0,424910.0,4/13/2020
628540,"$150,000-350,000","BOXER, BLAKE & MOORE PLLC",24 SUMMER HILL ST,SPRINGFIELD,VT,5156.0,541110.0,4/9/2020
628541,"$150,000-350,000","BOYS & GIRLS CLUB OF BURLINGTON, INC",62 Oak St,BURLINGTON,VT,5401.0,813410.0,4/11/2020
628542,"$150,000-350,000",BRADSHAW TRANSPORT LLC,19 Precast Rd,MILTON,VT,5468.0,423860.0,4/6/2020
628543,"$150,000-350,000",BRANDON FAMILY DENTISTRY LLC,5 carver street,BRANDON,VT,5733.0,621210.0,4/12/2020
628544,"$150,000-350,000",BRGR LLC,192 Boxwood St,WILLISTON,VT,5495.0,722511.0,4/8/2020
628545,"$150,000-350,000",BRICKLINERS CORP.,51 DORSET LN,WILLISTON,VT,5495.0,238140.0,4/10/2020
628546,"$150,000-350,000","BRILEYA'S CHRYSLER JEEP, INC",1253 US ROUTE 7,RUTLAND,VT,5701.0,441110.0,4/10/2020
628547,"$150,000-350,000",BROTHERS BUILDING CO INC,5222 Main St,WAITSFIELD,VT,5673.0,236220.0,4/6/2020
628548,"$150,000-350,000",BROWN ENTERPRISES INC.,50 South Haven Lane,SOUTH LONDONDERRY,VT,5155.0,444210.0,4/7/2020
628549,"$150,000-350,000",BROWN LAB PUB COMPANY INC.,4 PEARL ST Suite 105,ESSEX JUNCTION,VT,5452.0,722511.0,4/5/2020
628550,"$150,000-350,000","BROWNWAY RESIDENCE, INC.",PO Box 4126,BURLINGTON,VT,5406.0,623110.0,4/27/2020
628551,"$150,000-350,000",BUILDING ENERGY CORPORATION,1570 South Brownell Rd,WILLISTON,VT,5495.0,237130.0,4/29/2020
628552,"$150,000-350,000",BULLROCK SOLAR LLC,"145 PINE HAVEN SHORES RD, Suite 1150",SHELBURNE,VT,5482.0,221114.0,4/8/2020
628553,"$150,000-350,000",BURLINGTON BYTES LLC,164 College St,BURLINGTON,VT,5401.0,812990.0,4/7/2020
628554,"$150,000-350,000","BURLINGTON COMMUNICATIONS SERVICE CENTER, INC.",4735 WILLISTON RD,WILLISTON,VT,5495.0,561499.0,4/30/2020
628555,"$150,000-350,000",BURLINGTON EMPLOYMENT AGENCY INC.,1 INTERVALE AVE,BURLINGTON,VT,5401.0,561311.0,5/18/2020
628556,"$150,000-350,000","BURLINGTON FURNITURE COMPANY, INC.",747 PINE ST SUITE 101,BURLINGTON,VT,5401.0,442110.0,4/11/2020
628557,"$150,000-350,000","BURLINTON FITNESS, INC","1 MARKET PL, Unit 31",ESSEX JUNCTION,VT,5452.0,713940.0,4/27/2020
628558,"$150,000-350,000",BY WORLD ENTERPRISES INC.,907 Marshall Ave,WILLISTON,VT,5495.0,624410.0,4/27/2020
628559,"$150,000-350,000",C AND M WASHBURN INC,2520 W Woodstock Road,WOODSTOCK,VT,5091.0,236115.0,4/16/2020
628560,"$150,000-350,000","C S E, INC.",199 Omega Drive,WILLISTON,VT,5495.0,238120.0,4/7/2020
628561,"$150,000-350,000","CALEDONIA BREWING COMPANY, LLC",397 RAILROAD ST,SAINT JOHNSBURY,VT,5819.0,722511.0,4/9/2020
628562,"$150,000-350,000","CALEDONIA ESSEX AREA AMBULANCE SERVICE, INC",1453 HOSPITAL DRIVE PO BOX 570,SAINT JOHNSBURY,VT,5819.0,621910.0,4/6/2020
628563,"$150,000-350,000",CAMARA SLATE INC,963 S Main St,FAIR HAVEN,VT,5743.0,423320.0,4/14/2020
628564,"$150,000-350,000","CAPITOL CITY IMPORTS, INC.",2287 BERLIN STATE HWY,BARRE,VT,5641.0,441110.0,4/3/2020
628565,"$150,000-350,000",CAPITOL PIZZA LLC,PO Box 946,COLCHESTER,VT,5446.0,722513.0,4/7/2020
628566,"$150,000-350,000",CAPITOL PLAZA CORPORATION,100 State Street,MONTPELIER,VT,5602.0,721110.0,4/3/2020
628567,"$150,000-350,000","CARMACK FAMILY DENTISTRY, PC",677 VT RT 7A,SHAFTSBURY,VT,5262.0,621210.0,4/15/2020
628568,"$150,000-350,000","CARPENTER BROTHERS, INC.",413 COMMERCE ST,WILLISTON,VT,5495.0,484110.0,4/9/2020
628569,"$150,000-350,000",CATAMOUNT ENVIRONMENTAL INC.,15 CATAMOUNT LN,WILMINGTON,VT,5363.0,541380.0,4/28/2020
628570,"$150,000-350,000",CATAMOUNT SOLAR LLC,4 Randolph Avenue,RANDOLPH,VT,5060.0,221114.0,4/10/2020
628571,"$150,000-350,000","CBI, INC",46 Cherry St,SAINT JOHNSBURY,VT,5819.0,623110.0,4/4/2020
628572,"$150,000-350,000","CBMVT, LLC",78 MILLER LN,WILLISTON,VT,5495.0,561720.0,4/10/2020
628573,"$150,000-350,000","CDP ELECTRIC, INC",PO BOX 6450,RUTLAND,VT,5702.0,238210.0,4/14/2020
628574,"$150,000-350,000",CE BRADLEY LABORATORIES INC,55 BENNETT DRIVE,BRATTLEBORO,VT,5301.0,325510.0,4/13/2020
628575,"$150,000-350,000",CEDAR CIRCLE FARM LLC,225 PAVILLION RD,EAST THETFORD,VT,5043.0,111219.0,4/10/2020
628576,"$150,000-350,000","CENSOR FACILITY SERVICES, INC.",79 Woodstock Ave,RUTLAND,VT,5701.0,561621.0,4/4/2020
628577,"$150,000-350,000",CENTRAL VERMONT EYE CARE PC,69 Allen Street Suite 15,RUTLAND,VT,5701.0,621111.0,4/4/2020
628578,"$150,000-350,000",CENTRAL VERMONT MOTORCYCLES INC,360 WEST ST,RUTLAND,VT,5701.0,441210.0,4/7/2020
628579,"$150,000-350,000","CFW ELECTRIC, LLC",578 US ROUTE 2 W,DANVILLE,VT,5828.0,238210.0,4/10/2020
628580,"$150,000-350,000","CHAMPLAIN CHEVROLET, INC.",57 MISSISQUOI ST,ENOSBURG FALLS,VT,5450.0,441110.0,4/3/2020
628581,"$150,000-350,000","CHAMPLAIN DENTAL GROUP, LTD.",150 DORSET ST SUITE 260,SOUTH BURLINGTON,VT,5403.0,621210.0,4/27/2020
628582,"$150,000-350,000","CHAMPLAIN ORCHARDS, INC.",2955 VT ROUTE 74,SHOREHAM,VT,5770.0,111339.0,4/14/2020
628583,"$150,000-350,000","CHAMPLAIN ORTHODONTIC ASSOCIATES, LTD",277 BLAIR PARK RD SUITE 101,WILLISTON,VT,5495.0,621210.0,4/8/2020
628584,"$150,000-350,000","CHAMPLAIN PERIODONTAL, P.C.",37 TIMBER LN,SOUTH BURLINGTON,VT,5403.0,621210.0,4/29/2020
628585,"$150,000-350,000",CHAMPLAIN VALLEY EXPOSITION,105 Pearl St,ESSEX JUNCTION,VT,5453.0,711310.0,4/8/2020
628586,"$150,000-350,000",CHAMPLAIN VALLEY HEMATOLOGY ONCOLOGY P.C.,792 COLLEGE PKWY Suite 207,COLCHESTER,VT,5446.0,621111.0,4/14/2020
628587,"$150,000-350,000","CHAMPLAIN VALLEY ORAL & MAXILLOFACIAL SURGERY, P.C.",118 Tilley Drive Ste. 102,SOUTH BURLINGTON,VT,5403.0,621210.0,4/7/2020
628588,"$150,000-350,000","CHAMPLAIN VALLEY PLUMBING & HEATING, INC.",125 Monkton Road,BRISTOL,VT,5443.0,238220.0,4/9/2020
628589,"$150,000-350,000",CHAPUT FAMILY FARMS,2473 Route 105 East,NORTH TROY,VT,5859.0,112120.0,4/6/2020
628590,"$150,000-350,000","CHARLES E. TUTTLE CO., INC.",364 Innovation Drive,NORTH CLARENDON,VT,5759.0,511130.0,4/29/2020
628591,"$150,000-350,000",CHEESEMAN INSURANCE INC,84 PINE ST SUITE 602,BURLINGTON,VT,5401.0,524210.0,4/9/2020
628592,"$150,000-350,000",CHELSEA GREEN PUBLISHING COMPANY,85 North Main St Suite 120,WHITE RIVER JUNCTION,VT,5001.0,511130.0,4/6/2020
628593,"$150,000-350,000","CHEVALIER DRILLING COMPANY, INC",P O BOX 64,HIGHGATE SPRINGS,VT,5460.0,237110.0,4/7/2020
628594,"$150,000-350,000","CHIEF CRUSHING & EXCAVATION, INC",2494 STONE RD,SOUTH RYEGATE,VT,5069.0,212312.0,4/6/2020
628595,"$150,000-350,000",CHIMNEY SAVERS INC,PO BOX  246,RANDOLPH,VT,5060.0,238220.0,4/6/2020
628596,"$150,000-350,000","CHOICE TBI SUPPORT SERVICES, INC.",23 Jones Brothers Way,BARRE,VT,5641.0,339113.0,4/9/2020
628597,"$150,000-350,000",CHRIST THE KING-ST ANTHONY PARISH CHARITABLE TRUST,305 FLYNN AVE,BURLINGTON,VT,5401.0,813110.0,4/28/2020
628598,"$150,000-350,000",CHURCH HILL LANDSCAPES INC,287 CHURCH HILL RD,CHARLOTTE,VT,5445.0,561730.0,4/8/2020
628599,"$150,000-350,000","CIVIL ENGINEERING ASSOCIATES, INC",10 MANSFIELD VIEW LANE,SOUTH BURLINGTON,VT,5403.0,541330.0,4/10/2020
628600,"$150,000-350,000",CLARK'S FOUNDATION SERVICES LLC,GALLISON HILL RD,MONTPELIER,VT,5602.0,562991.0,4/5/2020
628601,"$150,000-350,000","CLASSENS CRANE SERVICE, LLC",3106 VT 18,SAINT JOHNSBURY,VT,5819.0,238990.0,4/15/2020
628602,"$150,000-350,000",CLASSIC DESIGNS BY MATTHEW BUR,84 CENTRAL ST,SAINT JOHNSBURY,VT,5819.0,337122.0,4/4/2020
628603,"$150,000-350,000","CLASSY CUTS AND TANS, INC.",88 Prospect Street,WHITE RIVER JUNCTION,VT,5001.0,812112.0,4/6/2020
628604,"$150,000-350,000",CLAUSSSEN ENTERPRISE INCORPORATE,187 Main Street,COLCHESTER,VT,5446.0,453110.0,4/9/2020
628605,"$150,000-350,000","CLEAN ENERGY GROUP, INC",50 State St Suite 1,MONTPELIER,VT,5602.0,813319.0,4/15/2020
628606,"$150,000-350,000",CLEANTECH BUILDING MAINTENANCE INC.,116 CEDAR RIDGE DR,COLCHESTER,VT,5446.0,561720.0,4/8/2020
628607,"$150,000-350,000",CLEAR WATER FILTRATION,264 Mad River Park,WAITSFIELD,VT,5673.0,238220.0,4/7/2020
628608,"$150,000-350,000","CMGN CONSULTING, LLC",106 East Allen St Unit 506,WINOOSKI,VT,5404.0,541611.0,4/14/2020
628609,"$150,000-350,000","COLD HOLLOW CIDER MILL, INC.",3600 Waterbury Stowe Road,WATERBURY CENTER,VT,5677.0,445299.0,4/11/2020
628610,"$150,000-350,000",COLLECTIVE ARTS USA LIMITED,112 Main Street South,STOWE,VT,5672.0,311942.0,4/28/2020
628611,"$150,000-350,000","COLLISION WORKS, INC.",685 WOODSTOCK RD,WHITE RIVER JUNCTION,VT,5001.0,811111.0,4/10/2020
628612,"$150,000-350,000",COMMERCIAL CONSTRUCTION ENDEAVORS INC,1233 SATTERLY RD,FERRISBURGH,VT,5456.0,484220.0,4/8/2020
628613,"$150,000-350,000",CONFLUENCE BEHAVIORAL HEALTH LLC,1646 GOVE HILL RD,THETFORD CENTER,VT,5075.0,621999.0,4/15/2020
628614,"$150,000-350,000",CONTACT COMMUNICATIONS INC,142 Avenue C,WILLISTON,VT,5495.0,541990.0,4/7/2020
628615,"$150,000-350,000","CONTI OIL, INC.",97 Websterville Road,BARRE,VT,5641.0,454310.0,4/7/2020
628616,"$150,000-350,000",CORNERSTONE BURGER COMPANY,47 North Main Street,BARRE,VT,5641.0,722511.0,4/27/2020
628617,"$150,000-350,000",CORNERSTONE DAIRY LLC,482-A Airport Road,ORLEANS,VT,5860.0,112120.0,4/5/2020
628618,"$150,000-350,000",CORNERSTONE SOLUTIONS LLC,114 MAIN ST,VERGENNES,VT,5491.0,813110.0,4/13/2020
628619,"$150,000-350,000","COSTELLO, VALENTE & GENTRY PC",51 Putney Rd,BRATTLEBORO,VT,5301.0,541110.0,4/15/2020
628620,"$150,000-350,000","COUNTRY ANIMAL HOSPITAL, P.C.",1533 VT RTE 107,BETHEL,VT,5032.0,541940.0,4/27/2020
628621,"$150,000-350,000",COUNTRY CLUB OF VERMONT INC.,2800 Country Club Rd.,WATERBURY CENTER,VT,5677.0,713910.0,4/3/2020
628622,"$150,000-350,000","COUNTRY GARDEN AND HOME CENTER, INC.",85 Center Rd,MORRISVILLE,VT,5661.0,444110.0,4/6/2020
628623,"$150,000-350,000",COUNTRY SIDE LOCK AND ALARMS,495 Old Turnpike Rd,MOUNT HOLLY,VT,5758.0,561621.0,4/7/2020
628624,"$150,000-350,000",COUNTY PLUMBING & HEATING INC,PO Box,MORRISVILLE,VT,5661.0,238220.0,4/27/2020
628625,"$150,000-350,000","COUNTY TIRE CENTER, INC.",33 SEYMOUR ST,MIDDLEBURY,VT,5753.0,441320.0,4/7/2020
628626,"$150,000-350,000","COURT HOUSE SQUARE, LLC",14 Court Square,MIDDLEBURY,VT,5753.0,721110.0,4/9/2020
628627,"$150,000-350,000",COUTURE TRUCKING INC,PO BOX 90,TROY,VT,5868.0,484110.0,4/3/2020
628628,"$150,000-350,000","CRAFTSBURY COMMUNITY CARE CENTER, INC.",1784 East Craftsbury Rd,CRAFTSBURY,VT,5826.0,623990.0,4/7/2020
628629,"$150,000-350,000",CREATIVE COUNTERS LLC,82 Commercial Lane,LYNDONVILLE,VT,5851.0,238350.0,4/16/2020
628630,"$150,000-350,000","CROSS CONSULTING ENGINEERS, PC",103 Fairfax Road,SAINT ALBANS,VT,5478.0,237990.0,4/3/2020
628631,"$150,000-350,000","CROWN POINT EXCAVATION, LLC",PO BOX 656,CHESTER,VT,5143.0,238910.0,4/14/2020
628632,"$150,000-350,000",CRYSTAL CLEAR HOSPITALITY LLC,42 Lower Mountain View Drive,COLCHESTER,VT,5446.0,721110.0,4/29/2020
628633,"$150,000-350,000",CUMMINGS ELECTRIC PC,80 Ethan Allen Drive,SOUTH BURLINGTON,VT,5403.0,238210.0,4/8/2020
628634,"$150,000-350,000",CUTTHROAT ENTERPRISES,26 SEYMOUR ST,MIDDLEBURY,VT,5753.0,722511.0,4/11/2020
628635,"$150,000-350,000",CX ASSOCIATES LLC,110 Main Street Studio 1B,BURLINGTON,VT,5401.0,541330.0,4/14/2020
628636,"$150,000-350,000",D&A ASSOCIATES INC,204 CB Road,HINESBURG,VT,5461.0,236118.0,4/15/2020
628637,"$150,000-350,000","DAKIN FARMS, INC.",5797 ROUTE 7,FERRISBURGH,VT,5456.0,445299.0,4/9/2020
628638,"$150,000-350,000",DANAHER FLOOR RESTORATION INC,1548 Eastham Road,CUTTINGSVILLE,VT,5738.0,238330.0,4/30/2020
628639,"$150,000-350,000",DANFORM OF AMERICA,104 Heineberg Dr,COLCHESTER,VT,5446.0,448210.0,4/28/2020
628640,"$150,000-350,000","DARBY KOLTER NORDLE, LLP",89 South Main Street,WATERBURY,VT,5676.0,541110.0,4/12/2020
628641,"$150,000-350,000","DARLINGS AUTO REPAIR, INC.",99 Branch Brook Road,GROTON,VT,5046.0,531120.0,4/3/2020
628642,"$150,000-350,000","DATAMANN, INC.",1994 HARTFORD AVE,WILDER,VT,5088.0,511210.0,4/8/2020
628643,"$150,000-350,000",DAVID CHAVES EXCAVATING INC,242 Chaves Rd PO Box 70,LONDONDERRY,VT,5148.0,238910.0,4/7/2020
628644,"$150,000-350,000",DAVIS STEADMAN FORD & PERCY LLC,PO BOX 796,WHITE RIVER JUNCTION,VT,5001.0,541110.0,4/7/2020
628645,"$150,000-350,000","DEDALUS WINE GROUP, INC.",388 PINE ST Suite 1,BURLINGTON,VT,5401.0,445310.0,4/9/2020
628646,"$150,000-350,000",DEE PHYSICAL THERAPY,23 San Remo Drive,SOUTH BURLINGTON,VT,5403.0,621340.0,4/7/2020
628647,"$150,000-350,000","DELANEY MEETING & EVENT MANAGEMENT, LLC",46B Main St. 4th Floor,WINOOSKI,VT,5404.0,561920.0,4/13/2020
628648,"$150,000-350,000",DENPOS LLC,51 SEESAWS RUN WEST,PERU,VT,5152.0,721199.0,4/7/2020
628649,"$150,000-350,000",DESSEREAU MACHINES INC,53 Granite St,BARRE,VT,5641.0,332710.0,4/7/2020
628650,"$150,000-350,000",DEVON TRAHAN ENTERPRISES INC.,2503 OREGON RD,LUNENBURG,VT,5906.0,561720.0,4/7/2020
628651,"$150,000-350,000",DEWOLFE ENGINEERING ASSOCIATES PC,317 River Street,MONTPELIER,VT,5601.0,541330.0,4/15/2020
628652,"$150,000-350,000","DI STEFANO LANDSCAPING, INC.",302 COLCHESTER RD,ESSEX JUNCTION,VT,5452.0,561730.0,4/10/2020
628653,"$150,000-350,000","DICKINSON & BRANON DENTAL CARE, PLLC",12 MAPLEVILLE DEPOT,SAINT ALBANS,VT,5478.0,621210.0,4/28/2020
628654,"$150,000-350,000",DISCOUNT FOODS OF RUTLAND LLC,1344  PO BOX 1344,RUTLAND,VT,5701.0,445110.0,4/6/2020
628655,"$150,000-350,000","DOMINIONTECH, INC.",186 Allen Brook Lane,WILLISTON,VT,5495.0,541512.0,4/7/2020
628656,"$150,000-350,000",DONALD P. BLAKE JR. INC.-SBA SMALL 7A TERM,59 Old Creamery RD,MORRISVILLE,VT,5661.0,,5/3/2020
628657,"$150,000-350,000",DORSET HOTEL ASSOCIATES LLC,25 CHERRY ST,BURLINGTON,VT,5401.0,721110.0,4/5/2020
628658,"$150,000-350,000","DORSET STREET DERMATOLOGY, LLC",321 Dorset Street,SOUTH BURLINGTON,VT,5403.0,621111.0,4/28/2020
628659,"$150,000-350,000","DOUGH RAO ME, INC",152 Saint Paul Street,BURLINGTON,VT,5401.0,722511.0,4/30/2020
628660,"$150,000-350,000","DOVETAIL CONSULTING GROUP, LLC",80 CROSS RD,STOWE,VT,5672.0,541618.0,4/10/2020
628661,"$150,000-350,000","DRS. PETER AND LISA HOGENKAMP, P.C.",10 commons St,RUTLAND,VT,5701.0,621111.0,4/27/2020
628662,"$150,000-350,000",DUBOIS CONSTRUCTION INC,46 Three Mile Bridge Rd,MONTPELIER,VT,5602.0,238290.0,4/6/2020
628663,"$150,000-350,000","DUBOIS FARM, INC.",2038 VT Route 17W,ADDISON,VT,5491.0,112120.0,4/13/2020
628664,"$150,000-350,000",DUFRESNE & ASSOCIATES PC,56 Main St,SPRINGFIELD,VT,5156.0,541330.0,4/6/2020
628665,"$150,000-350,000",E&M MECHANICAL INC,41 COMMERCE AVE STE 1,SOUTH BURLINGTON,VT,5403.0,238220.0,4/9/2020
628666,"$150,000-350,000","E.J.'S KIDS KLUB, INC.",45 Avenue D,WILLISTON,VT,5495.0,624410.0,4/4/2020
628667,"$150,000-350,000","EAGLE EYE FARM REHABILITATION CENTER, INC.",3014 Abbott Hill Road,WEST BURKE,VT,5871.0,621112.0,4/10/2020
628668,"$150,000-350,000",EARLE'S TRUCK REPAIR INC,60 N CAMPBELL RD,CENTER RUTLAND,VT,5701.0,811111.0,4/8/2020
628669,"$150,000-350,000",EASTSIDE RESTAURANT CORP.,47 LANDING ST,NEWPORT,VT,5855.0,722511.0,4/7/2020
628670,"$150,000-350,000",EASTWOOD ANIMAL CLINIC LLC,298 US ROUTE 4 EAST,RUTLAND,VT,5701.0,541940.0,4/28/2020
628671,"$150,000-350,000","ELDERLY SERVICE, INC.",P.O. Box 581,MIDDLEBURY,VT,5753.0,624120.0,4/7/2020
628672,"$150,000-350,000","ELLIS MUSIC CO., INC.",1709 VT Route 107,ROYALTON,VT,5068.0,451140.0,4/14/2020
628673,"$150,000-350,000",ELMHILL INC.,PO Box 248,PLAINFIELD,VT,5667.0,611110.0,5/26/2020
628674,"$150,000-350,000",ENCORE REDEVELOPMENT LLC,110 Main Street Suite 2E,BURLINGTON,VT,5401.0,541330.0,4/7/2020
628675,"$150,000-350,000","ENERGY FUTURES GROUP, INC.",P O Box 587,HINESBURG,VT,5461.0,541690.0,4/8/2020
628676,"$150,000-350,000",ENERGY SMART BUILDING INC.,22 Varney hill Rd.,STARKSBORO,VT,5487.0,236115.0,4/9/2020
628677,"$150,000-350,000",ENHANCED LIVING INC.,210 PLATEAU ACRES,BRADFORD,VT,5033.0,623311.0,4/5/2020
628678,"$150,000-350,000","ENSAVE, INC.","65 MILLET ST, STE 105",RICHMOND,VT,5477.0,237130.0,4/9/2020
628679,"$150,000-350,000",ERIS PRIME LLC,397 ETHAN ALLEN AVE APT 206,COLCHESTER,VT,5446.0,811111.0,5/3/2020
628680,"$150,000-350,000",ESSEX ALLIANCE CHURCH OF THE CHRISTIAN & MISSIONARY ALLIANCE,37 OLD STAGE RD,ESSEX JUNCTION,VT,5452.0,813110.0,4/10/2020
628681,"$150,000-350,000",EVERGREEN ROOFING LLC,61 South Oak Circle,COLCHESTER,VT,5446.0,238160.0,4/10/2020
628682,"$150,000-350,000","EXCEL PHYSICAL THERAPY, INC.",184 VT Rte 7 South,MILTON,VT,5468.0,621399.0,4/27/2020
628683,"$150,000-350,000","EYE CARE OF VERMONT, PLC",77b Pearl Street,ESSEX JCT,VT,5452.0,621111.0,5/11/2020
628684,"$150,000-350,000",F.P.H INC.,326 Main St,DERBY,VT,5829.0,238220.0,4/9/2020
628685,"$150,000-350,000",FACEY GOSS & MCPHEE P.C.,71 ALLEN ST,RUTLAND,VT,5701.0,541110.0,4/6/2020
628686,"$150,000-350,000",FAIRBANKS MUSEUM & PLANETARIUM,1302 MAIN STRRET,SAINT JOHNSBURY,VT,5819.0,712110.0,4/3/2020
628687,"$150,000-350,000",FAIRMONT LLC,141 Lyle Haven Rd,EAST MONTPELIER,VT,5651.0,112120.0,4/9/2020
628688,"$150,000-350,000","FAMILY DENTAL ASSOCIATES, LTD.",4 General Wing Road,RUTLAND,VT,5701.0,621210.0,4/14/2020
628689,"$150,000-350,000","FAMILY FOOTWEAR CENTER, INC.",120 NORTHSIDE DR,BENNINGTON,VT,5201.0,448210.0,4/5/2020
628690,"$150,000-350,000","FAMILY PRACTICE ASSOCIATES, INC.",PO Box 102,CAMBRIDGE,VT,5444.0,621111.0,4/7/2020
628691,"$150,000-350,000",FARMERS TO YOU LLC,446 Industrial Lane,BARRE,VT,5641.0,492210.0,4/15/2020
628692,"$150,000-350,000","FARMHOUSE POTTERY, INC.",1837 W WOODSTOCK RD,WOODSTOCK,VT,5091.0,327110.0,4/4/2020
628693,"$150,000-350,000",FECTEAU RSIDENTIAL INC,350 River Street,MONTPELIER,VT,5602.0,236116.0,4/7/2020
628694,"$150,000-350,000",FIDDLEHEAD BREWING COMPANY LLC,31 Sage Court,SHELBURNE,VT,5482.0,312120.0,4/8/2020
628695,"$150,000-350,000",FIDDLEHEAD FAMILY DENTISTRY LLC,39 Congress Street,SAINT ALBANS,VT,5478.0,621210.0,4/6/2020
628696,"$150,000-350,000",FINN & STONE INC,377 CENTER HILL RD,MANCHESTER CENTER,VT,5255.0,524210.0,4/6/2020
628697,"$150,000-350,000",FIRETECH SPRINKLER CORPORATION,340 Hegeman Ave,COLCHESTER,VT,5446.0,423610.0,4/9/2020
628698,"$150,000-350,000","FIRST CHOICE COMMUNICATION SERVICES, INC.",49 Marlboro Road,BRATTLEBORO,VT,5301.0,238210.0,4/10/2020
628699,"$150,000-350,000",FITZ-ROSE INC,11 Village Square,STRATTON MOUNTAIN,VT,5155.0,722511.0,4/16/2020
628700,"$150,000-350,000",FIVE MAPLES INVESTMENT CORPORATION,78 River Road South,PUTNEY,VT,5346.0,541860.0,4/15/2020
628701,"$150,000-350,000","FIVE TOWN HEALTH ALLIANCE, INC",61 Pine St. Building 4,BRISTOL,VT,5443.0,621111.0,4/10/2020
628702,"$150,000-350,000",FLATBREAD VENTURES LLC,115 ST PAUL ST,BURLINGTON,VT,5401.0,721110.0,4/4/2020
628703,"$150,000-350,000",FLETCHER CSI LLC,237 COMMERCE ST,WILLISTON,VT,5495.0,541910.0,4/9/2020
628704,"$150,000-350,000",FLUENCY INC,266 Main Street,BURLINGTON,VT,5401.0,519190.0,4/13/2020
628705,"$150,000-350,000",FOAM BREWERS LLC,112 LAKE ST,BURLINGTON,VT,5401.0,312120.0,4/7/2020
628706,"$150,000-350,000","FOGG'S HARDWARE & BUILDING SUPPLY, INC.",50 Lake Morey Road,FAIRLEE,VT,5045.0,444190.0,4/5/2020
628707,"$150,000-350,000",FOLINO'S LLC,6305 Shelburne Rd,SHELBURNE,VT,5482.0,722511.0,4/9/2020
628708,"$150,000-350,000",FOR THE BIOME LLC,1064 Kipling Road,BRATTLEBORO,VT,5301.0,424210.0,4/28/2020
628709,"$150,000-350,000",FORESIGHT PARTNERS,1100 HINESBURG RD,SOUTH BURLINGTON,VT,5403.0,621320.0,4/13/2020
628710,"$150,000-350,000",FORMULA NISSAN INC,1504 US RT 302,BARRE,VT,5641.0,441110.0,4/7/2020
628711,"$150,000-350,000","FRANCIS FOUNDATION, INC.","382 Hercules Dr., Suite 6",COLCHESTER,VT,5446.0,813410.0,4/28/2020
628712,"$150,000-350,000",FRANCIS L. PINARD O.D. PC,124 EAST MAIN ST,NEWPORT,VT,5855.0,621320.0,4/3/2020
628713,"$150,000-350,000","FRANK COOPER, INC. AND TWO O'BRIENS PROPERTIES. LLC (CO-BORROWERS)",1233 Shelburne Rd,SOUTH BURLINGTON,VT,5403.0,812111.0,4/13/2020
628714,"$150,000-350,000",FRASERS GENERAL STORE,319 Main Street,NORWICH,VT,5055.0,445120.0,4/16/2020
628715,"$150,000-350,000",FREEDOM FOODS LLC,300 Beanville Road,RANDOLPH,VT,5060.0,311211.0,4/8/2020
628716,"$150,000-350,000","FREEMAN FRENCH FREEMAN, INCORPORATED",81 MAPLE ST,BURLINGTON,VT,5401.0,541310.0,4/8/2020
628717,"$150,000-350,000",FRIENDS OF HILDENE INC,377 PO BOX 377,MANCHESTER,VT,5254.0,712190.0,4/14/2020
628718,"$150,000-350,000",FRONT PORCH FORUM INC.,35 King St Suite 11,BURLINGTON,VT,5401.0,519130.0,4/7/2020
628719,"$150,000-350,000",FUTURE PLANNING ASSOCIATES,"600 Blair Park Rd, STE 331",WILLISTON,VT,5495.0,524298.0,4/9/2020
628720,"$150,000-350,000",FUZZBUZZ TECHNOLOGIES INC,41 COMMERCE AVE Suite 2,SOUTH BURLINGTON,VT,5403.0,561990.0,4/8/2020
628721,"$150,000-350,000","G.K. BISSON TRUCKING, LLC",185 Ferno Road,BARRE,VT,5641.0,484110.0,4/14/2020
628722,"$150,000-350,000",G.M.SUPPLY COMPANY INC,427 Route 4A West PO Box 72,BOMOSEEN,VT,5732.0,423310.0,4/5/2020
628723,"$150,000-350,000","GADUE'S DRY CLEANING, INC.",63 Creek Farm Rd Suite 2,COLCHESTER,VT,5446.0,812320.0,4/6/2020
628724,"$150,000-350,000",GALE & MCALLISTER PLLC,78 Severance Green,COLCHESTER,VT,5446.0,541110.0,4/13/2020
628725,"$150,000-350,000",GALLO ENTERPRISES INCORPORATED,291 McKinley Avenue,RUTLAND,VT,5701.0,238320.0,4/13/2020
628726,"$150,000-350,000","GARNET TRANSPORT MEDICINE, LLC",1000 River Road Building 900,ESSEX JUNCTION,VT,5482.0,621910.0,4/16/2020
628727,"$150,000-350,000",GARVEY NISSAN INC.,78 VT ROUTE 7B NORTH EXT,NORTH CLARENDON,VT,5759.0,441110.0,4/7/2020
628728,"$150,000-350,000","GEORGE & KOCH DENTAL ASSOCIATES, PC",6 NORTH ST,BARRE,VT,5641.0,621210.0,4/3/2020
628729,"$150,000-350,000",GERVAIS FAMILY FARM INC.,6001 Boston Post Road,ENOSBURG FALLS,VT,5450.0,112120.0,4/9/2020
628730,"$150,000-350,000","GERVAIS FAMILY FARM NO. 2, LLC",6001 BOSTON POST RD,ENOSBURG FALLS,VT,5450.0,112120.0,4/9/2020
628731,"$150,000-350,000",GIANCOLA CONSTRUCTION CORP,140 GRANGER ST,RUTLAND,VT,5701.0,236220.0,4/13/2020
628732,"$150,000-350,000",GLASS GUYS INC,26 Pearl Street,BURLINGTON,VT,5401.0,238150.0,4/13/2020
628733,"$150,000-350,000",GLOBAL MARITIME-SBA SMALL 7A TERM,2997 Shelburne Road Suite 5,SHELBURNE,VT,5482.0,,5/3/2020
628734,"$150,000-350,000",GLOBAL- Z INTERNATIONAL INC,1524 PO BOX 1524,BENNINGTON,VT,5201.0,561499.0,4/9/2020
628735,"$150,000-350,000",GMW INC,92 Park Street,RUTLAND,VT,5701.0,321999.0,4/6/2020
628736,"$150,000-350,000","GODIN MECHANICAL, LLC",10933 VT RT 105,ENOSBURG FALLS,VT,5450.0,115210.0,4/3/2020
628737,"$150,000-350,000",GOLDEN 10 MAPLEVILLE PLLC,10 Mapleville Depot Ste 1,ST ALBANS,VT,5478.0,531312.0,4/30/2020
628738,"$150,000-350,000","GOODRO LUMBER CO., INC.",PO BOX 7,EAST MIDDLEBURY,VT,5740.0,444190.0,4/7/2020
628739,"$150,000-350,000","GORDON'S WINDOW DECOR, INC.",8 LEROY RD,WILLISTON,VT,5495.0,442291.0,4/4/2020
628740,"$150,000-350,000",GOULD CORPORATION,PO Box 69,STOWE,VT,5672.0,238210.0,4/8/2020
628741,"$150,000-350,000",GOVERNORS INSTITUTES OF VERMONT,20 West CANAL ST,WINOOSKI,VT,5404.0,813211.0,4/15/2020
628742,"$150,000-350,000",GPI CONSTRUCTION INC,"436 CANAL ST, Suite 101",BRATTLEBORO,VT,5301.0,236220.0,4/6/2020
628743,"$150,000-350,000",GRANITE IMPORTERS INC.,Granite Importers Inc.,BARRE,VT,5641.0,327991.0,4/28/2020
628744,"$150,000-350,000",GRAY'S TRANSPORT & EXCAVATING LLC,223 Valley Road,DERBY LINE,VT,5830.0,484220.0,4/5/2020
628745,"$150,000-350,000",GREEN CASTLE GROUP LLC,346 Shelburne Road,BURLINGTON,VT,5406.0,531390.0,4/6/2020
628746,"$150,000-350,000","GREEN LANTERN DEVELOPMENT, LLC",121 South Pinnacle Ridge,WATERBURY,VT,5676.0,221114.0,4/4/2020
628747,"$150,000-350,000",GREEN LUBE-SBA SMALL 7A TERM,2 David Dr.,ESSEX JCT AND SOUTH BURLINGTON,VT,5403.0,811191.0,5/3/2020
628748,"$150,000-350,000",GREEN MOUNTAIN ANIMAL LLC,397 Patchen Road,SOUTH BURLINGTON,VT,5403.0,311111.0,4/4/2020
628749,"$150,000-350,000","GREEN MOUNTAIN ANTIBODIES, INC.",1 MILL ST,BURLINGTON,VT,5401.0,541711.0,4/5/2020
628750,"$150,000-350,000",GREEN MOUNTAIN BOAT LINES,348 FLYNN AVE,BURLINGTON,VT,5401.0,487210.0,4/9/2020
628751,"$150,000-350,000",GREEN MOUNTAIN CHILDREN'S CENTER,92 Farm Vu Drive,WHITE RIVER JUNCTION,VT,5001.0,624410.0,4/16/2020
628752,"$150,000-350,000","GREEN MOUNTAIN DAIRY FARM, LLC",962 Morey Rd,SHELDON,VT,5483.0,112120.0,4/10/2020
628753,"$150,000-350,000",GREEN MOUNTAIN FEEDS INC,65 Main Street,BETHEL,VT,5032.0,311119.0,4/3/2020
628754,"$150,000-350,000",GREEN MOUNTAIN HABITAT FOR HUMANITY,300 CORNERSTONE DR Suite 335,WILLISTON,VT,5495.0,813319.0,4/7/2020
628755,"$150,000-350,000","GREEN MOUNTAIN IMPORTS, LLC",54 Echo Place Unit 4,WILLISTON,VT,5495.0,454110.0,4/8/2020
628756,"$150,000-350,000","GREEN MOUNTAIN SOLAR, LLC",96 Commerce Street,WILLISTON,VT,5495.0,238210.0,4/5/2020
628757,"$150,000-350,000",GREEN MOUNTAIN TRANSPORTATION LLC,2599 West Enosburg Road,ENOSBURG FALLS,VT,5450.0,484230.0,4/4/2020
628758,"$150,000-350,000",GREEN MT MONOGRAM INC,15 MILL ST,WELLS RIVER,VT,5081.0,315990.0,4/13/2020
628759,"$150,000-350,000","GREEN VISIONS, LLC",235 Main Street  PO BOX 325,NORWICH,VT,5055.0,721191.0,5/29/2020
628760,"$150,000-350,000","GRIFFIN RIDERS, LLC",30 VT Rte 30,JERICHO,VT,5465.0,722511.0,4/28/2020
628761,"$150,000-350,000",GRIPPIN DONALN & PINKHAM PLC,3 BALDWIN AVE,SOUTH BURLINGTON,VT,5403.0,541211.0,4/5/2020
628762,"$150,000-350,000","GRISTMILL BUILDERS, LTD",5430 WATERBURY-STOWE RD,WATERBURY CENTER,VT,5677.0,236117.0,4/3/2020
628763,"$150,000-350,000",GSK CLIMATE CONTROL,154 Hills Court,EAST DORSET,VT,5253.0,238220.0,4/3/2020
628764,"$150,000-350,000",GUMSHOE INC.,28 Main Street,WINOOSKI,VT,5404.0,722511.0,4/7/2020
628765,"$150,000-350,000",GURNEY BROTHERS CONST INC,19 GURNEY RD,NORTH SPRINGFIELD,VT,5150.0,238910.0,4/9/2020
628766,"$150,000-350,000",GUY E NIDO INC.,PO Box 727,WILMINGTON,VT,5363.0,238220.0,4/9/2020
628767,"$150,000-350,000",H AND W WILLISTON LLC,22 Merchant Row,WILLISTON,VT,5495.0,722511.0,4/9/2020
628768,"$150,000-350,000","H. HIRSCHMANN, LTD",467 Sheldon Avenue,WEST RUTLAND,VT,5777.0,321911.0,4/7/2020
628769,"$150,000-350,000",HAI HOSPITALITY INC.,1428 Millbrook Rd,WAITSFIELD,VT,5673.0,721191.0,4/15/2020
628770,"$150,000-350,000",HAIR R US,570 SHELBURNE RD,SOUTH BURLINGTON,VT,5401.0,541213.0,4/13/2020
628771,"$150,000-350,000",HALVORSONS INC.,16 CHURCH ST,BURLINGTON,VT,5401.0,722511.0,4/9/2020
628772,"$150,000-350,000",HAMLIN DON L CONSULT ENG INC,136 Pearl Street,ESSEX JUNCTION,VT,5452.0,541330.0,4/10/2020
628773,"$150,000-350,000","HAMMERWORKS CONSTRUCTION, INC",351 COUNTRYSIDE RD,WATERBURY,VT,5676.0,236115.0,4/7/2020
628774,"$150,000-350,000","HAMPTON DIRECT, INC.",1889 WILLISTON RD #200,SOUTH BURLINGTON,VT,5403.0,541613.0,4/28/2020
628775,"$150,000-350,000","HANDY'S HOTELS & RENTALS, LLC",66 College Parkway,COLCHESTER,VT,5446.0,721110.0,4/8/2020
628776,"$150,000-350,000","HANDY'S SERVICE STATIONS, INC",75 S WINOOSKI AVE,BURLINGTON,VT,5401.0,447190.0,4/14/2020
628777,"$150,000-350,000",HARBOUR FOODS INC,32 Kocher Dr,BENNINGTON,VT,5201.0,423850.0,4/13/2020
628778,"$150,000-350,000","HARRINGTONS IN VERMONT, INC",210 E Main St,RICHMOND,VT,5477.0,484110.0,4/14/2020
628779,"$150,000-350,000","HASKINS AND ASSOCIATES CONCRETE, LLC",87 PO BOX,WATERBURY,VT,5676.0,236220.0,6/22/2020
628780,"$150,000-350,000",HASKINS GAS SERVICE,1791 ROUTE 30,DORSET,VT,5251.0,454310.0,4/5/2020
628781,"$150,000-350,000",HAYES FORD INC,439 EAST MAIN ST,NEWPORT,VT,5855.0,441110.0,4/11/2020
628782,"$150,000-350,000",HB HOLDING COMPANY LLC,65 Millet Street,RICHMOND,VT,5477.0,541613.0,4/10/2020
628783,"$150,000-350,000","HBH HOLDINGS, LLC",1223 EAST ARLINGTON ROAD,ARLINGTON,VT,5250.0,325510.0,4/9/2020
628784,"$150,000-350,000",HEB MANUFACTURING COMPANY INC.,PO Box 188 67 VT Route 110,CHELSEA,VT,5038.0,332119.0,4/29/2020
628785,"$150,000-350,000",HEGEMAN ELECTRIC INC,16 GAUTHIER DR,ESSEX JUNCTION,VT,5452.0,238210.0,4/11/2020
628786,"$150,000-350,000",HEIGHT OF LAND PUBLICATIONS LTD,60 Main Street,JEFFERSONVILLE,VT,5464.0,511120.0,4/4/2020
628787,"$150,000-350,000","HEILMANN, EKMAN, COOLEY & GAGNON, INC.",PO BOX 216,BURLINGTON,VT,5402.0,541110.0,4/29/2020
628788,"$150,000-350,000",HERRICK LTD,77 MAIN ST,BURLINGTON,VT,5401.0,541211.0,4/8/2020
628789,"$150,000-350,000","HIBBERT & MCGEE WHOLESALERS, INC.",10 Pleasant Street,EAST BARRE,VT,5649.0,424490.0,4/11/2020
628790,"$150,000-350,000",HICKOK & BOARDMAN REALTY INC.,346 Shelburne Road,BURLINGTON,VT,5401.0,531390.0,4/3/2020
628791,"$150,000-350,000","HIGH FIVE ADVENTURE LEARNING CENTER, INC.",130 Austine Drive,BRATTLEBORO,VT,5301.0,611620.0,4/3/2020
628792,"$150,000-350,000",HIGH MOUNTAIN CORPORATION,75 Allen Street,RUTLAND,VT,5701.0,446110.0,4/6/2020
628793,"$150,000-350,000",HILL FARMSTEAD LLC,403 Hill Road,GREENSBORO BEND,VT,5842.0,325193.0,6/24/2020
628794,"$150,000-350,000",HILLTOP MONTESSORI SCHOOL INC,99 Stafford Farm Hill,BRATTLEBORO,VT,5301.0,611110.0,4/5/2020
628795,"$150,000-350,000",HILLVIEW BUILDING COMPANY LLC,65 Huntington Road Suite 101,RICHMOND,VT,5477.0,236118.0,4/9/2020
628796,"$150,000-350,000","HIMALAYAN CATARACT PROJECT, INC.",PO Box 55,WATERBURY,VT,5676.0,621320.0,4/13/2020
628797,"$150,000-350,000",HIRCHAK BROTHERS LLC,153 Stafford Ave,MORRISVILLE,VT,5661.0,561990.0,4/7/2020
628798,"$150,000-350,000",HJ & A HOWRIGAN & SONS INC,551 HOWRIGAN RD,FAIRFIELD,VT,5455.0,112120.0,4/27/2020
628799,"$150,000-350,000","HONEY ROAD, LLC",156 CHURCH ST,BURLINGTON,VT,5401.0,722511.0,4/28/2020
628800,"$150,000-350,000","HOSPITALITY MANAGEMENT OF RUTLAND, INC.",476 Holiday Drive,RUTLAND,VT,5701.0,721110.0,4/4/2020
628801,"$150,000-350,000","HOUSEWRIGHT CONSTRUCTION, INC",5365 MAIN ST,NEWBURY,VT,5051.0,236115.0,4/9/2020
628802,"$150,000-350,000",HUNGER FREE VERMONT,38 Eastwood Dr,SOUTH BURLINGTON,VT,5403.0,813319.0,4/14/2020
628803,"$150,000-350,000","I.N.S.P.I.R.E. FOR AUTISM, INC.",130 Austine Drive #8,BRATTLEBORO,VT,5301.0,611110.0,4/8/2020
628804,"$150,000-350,000",ICV CONSTRUCTION INC.,30 MAIN ST Suite 401,BURLINGTON,VT,5401.0,236220.0,4/7/2020
628805,"$150,000-350,000",IDEAL AUTO & TRUCK PARTS OF VERMONT,145 South Main Street,WATERBURY,VT,5676.0,441310.0,4/7/2020
628806,"$150,000-350,000","IDLETYME BREWING CO., LLC",1859 Mountain Road,STOWE,VT,5672.0,722511.0,4/4/2020
628807,"$150,000-350,000","IMAGE RELAY, INC",1 LAWSON LN Ste 230,BURLINGTON,VT,5401.0,541921.0,4/9/2020
628808,"$150,000-350,000",IMAGETEK MFG INC,280 CLINTON ST,SPRINGFIELD,VT,5156.0,334417.0,4/5/2020
628809,"$150,000-350,000","INFRARED ANALYZERS, INC.",65 Lyman Drive,WILLISTON,VT,5495.0,541350.0,4/10/2020
628810,"$150,000-350,000","INJURY & HEALTH MANAGEMENT SOLUTIONS, INC.",441 WATERTOWER CIR Suite 100,COLCHESTER,VT,5446.0,621340.0,4/15/2020
628811,"$150,000-350,000","INSULATION SPECIALTY, INC.",664 COUNTY RD,EAST FAIRFIELD,VT,5448.0,238310.0,4/11/2020
628812,"$150,000-350,000",INTEGRATED TECHNOLOGIES INC,186 College St,BURLINGTON,VT,5401.0,541330.0,4/13/2020
628813,"$150,000-350,000",INTEGRITY AUTO LLC,4724 VT ROUTE 105,SHELDON,VT,5483.0,441120.0,4/11/2020
628814,"$150,000-350,000","INTERACTIVE MAINTENANCE SERVICES, INC.",P.O. Box 919,WILLISTON,VT,5495.0,561730.0,4/8/2020
628815,"$150,000-350,000",INTERNATIONAL COINS & CURRENCY,62 Ridge St.,MONTPELIER,VT,5602.0,453310.0,4/10/2020
628816,"$150,000-350,000",INVESTORS CORPORATION OF VERMONT,30 MAIN ST Suite 401,BURLINGTON,VT,5401.0,531120.0,4/7/2020
628817,"$150,000-350,000",ISLAND EXCAVATING CORP,4 Island Circle P.O. Box 153,GRAND ISLE,VT,5458.0,238910.0,4/11/2020
628818,"$150,000-350,000","IXIS, LLC","77 College St., Ste 2F",BURLINGTON,VT,5401.0,541511.0,4/3/2020
628819,"$150,000-350,000","J&L METROLOGY, INC",280 Clinton Street,SPRINGFIELD,VT,5156.0,333314.0,4/28/2020
628820,"$150,000-350,000","J.A.S., INC.",1193 Route 14,WHITE RIVER JUNCTION,VT,5001.0,811121.0,4/3/2020
628821,"$150,000-350,000","J.W. & D.E. RYAN, INC.",P.O. Box 6 155 Main Street,VERGENNES,VT,5491.0,238220.0,4/7/2020
628822,"$150,000-350,000","JACK F. CORSE, INC.",PO Box 300,CAMBRIDGE,VT,5444.0,454310.0,4/4/2020
628823,"$150,000-350,000","JACKMAN FUELS, INC.",205 Main Street,VERGENNES,VT,5491.0,454310.0,4/10/2020
628824,"$150,000-350,000","JACKMAN'S OF BRISTOL, INC.",64 JACKMAN DR,BRISTOL,VT,5443.0,424720.0,4/7/2020
628825,"$150,000-350,000","JAGER DESIGN, INC.","47 MAPLE ST, Suite 110",BURLINGTON,VT,5401.0,541430.0,4/14/2020
628826,"$150,000-350,000","JAM GOLF, LLC",1227 Dorset Street,SOUTH BURLINGTON,VT,5403.0,713910.0,4/9/2020
628827,"$150,000-350,000",JAMES H. WICK PC,"308 COLLEGE ST, PO BOX 1336",BURLINGTON,VT,5401.0,541110.0,4/10/2020
628828,"$150,000-350,000","JASMIN AUTO SALES, INC.",60 JASMIN LN,WHITE RIVER JUNCTION,VT,5001.0,811111.0,4/13/2020
628829,"$150,000-350,000","JEROME CONSTRUCTION, INC.",1545 WEST RD,BENNINGTON,VT,5201.0,236220.0,4/28/2020
628830,"$150,000-350,000",JET SERVICE ENVELOPE CO. INC.,80 East Rd,BARRE,VT,5641.0,323111.0,4/3/2020
628831,"$150,000-350,000",JEWELL SPECIALIZED INC,239 A Street,WILDER,VT,5088.0,484110.0,4/10/2020
628832,"$150,000-350,000",JMM AND ASSOCIATES PC,336 WATERTOWER CIR Suite 801,COLCHESTER,VT,5446.0,541211.0,4/9/2020
628833,"$150,000-350,000","JOHN SNELL & ASSOCIATES, INC. D/B/A SNELL INFRARED",322 NORTH MAIN ST SUITE 8,BARRE,VT,5641.0,541380.0,4/13/2020
628834,"$150,000-350,000",JOHN THIBAULT & CO INC,189 BATTERY ST,BURLINGTON,VT,5401.0,812112.0,4/9/2020
628835,"$150,000-350,000",JOHNSON RENTALS,1442 Vt Rt 15 W,JOHNSON,VT,5656.0,444130.0,4/5/2020
628836,"$150,000-350,000","JOIN, INC",1186 WILLISTON RD,SOUTH BURLINGTON,VT,5403.0,445299.0,4/28/2020
628837,"$150,000-350,000","JONATHAN E MASON, DMD PC",74 Longview Drive PO Box 2434,MANCHESTER CENTER,VT,5255.0,621210.0,4/5/2020
628838,"$150,000-350,000","JUST KIDS PEDIATRIC DENTISTRY, PLC",303 US ROUTE 5 S UNIT 11,NORWICH,VT,5055.0,621210.0,5/4/2020
628839,"$150,000-350,000",K BELLAVANCE LANDWORKS & HAULING,12 Mill Street,BARRE,VT,5641.0,561730.0,4/14/2020
628840,"$150,000-350,000",K POPE AND SONS INC,247 Cemetery Hill Road,SHOREHAM,VT,5770.0,112120.0,4/27/2020
628841,"$150,000-350,000",K.N.H. CORPORATION,1807 Killington RD,KILLINGTON,VT,5751.0,722511.0,4/6/2020
628842,"$150,000-350,000","KAS, INC.","589 AVENUE D, STE 10",WILLISTON,VT,5495.0,541614.0,4/9/2020
628843,"$150,000-350,000","KAYHART BROTHERS, LLC",7429 VT ROUTE 17 W,ADDISON,VT,5491.0,112120.0,4/7/2020
628844,"$150,000-350,000","KDP INVESTMENT ADVISORS, INC",24 Elm St,MONTPELIER,VT,5602.0,523930.0,4/6/2020
628845,"$150,000-350,000","KELLEY CHRYSLER PLYMOUTH DODGE, INC",64 Clinton St,SPRINGFIELD,VT,5156.0,423120.0,4/4/2020
628846,"$150,000-350,000","KELLEY-VIEW FARM, INC.",734 Hinman Settler Road,NEWPORT,VT,5855.0,115113.0,4/9/2020
628847,"$150,000-350,000",KELLIHER SAMETS LTD,212 Battery St. Suite 2,BURLINGTON,VT,5401.0,541613.0,4/8/2020
628848,"$150,000-350,000",KID LOGIC LEARNING LLC,72 Ethan Allen Drive,SOUTH BURLINGTON,VT,5403.0,624410.0,4/6/2020
628849,"$150,000-350,000",KING STREET CENTER INC.,87 KING ST,BURLINGTON,VT,5401.0,624190.0,4/11/2020
628850,"$150,000-350,000","KINGDOM CONSTRUCTION, INC",227 Citizens Road,NEWPORT,VT,5855.0,236220.0,4/15/2020
628851,"$150,000-350,000","KINNEY INSURANCE AGENCY, LLC",307 Route 2,SOUTH HERO,VT,5486.0,524126.0,4/3/2020
628852,"$150,000-350,000","KITCHEN WORLD, INC.",83 Ethan Allen Drive,SOUTH BURLINGTON,VT,5403.0,444190.0,4/6/2020
628853,"$150,000-350,000",KLINGER'S BREAD COMPANY,10 FARRELL ST,SOUTH BURLINGTON,VT,5403.0,311811.0,4/7/2020
628854,"$150,000-350,000",KNEALE FAMILY ENTERPRISES,25 Main Street,STOWE,VT,5672.0,722513.0,4/4/2020
628855,"$150,000-350,000",KNH OF STOWE CORPORATION,PO Box 492,KILLINGTON,VT,5751.0,722511.0,4/7/2020
628856,"$150,000-350,000","KNIGHT INDUSTRIES, INC.",20 INNOVATION DR,NORTH CLARENDON,VT,5759.0,337110.0,4/8/2020
628857,"$150,000-350,000",KNOWLEGE WAVE TRAINING,553 ROOSEVELT HIGHWAY SUITE 201,COLCHESTER,VT,5446.0,611420.0,4/11/2020
628858,"$150,000-350,000",KNOXLAND FARM INC,501 PRATT RD,BRADFORD,VT,5033.0,112120.0,4/15/2020
628859,"$150,000-350,000",KONRAD PREFAB LLC,260 CLINTON ST,SPRINGFIELD,VT,5156.0,332311.0,4/8/2020
628860,"$150,000-350,000","KREBS & LANSING CONSULTING ENGINEERS, INC.",164 MAIN ST,COLCHESTER,VT,5446.0,541330.0,4/10/2020
628861,"$150,000-350,000","L N CONSULTING, INC.",208 FLYNN AVE,BURLINGTON,VT,5401.0,541330.0,4/7/2020
628862,"$150,000-350,000","LA GRANJA, LLC",78 MAIN ST,BURLINGTON,VT,5401.0,722511.0,4/6/2020
628863,"$150,000-350,000",LACAILLADE MASONRY INC,172 EAST STREET,HUNTINGTON,VT,5462.0,238140.0,4/30/2020
628864,"$150,000-350,000",LAJEUNESSE CONSTRUCTION INC,930 East Barre Road,EAST BARRE,VT,5649.0,236220.0,4/15/2020
628865,"$150,000-350,000",LAJEUNESSE INTERIORS INC.,103 Plainfield Brook Road,BARRE,VT,5641.0,541410.0,4/9/2020
628866,"$150,000-350,000",LAKE BOMOSEEN LODGE LLC,2551 ROUTE 30N,BOMOSEEN,VT,5732.0,721110.0,4/8/2020
628867,"$150,000-350,000",LAKE CHAMPLAIN MARITIME MUSEUM AT BASIN HARBOR INC,4472 Basin Harbor Road,VERGENNES,VT,5491.0,712110.0,4/5/2020
628868,"$150,000-350,000",LAKE CHAMPLAIN WALDORF SCHOOL,359 Turtle Lane,SHELBURNE,VT,5482.0,611110.0,4/9/2020
628869,"$150,000-350,000",LAKESHORE ACE INC,713 W Lakeshore Dr,COLCHESTER,VT,5446.0,444130.0,4/12/2020
628870,"$150,000-350,000","LAKESIDE PEDIATRICS, PLLC",128 LAKESIDE AVE Suite 115,BURLINGTON,VT,5401.0,621111.0,4/7/2020
628871,"$150,000-350,000",LAMOILLE AMBULANCE SERVICE INC,93 Lower Main West,JOHNSON,VT,5656.0,621910.0,4/15/2020
628872,"$150,000-350,000","LAMOUREUX & DICKINSON CONSULTING ENGINEERS, INC.",14 Morse Drive,ESSEX JUNCTION,VT,5452.0,541330.0,4/28/2020
628873,"$150,000-350,000",LANGWAY FORD INC,4847 Main Street,MANCHESTER CENTER,VT,5255.0,441110.0,4/3/2020
628874,"$150,000-350,000","LAPORTE HOLDINGS, LLC",374 Boyer Circle,WILLISTON,VT,5495.0,551112.0,4/10/2020
628875,"$150,000-350,000","LARSON ENTERPRISES, LLC DBA OTTER CREEK AWNINGS",19 Echo Place,WILLISTON,VT,5495.0,314910.0,4/15/2020
628876,"$150,000-350,000","LAW OFFICES OF FRED V. PEET, P.C.",55 Patchen Rd,SOUTH BURLINGTON,VT,5403.0,541110.0,4/11/2020
628877,"$150,000-350,000",LAWRENCE & LOBER INC,15 BARKER ST,BELLOWS FALLS,VT,5101.0,238210.0,4/5/2020
628878,"$150,000-350,000",LAWRENCE D. OLIVER SEED COMPANY INC.,26 SUNSET AVE,MILTON,VT,5468.0,424910.0,4/7/2020
628879,"$150,000-350,000",LECLAIR THERAPY INC,CARMICHAEL ST21 Carmichael Street Suite 101,ESSEX JUNCTION,VT,5452.0,621340.0,4/11/2020
628880,"$150,000-350,000",LEGAL SERVICES LAW LINE,274 N. Winooski Ave.,BURLINGTON,VT,5401.0,541199.0,4/30/2020
628881,"$150,000-350,000",LEO'S INC,20 Moonbrook Dr,RUTLAND,VT,5701.0,722511.0,4/29/2020
628882,"$150,000-350,000","LEWIS CREEK BUILDERS, INC",18 a Morse Drive,HUNTINGTON,VT,5462.0,236118.0,4/12/2020
628883,"$150,000-350,000","LIHIGH, INC.",28 Depot St,POULTNEY,VT,5764.0,611710.0,4/8/2020
628884,"$150,000-350,000","LISAI'S MARKET, INC.",128 Atkinson Street,BELLOWS FALLS,VT,5101.0,445110.0,4/5/2020
628885,"$150,000-350,000","LISCIO FAMILY DENTISTRY, P.C.",369 HEINEBERG DR,COLCHESTER,VT,5446.0,621210.0,4/28/2020
628886,"$150,000-350,000","LISMAN LECKERLING, P.C.",84 Pine St,BURLINGTON,VT,5402.0,541110.0,4/10/2020
628887,"$150,000-350,000","LITTLE DIPPER'S DOODLE CHILDREN'S CENTER, LLC",198 Industrial Parkway,SAINT JOHNSBURY,VT,5819.0,611699.0,4/4/2020
628888,"$150,000-350,000","LLOYD PLUMBING, HEATING & GAS SERVICE, LLC",125 VT ROUTE 215 S,MARSHFIELD,VT,5658.0,238220.0,4/4/2020
628889,"$150,000-350,000","LML, LLC",380 Hurricane Lane ste 201,WILLISTON,VT,5495.0,453998.0,4/5/2020
628890,"$150,000-350,000",LONG VIEW FOREST INC.,48 Picz Rd,WESTMINSTER,VT,5158.0,561110.0,4/6/2020
628891,"$150,000-350,000","LONGWIND FARM, INCC",82 WILSON RD,EAST THETFORD,VT,5043.0,111219.0,4/5/2020
628892,"$150,000-350,000",LOSO PROFESSIONAL JANITORIAL SERVICES,57 Commerce Ave,SOUTH BURLINGTON,VT,5403.0,561720.0,4/14/2020
628893,"$150,000-350,000",LOWELL MCLEODS INC,32 Blackwell Street,BARRE,VT,5641.0,811111.0,4/9/2020
628894,"$150,000-350,000",LPD TRAFFIC CONTROL LLC,21 Metro Way,BARRE,VT,5641.0,561990.0,4/28/2020
628895,"$150,000-350,000","LUXBRUSH PAINTING CO., INC.",254 Taconic Business Park Rd,MANCHESTER CENTER,VT,5255.0,238320.0,4/7/2020
628896,"$150,000-350,000",LYNDS INN LLC,2849 Mill Brook Road,WAITSFIELD,VT,5673.0,721110.0,4/29/2020
628897,"$150,000-350,000",LYNN LYNN BLACKMAN AND MANITSKY PC,"76 SAINT PAUL ST, STE 400",BURLINGTON,VT,5401.0,541110.0,4/10/2020
628898,"$150,000-350,000","M S & K, INC",134  PO BOX 134,BENNINGTON,VT,5201.0,531120.0,4/4/2020
628899,"$150,000-350,000","MACHIA AND SONS DAIRY, LLC",1298 Machia Road,SHELDON,VT,5483.0,112120.0,4/14/2020
628900,"$150,000-350,000","MACINTYRE SERVICES, LLC",213 Exchange St,MIDDLEBURY,VT,5753.0,454310.0,4/14/2020
628901,"$150,000-350,000",MAD RIVER GLEN COOPERATIVE,62 Mad river Glen Resort,WAITSFIELD,VT,5673.0,713920.0,4/8/2020
628902,"$150,000-350,000",MADISON BREWING COMPANY INC.,428 MAIN ST,BENNINGTON,VT,5201.0,722511.0,4/29/2020
628903,"$150,000-350,000","MAG ENTERPRISE, INC.",1066 HINMAN SETTLER RD,ORLEANS,VT,5860.0,488410.0,4/4/2020
628904,"$150,000-350,000",MAGEE OFFICE EQUIPMENT INC,463 VT RTE 12S,RANDOLPH,VT,5060.0,453210.0,4/13/2020
628905,"$150,000-350,000","MAGNAN BROS. DAIRY, INC.",1380 Chester Arthur Road,ENOSBURG FALLS,VT,5450.0,112120.0,4/7/2020
628906,"$150,000-350,000",MAJOR I. RODD 'THE ROOFER' INC,49 PERKINS ST,SAINT JOHNSBURY,VT,5819.0,238160.0,4/16/2020
628907,"$150,000-350,000",MALONE PROPERTIES INC,338 River Street Unit 7,MONTPELIER,VT,5602.0,531390.0,4/5/2020
628908,"$150,000-350,000","MAPLE LANDMARK, INC.",1297 Exchange Street,MIDDLEBURY,VT,5753.0,339930.0,4/28/2020
628909,"$150,000-350,000","MAPLE PARK CAMPGROUND, LLC",PO BOX 3009,BURLINGTON,VT,5408.0,721211.0,4/16/2020
628910,"$150,000-350,000",MAPLE STREET CATERING LLC,186 South Main St,WHITE RIVER JUNCTION,VT,5001.0,722511.0,4/14/2020
628911,"$150,000-350,000",MAPLE STREET FOUNDATION,322 MAPLE ST,MANCHESTER CENTER,VT,5255.0,611110.0,4/27/2020
628912,"$150,000-350,000",MAPLEWOOD CONVENIENCE STORES INC,213 PAINE TPKE n,BERLIN,VT,5602.0,447110.0,4/3/2020
628913,"$150,000-350,000",MAPLEWOOD LIMITED OF MONTPELIER,PAINE TPKE,BERLIN,VT,5602.0,721110.0,4/3/2020
628914,"$150,000-350,000",MARINEENGINE.COM,184 Jones Drive,BRANDON,VT,5733.0,441310.0,4/8/2020
628915,"$150,000-350,000","MARSAN & SON, LLC",84 DEERE LN,FLORENCE,VT,5744.0,561730.0,4/4/2020
628916,"$150,000-350,000","MARSICOVETERE & LEVINE LAW GROUP, PC",128 Gates Street,WHITE RIVER JUNCTION,VT,5001.0,541110.0,4/4/2020
628917,"$150,000-350,000",MARTIN J BEATTIE ENTERPRISES INC.,421 Route 2 East,DANVILLE,VT,5828.0,445120.0,4/4/2020
628918,"$150,000-350,000","MARTIN'S HARDWARE AND BUILDING SUPPLY, INC.",68 West Street,BRISTOL,VT,5443.0,444130.0,4/6/2020
628919,"$150,000-350,000","MASTERSON & SON EXCAVATION, LLC",88B North Street,BRISTOL,VT,5443.0,238910.0,4/7/2020
628920,"$150,000-350,000","MATER CHRISTI SCHOOL, INC.",50 MANSFIELD AVE,BURLINGTON,VT,5401.0,611110.0,4/27/2020
628921,"$150,000-350,000","MCCORMACK, GUYETTE & ASSOCIATES PC",66 GROVE ST,RUTLAND,VT,5701.0,541211.0,4/9/2020
628922,"$150,000-350,000",MCCORMICK FITZPATRICK KASPER BURCHARD PC,40 George Street,BURLINGTON,VT,5401.0,541110.0,4/7/2020
628923,"$150,000-350,000",MCCUE MEMORIAL CO.,680 East Hubbardton Rd,CASTLETON,VT,5735.0,327991.0,4/15/2020
628924,"$150,000-350,000","MCCUIN FUELS, INC",PO Box 160,HIGHGATE CENTER,VT,5459.0,454310.0,4/8/2020
628925,"$150,000-350,000",MCHOLBE-NOONAN CORPORATION,144 COLLEGE ST,BURLINGTON,VT,5401.0,424820.0,6/24/2020
628926,"$150,000-350,000",MCLURE MOVING & STORAGE INC,167 Colchester Rd,ESSEX JUNCTION,VT,5452.0,484210.0,4/8/2020
628927,"$150,000-350,000","MDS HOLDINGS, INC",275 Main St.,WARREN,VT,5674.0,721110.0,4/14/2020
628928,"$150,000-350,000","MDTB, INC.",346 RIVER ST,SPRINGFIELD,VT,5156.0,551112.0,4/11/2020
628929,"$150,000-350,000","MEDICAL BUSINESS ADMINISTRATION RESOURCES, INC.","30 Community Drive, Suite 203",SOUTH BURLINGTON,VT,5403.0,561499.0,4/5/2020
628930,"$150,000-350,000","MEKKELSEN TRAILER SALES & RENTALS, INC",2419 US ROUTE 2,EAST MONTPELIER,VT,5651.0,441210.0,4/12/2020
628931,"$150,000-350,000",MEMORY CLINIC,357 SHIELDS DR,BENNINGTON,VT,5201.0,621399.0,4/3/2020
628932,"$150,000-350,000","MEMPHREMAGOG RENTALS, LLC",39 3RD ST,NEWPORT,VT,5855.0,531311.0,4/10/2020
628933,"$150,000-350,000","MERRILL MECHANICAL, LLC",477 DUNHAM RD,BETHEL,VT,5032.0,238220.0,4/9/2020
628934,"$150,000-350,000",MESA CONTRACT INC.,4750 SHELBURNE RD,SHELBURNE,VT,5482.0,423420.0,4/5/2020
628935,"$150,000-350,000",MICROPROCESSOR DESIGNS INC,65 LONGMEADOW DR,SHELBURNE,VT,5482.0,541512.0,4/10/2020
628936,"$150,000-350,000","MIDDLEBURY DENTAL, L.L.C.",1330 Exchange Stree,MIDDLEBURY,VT,5753.0,621210.0,4/29/2020
628937,"$150,000-350,000",MIDDLEBURY FAMILY HEALTH,44 Collins Drive,MIDDLEBURY,VT,5753.0,621111.0,4/6/2020
628938,"$150,000-350,000","MIDDLEBURY FENCE CO., LLC",1341 ETHAN ALLEN HWY,NEW HAVEN,VT,5472.0,238990.0,4/7/2020
628939,"$150,000-350,000",MIDDLEBURY VOLUNTEER AMBULANCE ASSOCIATION,55 COLLINS DR,MIDDLEBURY,VT,5753.0,621999.0,4/5/2020
628940,"$150,000-350,000","MILTON VETERINARY HOSPITAL, INC.",2 CHRISEMILY LANE,MILTON,VT,5468.0,541940.0,4/13/2020
628941,"$150,000-350,000","MITCHELL TEES & SIGNS, INC.",41 Gloriosa Dr,PITTSFORD,VT,5763.0,541430.0,4/14/2020
628942,"$150,000-350,000",MITIGATION MANAGEMENT LLC,404 Wolcott Street,HARDWICK,VT,5843.0,238990.0,4/5/2020
628943,"$150,000-350,000","MONTPELIER BROADCASTING, INC.",169 River Street,MONTPELIER,VT,5602.0,515120.0,4/7/2020
628944,"$150,000-350,000","MONTSHIRE MUSEUM OF SCIENCE, INC.",1 MONTSHIRE RD,NORWICH,VT,5055.0,712110.0,4/7/2020
628945,"$150,000-350,000","MORRISON'S CUSTOM FEEDS, INC.",1140 OLD COUNTY RD,BARNET,VT,5821.0,444220.0,4/27/2020
628946,"$150,000-350,000","MOSELEY ASSOCIATES, LTD.",48 Stagecoach Rd,WHITE RIVER JUNCTION,VT,5001.0,531210.0,4/3/2020
628947,"$150,000-350,000","MOUNT SNOW SKI EDUCATION FOUNDATION, INC.",248 Route 100 PO Box 616,WEST DOVER,VT,5356.0,611620.0,4/5/2020
628948,"$150,000-350,000","MOUNTAIN VALLEY SPRINKLER SYSTEMS, INC.",474 SHUNPIKE RD,WILLISTON,VT,5495.0,238220.0,4/28/2020
628949,"$150,000-350,000","MSKVT, PLC",PO Box 4485,BURLINGTON,VT,5406.0,541110.0,4/8/2020
628950,"$150,000-350,000",MT MANSFIELD WINTER ACADEMY,3576 Mountain Road,STOWE,VT,5672.0,611620.0,4/11/2020
628951,"$150,000-350,000","MULLEN INSURANCE AGENCY, INC.",140 S. Main Street,SAINT ALBANS,VT,5478.0,524210.0,4/7/2020
628952,"$150,000-350,000","MUSIC CONTACT INTERNATIONAL, INC.",119 S Winooski Ave,BURLINGTON,VT,5401.0,561520.0,4/11/2020
628953,"$150,000-350,000","NATE'S AUTOMOTIVE, INC.",42 River Road,ESSEX JUNCTION,VT,5452.0,811111.0,4/7/2020
628954,"$150,000-350,000","NATIVE ENERGY, A PUBLIC BENEFIT CORPORATION",3 Main St Suite 212,BURLINGTON,VT,5401.0,541620.0,4/7/2020
628955,"$150,000-350,000",NELSON FARMS INC.,843 Main Street,DERBY,VT,5829.0,112120.0,4/6/2020
628956,"$150,000-350,000","NETWORK PERFORMANCE, INC.",85 GREEN MOUNTAIN DR,SOUTH BURLINGTON,VT,5403.0,541512.0,4/15/2020
628957,"$150,000-350,000","NEVILLE COMPANIES, INC.",30 Kimball Avenue Suite 101,SOUTH BURLINGTON,VT,5403.0,531210.0,4/29/2020
628958,"$150,000-350,000",NEW ENGLAND FLOOR COVERING,257 Pine Street,BURLINGTON,VT,5401.0,238990.0,4/10/2020
628959,"$150,000-350,000",NEW ENGLAND MUNICIPAL RESOURCES CENTER,69 SWAMP RD,FAIRFAX,VT,5454.0,541690.0,4/8/2020
628960,"$150,000-350,000","NEW ENGLAND ORAL SURGERY, PC","14 NORTH MAIN ST, SUITE 4001",BARRE,VT,5641.0,621210.0,4/8/2020
628961,"$150,000-350,000",NEWMONT FARM LLC,440 MALLARY RD,BRADFORD,VT,5033.0,112120.0,4/6/2020
628962,"$150,000-350,000",NEWMONT SLATE CO INC,720 VT ROUTE 149,WEST PAWLET,VT,5775.0,212311.0,5/11/2020
628963,"$150,000-350,000",NEWTON CONSTRUCTION INC,46 Three Mile Bridge Rd,MONTPELIER,VT,5602.0,238290.0,4/6/2020
628964,"$150,000-350,000",NEXT GENERATION DELIVERY INC,2977 Mad Tom Road,EAST DORSET,VT,5253.0,492110.0,4/29/2020
628965,"$150,000-350,000",NIGHT OWL CLEANING INC.,"388 Main Street Suit 1, Winooski , Vermont , 05404",WINOOSKI,VT,5404.0,561720.0,6/28/2020
628966,"$150,000-350,000","NISSAN OF ST. ALBANS, INC.",4 Franklin Park West,SAINT ALBANS,VT,5478.0,441110.0,4/3/2020
628967,"$150,000-350,000",NLR COMPANY,One Railway Lane,BURLINGTON,VT,5401.0,482112.0,4/8/2020
628968,"$150,000-350,000",NMP GOLF CONSTRUCTION CORP,"25 Bishop Avenue, Auite A2",WILLISTON,VT,5495.0,237990.0,4/28/2020
628969,"$150,000-350,000",NOP BROTHERS AND SONS PARTNERSHIP,49 Rt 7,SALISBURY,VT,5769.0,112120.0,4/27/2020
628970,"$150,000-350,000",NORTH COUNTRY ENGINEERING INC,106 JOHN TAPLIN RD,DERBY,VT,5829.0,332710.0,4/16/2020
628971,"$150,000-350,000","NORTH COUNTRY MECHANICAL INSULATORS, INC.",P O Box 9362,SOUTH BURLINGTON,VT,5407.0,238220.0,4/4/2020
628972,"$150,000-350,000",NORTH EAST MATERIALS GROUP LLC,PO BOX 100,GRANITEVILLE,VT,5654.0,212399.0,4/11/2020
628973,"$150,000-350,000","NORTHEAST HEMP COMMODITIES, LLC",616 EXCHANGE ST,MIDDLEBURY,VT,5753.0,111998.0,4/28/2020
628974,"$150,000-350,000","NORTHEAST KINGDOM HOME CARE, INC",100 SECOND STREET,NEWPORT,VT,5855.0,621610.0,4/8/2020
628975,"$150,000-350,000","NORTHEAST KINGDOM LEARNING SERVICES, INC.",55 SEYMOUR LANE SUITE 11,NEWPORT,VT,5855.0,611710.0,4/8/2020
628976,"$150,000-350,000","NORTHEAST ORGANIC FARMING ASSOCIATION OF VERMONT, INC.",14 PLEASANT ST,RICHMOND,VT,5477.0,611699.0,4/13/2020
628977,"$150,000-350,000",NORTHEAST PIZZA ENTERPRISES INC.,59 WATERFRONT PLAZA,NEWPORT,VT,5855.0,722511.0,4/7/2020
628978,"$150,000-350,000","NORTHEASTERN REPRODUCTIVE MEDICINE, PLLC",105 West View Rd Suite 302,COLCHESTER,VT,5446.0,621111.0,4/9/2020
628979,"$150,000-350,000",NORTHERN RELIABILITY INC,11 Demeritt Place,WATERBURY,VT,5676.0,335311.0,4/3/2020
628980,"$150,000-350,000",NORTHERN STAGE COMPANY,76 GATES ST,WHITE RIVER JUNCTION,VT,5001.0,711110.0,4/10/2020
628981,"$150,000-350,000","NORTHERN VALLEY EYE CARE, INC.",128 Fisher Pond Road,SAINT ALBANS,VT,5478.0,621320.0,4/14/2020
628982,"$150,000-350,000",NORTHMAC INC,56 Ralph Lehman Drive,WHITE RIVER JUNCTION,VT,5001.0,721110.0,4/14/2020
628983,"$150,000-350,000","NORTHSHIRE DAY SCHOOL, INC.",5484 Main Street,MANCHESTER CENTER,VT,5255.0,624410.0,4/4/2020
628984,"$150,000-350,000","NORTHSHIRE INFORMATION, INC",2200  PO BOX 2200,MANCHESTER CENTER,VT,5255.0,451211.0,4/4/2020
628985,"$150,000-350,000","NORTHWOODS EXCAVATING, INC.",289 ULMAN RD,THETFORD CENTER,VT,5075.0,237990.0,4/14/2020
628986,"$150,000-350,000","NORWAY & SONS, INC.",393 North Main Street,BARRE,VT,5641.0,238210.0,4/3/2020
628987,"$150,000-350,000","NORWICH TECHNOLOGIES, INC",15 RAILROAD ROW Suite 101,WHITE RIVER JUNCTION,VT,5001.0,221114.0,4/8/2020
628988,"$150,000-350,000",NOYES AUTOMOTIVE AND TIRE CO. LLC,777 Pine Street,BURLINGTON,VT,5401.0,484110.0,5/8/2020
628989,"$150,000-350,000",NY PINSTRIPES INC,260 POOR FARM RD,MILTON,VT,5468.0,236115.0,4/7/2020
628990,"$150,000-350,000",O M FISHER HOME INC,171 Westview Meadows Road,MONTPELIER,VT,5602.0,623312.0,4/13/2020
628991,"$150,000-350,000",O'BRIEN BROTHERS AGENCY INC,1855 WILLISTON RD,SOUTH BURLINGTON,VT,5403.0,531120.0,4/6/2020
628992,"$150,000-350,000","O'BRIEN, SHORTLE, REYNOLDS & SABOTKA, PC",100  PO BOX 100,RUTLAND,VT,5702.0,541211.0,4/4/2020
628993,"$150,000-350,000",O'HARA & GERCKE INC,205 BILLINGS FARM RD Ste 3A,WHITE RIVER JUNCTION,VT,5001.0,236115.0,4/8/2020
628994,"$150,000-350,000","O'LEARY-BURKE CIVIL ASSOCIATES, PLC",13 Corporate Drive,ESSEX JUNCTION,VT,5452.0,541330.0,4/3/2020
628995,"$150,000-350,000",O'ROURKE MEDIA GROUP LLC,281 MAIN ST,SAINT ALBANS,VT,5478.0,551112.0,4/3/2020
628996,"$150,000-350,000",OAK HILL CORPORATION,45 Blush Hill Rd,WATERBURY,VT,5676.0,721110.0,4/6/2020
628997,"$150,000-350,000","OAKES BROS., INC.",975 LOWER PLAIN,BRADFORD,VT,5033.0,444130.0,4/8/2020
628998,"$150,000-350,000","OB2, LLC",1214 Williston Rd.,SOUTH BURLINGTON,VT,5403.0,711130.0,4/14/2020
628999,"$150,000-350,000","OBRIEN PAVING, INC.",318 VT Route 30,JAMAICA,VT,5343.0,237310.0,4/15/2020
629000,"$150,000-350,000",OFFICE ENVIRONMENTS INC,5 Green Tree Drive,SOUTH BURLINGTON,VT,5403.0,442110.0,4/10/2020
629001,"$150,000-350,000","OGEE, INC.",1 LAWSON LN Ste 130,BURLINGTON,VT,5401.0,325620.0,4/3/2020
629002,"$150,000-350,000","OH MY DOG DAYCARE AND BOARDING VT, INC,",18 LIME ROCK RD,SOUTH BURLINGTON,VT,5403.0,812910.0,4/15/2020
629003,"$150,000-350,000",OHAVI ZEDEK SYNAGOGUE,188 North Prospect Street,BURLINGTON,VT,5401.0,236220.0,4/29/2020
629004,"$150,000-350,000",OLD MILL ROAD MEDIA,316 OLD MILL RD,EAST ARLINGTON,VT,5252.0,511120.0,4/10/2020
629005,"$150,000-350,000","OMNI PRECISION ENGINEERING, INC.",808 HERCULES DRIVE,COLCHESTER,VT,5446.0,336413.0,4/28/2020
629006,"$150,000-350,000","ONE-PULL SOLUTIONS WIRE AND CABLE, LLC",44 Hull Street Suite 1,RANDOLF,VT,5060.0,331420.0,4/30/2020
629007,"$150,000-350,000",ONION RIVER ANIMAL HOSPITAL INC,2386 AIRPORT RD,BARRE,VT,5641.0,541940.0,5/3/2020
629008,"$150,000-350,000","OPEN APPROACH, INC.",818 Forge Hill Road P.O. Box 272,BRISTOL,VT,5443.0,541519.0,4/3/2020
629009,"$150,000-350,000","OPHTHALMIC CONSULTANTS OF VERMONT, P.C.",55 Timber Lane,SOUTH BURLINGTON,VT,5403.0,621320.0,4/9/2020
629010,"$150,000-350,000",OPTICAL EXPRESSIONS BERLIN LLC,282 Berlin Mall Road #12,MONTPELIER,VT,5602.0,621320.0,4/14/2020
629011,"$150,000-350,000",ORAL & FACIAL SURGERY ASSOCIATES PLC,2 Harwood Drive,BENNINGTON,VT,5201.0,621111.0,5/3/2020
629012,"$150,000-350,000",ORCHARD VALLEY WALDORF SCHOOL INC,2290 VT Route 14 N,EAST MONTPELIER,VT,5651.0,611110.0,4/8/2020
629013,"$150,000-350,000",ORIGINAL SWIM LLC,278 VT 15 E,HYDE PARK,VT,5655.0,541940.0,4/5/2020
629014,"$150,000-350,000","ORIN THOMAS & SONS, INC",2096 U.S. Route 7 North,RUTLAND,VT,5701.0,311511.0,4/15/2020
629015,"$150,000-350,000","ORMOND BUSHEY & SONS, INC",2 Bushy Lane,ESSEX JUNCTION,VT,5452.0,238910.0,4/28/2020
629016,"$150,000-350,000","OTTER CREEK ENGINEERING, INC.",428 East Main Street,MIDDLEBURY,VT,5753.0,541330.0,4/4/2020
629017,"$150,000-350,000","OUR HOUSE BISTRO, LLC",36 Main Street,WINOOSKI,VT,5404.0,722320.0,4/13/2020
629018,"$150,000-350,000","OUR LADY OF PROVIDENCE, INC",47 West Spring Street,WINOOSKI,VT,5404.0,813110.0,4/11/2020
629019,"$150,000-350,000",OUT BEV INC,2 VILLAGE SQ,WAITSFIELD,VT,5601.0,722511.0,6/4/2020
629020,"$150,000-350,000",OVR TECHNOLOGIES,266 PINE ST STE 103,BURLINGTON,VT,5401.0,541511.0,4/15/2020
629021,"$150,000-350,000",P & P MARKETPLACE INC.,32 Business Center Rd,WILLIAMSTOWN,VT,5679.0,447110.0,4/3/2020
629022,"$150,000-350,000",P G ADAMS INC.,1215 Airport Pkwy,SOUTH BURLINGTON,VT,5403.0,336212.0,4/27/2020
629023,"$150,000-350,000",P&P SEPTIC SERVICE INC.,PO Box 659,WILLISTON,VT,5495.0,562991.0,4/13/2020
629024,"$150,000-350,000",PAQUETTE PLUMBING,125 Valley View Dr,MENDON,VT,5701.0,238220.0,4/11/2020
629025,"$150,000-350,000","PARENT CHILD CENTER, INC.",PO BOX 646 126 Monroe Street,MIDDLEBURY,VT,5753.0,624190.0,5/14/2020
629026,"$150,000-350,000",PARENT CONSTRUCTION INCORPORATED,14818 Route 116,HINESBURG,VT,5461.0,236220.0,4/6/2020
629027,"$150,000-350,000",PATHWAY FINANCIAL ADVISORS LLC,2 Market Street,SOUTH BURLINGTON,VT,5403.0,541611.0,4/13/2020
629028,"$150,000-350,000",PAUL MAZZA'S FRUIT & VEG,135 POOR FARM RD,COLCHESTER,VT,5446.0,445230.0,6/9/2020
629029,"$150,000-350,000",PAYDATA PAYROLL,106 Highpoint Center,COLCHESTER,VT,5446.0,541214.0,4/15/2020
629030,"$150,000-350,000",PBM ACQUISITION LLC,1401 Thompson's Point Road,CHARLOTTE,VT,5445.0,713930.0,4/5/2020
629031,"$150,000-350,000",PCHP-MEDICAL SERVICES ORGANIZATION LLP,66 Knight Lane,WILLISTON,VT,5495.0,541219.0,4/11/2020
629032,"$150,000-350,000","PEAK ELECTRIC, INC.",880 Smugglers View Rd,JEFFERSONVILLE,VT,5464.0,238210.0,4/7/2020
629033,"$150,000-350,000","PEAK MECHANICAL, LLC",33 Commercial Drive,WATERBURY,VT,5676.0,238220.0,4/13/2020
629034,"$150,000-350,000",PEDIATRIC MEDICINE PLC,52 TIMBER LN,SOUTH BURLINGTON,VT,5403.0,621111.0,4/9/2020
629035,"$150,000-350,000",PEDSONE LLC,10 EAST ALLEN ST SUITE 100,WINOOSKI,VT,5404.0,621111.0,4/9/2020
629036,"$150,000-350,000","PEPIN GRANITE COMPANY, INC.",58 Granite street,BARRE,VT,5641.0,327991.0,4/8/2020
629037,"$150,000-350,000","PEREGRINE CONTRACTING, INC.","49 Commerce Ave, A1",SOUTH BURLINGTON,VT,5403.0,238390.0,4/6/2020
629038,"$150,000-350,000",PETE'S GREENS INC.,266 S. CRAFTSBURY RD,CRAFTSBURY,VT,5826.0,111219.0,4/8/2020
629039,"$150,000-350,000","PETROPRENEUR, LLC",7 COMMERCE AVE,SOUTH BURLINGTON,VT,5403.0,488410.0,4/10/2020
629040,"$150,000-350,000","PHARMACY DIRECT DELIVERY, LLC",434 Hurricane Lane,WILLISTON,VT,5495.0,446110.0,4/5/2020
629041,"$150,000-350,000",PHYSICAL THERAPY CENTER OF VT LL-SBA SMALL 7A TERM,115 Wellness Drive,WILLISTON,VT,5495.0,621340.0,5/3/2020
629042,"$150,000-350,000",PINE BIRCH LLC,716 PINE ST,BURLINGTON,VT,5401.0,722511.0,4/4/2020
629043,"$150,000-350,000",PINE FOREST INC.,208 FLYNN AVE 2F,BURLINGTON,VT,5401.0,624410.0,4/13/2020
629044,"$150,000-350,000",PINNACLE HOLDINGS INC,200 Boyer Circle,WILLISTON,VT,5495.0,561730.0,4/8/2020
629045,"$150,000-350,000","PIZZERIA VERITA, INC",156 Saint Paul Street,BURLINGTON,VT,5401.0,722511.0,4/29/2020
629046,"$150,000-350,000",PLACE CREATIVE COMPANY,187 S WINOOSKI AVE,BURLINGTON,VT,5401.0,541810.0,4/8/2020
629047,"$150,000-350,000","POMERLEAU PROPERTIES, INC.",69 COLLEGE ST,BURLINGTON,VT,5401.0,531190.0,4/9/2020
629048,"$150,000-350,000","POOLWORLD, INC.",16 Austin Drive,BURLINGTON,VT,5401.0,453998.0,4/10/2020
629049,"$150,000-350,000","POSITIVE PIE, INC.",1034 LAIRD POND RD,PLAINFIELD,VT,5667.0,722513.0,4/10/2020
629050,"$150,000-350,000",PRATT VREELAND KENNELLY MARTIN & WHITE LTD,280 PO BOX 280,RUTLAND,VT,5702.0,541110.0,4/6/2020
629051,"$150,000-350,000",PREVENT CHILD ABUSE - VERMONT,203 Country Club Drive Suite 160,MONTPELIER,VT,5602.0,813311.0,4/8/2020
629052,"$150,000-350,000",PRIMARY CARE HEALTH PARTNERS - NEW YORK LLP,66 Knight Lane,WILLISTON,VT,5495.0,621111.0,4/11/2020
629053,"$150,000-350,000","PRIME RESTAURANTS, LLC",78 Main Street,BURLINGTON,VT,5401.0,722511.0,4/6/2020
629054,"$150,000-350,000","PRODUCTION ADVANTAGE, INC.",PO Box 1700,WILLISTON,VT,5495.0,423410.0,4/9/2020
629055,"$150,000-350,000","PROJECT GRAPHICS, INC.",70 S WINOOSKI AVE # 400,BURLINGTON,VT,5401.0,541430.0,5/1/2020
629056,"$150,000-350,000","PROJECT HARMONY, INC.","5197 Main Street, Unit #6",WAITSFIELD,VT,5673.0,928120.0,4/14/2020
629057,"$150,000-350,000","PROVISIONS INTERNATIONAL, LTD.",42 North MAIN ST,WHITE RIVER JUNCTION,VT,5001.0,424490.0,4/4/2020
629058,"$150,000-350,000",PURPLE CRAYON PRODUCTIONS INC.,2095 POMFRET ROAD,SOUTH POMFRET,VT,5067.0,532299.0,5/3/2020
629059,"$150,000-350,000","QUALITY MOTORS, INC.",36 MEMORIAL DR,SAINT JOHNSBURY,VT,5819.0,441110.0,4/3/2020
629060,"$150,000-350,000",QUEEN CITY PRINTERS INC,701 PINE ST,BURLINGTON,VT,5401.0,323111.0,4/6/2020
629061,"$150,000-350,000",R PARKER ENTERPRISES INC.,57A Parker Lane,NEW HAVEN,VT,5472.0,238910.0,4/8/2020
629062,"$150,000-350,000",R. B. PRODUCTIONS INC.,710 CRICKET HILL RD,KILLINGTON,VT,5751.0,511210.0,4/15/2020
629063,"$150,000-350,000",R. HULETT TRUCKING INC.,1290 VT RT 30,WEST PAWLET,VT,5775.0,484230.0,4/15/2020
629064,"$150,000-350,000","R. REED CONSTRUCTION, INC.",0 PO Box 1456,WEST DOVER,VT,5356.0,236116.0,4/28/2020
629065,"$150,000-350,000",R. SOULE &AMP; SON INC.,3598 VT RTE 105,ENOSBURG FALLS,VT,5450.0,423740.0,4/16/2020
629066,"$150,000-350,000","RADIO BEAN, INC",8 N Winooski Ave,BURLINGTON,VT,5401.0,722513.0,5/3/2020
629067,"$150,000-350,000",RADIO VERMONT GROUP INC,9 Stowe Street,WATERBURY,VT,5676.0,515112.0,4/10/2020
629068,"$150,000-350,000","RANDALL A. MILLER, D.D.S., PC",66 COLCHESTER AVE,BURLINGTON,VT,5401.0,621210.0,4/8/2020
629069,"$150,000-350,000","RANDALL S RANER, SOLE PROPRIETOR",354 Mountain View Drive,COLCHESTER,VT,5446.0,524210.0,4/28/2020
629070,"$150,000-350,000","RAY SWEENEY, LLC",71 CHURCH STREET,BARTON,VT,5822.0,445110.0,4/8/2020
629071,"$150,000-350,000","RECONCILED IT, INC",1 LAWSON LN Suite 340,BURLINGTON,VT,5401.0,541219.0,4/7/2020
629072,"$150,000-350,000",RECOVERY HOUSE INC,207 PO BOX 207,WALLINGFORD,VT,5773.0,621420.0,4/14/2020
629073,"$150,000-350,000",RECYCLE AWAY LLC,35 FROST STREET,BRATTLEBORO,VT,5301.0,423840.0,4/11/2020
629074,"$150,000-350,000",REGAL GYMNASTICS ACADEMY LLC,2 Corporate Drive,ESSEX JUNCTION,VT,5452.0,713940.0,4/8/2020
629075,"$150,000-350,000",RETINA CENTER OF VERMONT INC,99 SWIFT ST SUITE 200,SOUTH BURLINGTON,VT,5403.0,621111.0,4/7/2020
629076,"$150,000-350,000",RI RA VERMONT LLC,123 Church Street,BURLINGTON,VT,5401.0,,5/3/2020
629077,"$150,000-350,000","RICE LUMBER CO., INC.",4188 SHELBURNE RD,SHELBURNE,VT,5482.0,444190.0,4/8/2020
629078,"$150,000-350,000","RICHARD ELECTRIC, INC.",131 A St,WILDER,VT,5088.0,238210.0,4/13/2020
629079,"$150,000-350,000",RICHARD GREEN TRUCKING LLC,959 Sampsonville Rd,ENOSBURG FALLS,VT,5450.0,484220.0,4/6/2020
629080,"$150,000-350,000","RICHMOND FAMILY MEDICINE, LLC",27-4640788,RICHMOND,VT,5477.0,621111.0,4/6/2020
629081,"$150,000-350,000",RICHMOND HOME SUPPLY,99 railroad Street,RICHMOND,VT,5477.0,444130.0,4/7/2020
629082,"$150,000-350,000","RIPLEY HOLDINGS OF VERMONT, INC.",63 PLAIN ST,RUTLAND,VT,5701.0,238290.0,4/7/2020
629083,"$150,000-350,000",RIVER COVE ANIMALS HOSPITAL,7 River Cove Road,WILLISTON,VT,5495.0,541940.0,4/29/2020
629084,"$150,000-350,000",RIVERSIDE HOSPITALITY GROUP INC,317 Riverside Drive,BURLINGTON,VT,5401.0,722511.0,4/15/2020
629085,"$150,000-350,000",RIVERVIEW LIFE SKILLS CENTER INC,197 Highlander Dr,JEFFERSONVILLE,VT,5464.0,623110.0,4/29/2020
629086,"$150,000-350,000","ROBERT S. RUHL, DMD, PC",25 COLDBROOK RD,WILMINGTON,VT,5363.0,621210.0,4/6/2020
629087,"$150,000-350,000",ROBERT STUBBINS ELECTRICAL & GENERAL CONTRACTOR,395 US ROUTE 4,RUTLAND,VT,5701.0,238210.0,4/5/2020
629088,"$150,000-350,000",ROCK DUNDER ENERGY CORP.,166 RIVER RD,RICHMOND,VT,5477.0,454310.0,4/6/2020
629089,"$150,000-350,000","ROCK POINT SCHOOL, INC",1 ROCK POINT RD,BURLINGTON,VT,5408.0,611110.0,4/29/2020
629090,"$150,000-350,000","ROGER MACAULEY WHOLESALE MEATS, INC.",169 Sterling Hill Road,BARRE,VT,5641.0,424470.0,4/13/2020
629091,"$150,000-350,000","RONNIE'S CYCLE SALES OF BENNINGTON, INC",2601 West Rd,BENNINGTON,VT,5201.0,441228.0,4/8/2020
629092,"$150,000-350,000","ROTUNDAS AUTO BODY, INC.",1 Turcotte Road,ESSEX JUNCTION,VT,5452.0,811121.0,4/15/2020
629093,"$150,000-350,000","ROUND HILL FENCE &AMP; SECURITY, INC.",288 TELEPHONE LN,ORLEANS,VT,5860.0,238990.0,5/3/2020
629094,"$150,000-350,000",ROUNDTREE CONSTRUCTION INC,5450 ETHAN ALLEN HWY,NEW HAVEN,VT,5472.0,236220.0,4/6/2020
629095,"$150,000-350,000","ROUSE TIRE SALES, INC.","28 Willow Road Drive, Rte 7 P.O. Box 902",MIDDLEBURY,VT,5753.0,441320.0,4/6/2020
629096,"$150,000-350,000","ROWLEY FUELS, INC",789 ROUTE 7 S,MILTON,VT,5468.0,454310.0,4/11/2020
629097,"$150,000-350,000",RP HOLDINGS LLC,39 WEST RD,MANCHESTER CENTER,VT,5255.0,721110.0,4/14/2020
629098,"$150,000-350,000",RUGG VALLEY LTD,968 HAVEN HILL RD,SOUTH LONDONDERRY,VT,5155.0,561730.0,4/4/2020
629099,"$150,000-350,000","RURAL RESOURCES, LLC",352 South Main Street,STOWE,VT,5672.0,531311.0,4/5/2020
629100,"$150,000-350,000",RUTLAND COUNTY PARENT CHILD CENTER,61 PLEASANT ST,RUTLAND,VT,5701.0,624190.0,4/9/2020
629101,"$150,000-350,000",RUTLAND RADIOLOGISTS,160 ALLEN ST,RUTLAND,VT,5701.0,622110.0,4/11/2020
629102,"$150,000-350,000",RUTLAND WEST NEIGHBORHOOD HOUSING SVCS,110 Marble St.,WEST RUTLAND,VT,5777.0,624229.0,4/13/2020
629103,"$150,000-350,000",S  L DUDLEY TRANSPORTATION INC,ABBOTT AVE,BARRE,VT,5641.0,484220.0,4/7/2020
629104,"$150,000-350,000",S&H UNDERWRITERS INC,338 E Montpelier Road,BARRE,VT,5641.0,524128.0,4/10/2020
629105,"$150,000-350,000",SABA MARINE LLC,390 Prim Road,COLCHESTER,VT,5446.0,441222.0,4/7/2020
629106,"$150,000-350,000",SACRED HEART SCHOOL,238 Main St,BENNINGTON,VT,5201.0,813110.0,4/30/2020
629107,"$150,000-350,000",SAME SUN OF VERMONT INC,141 WEST ST,RUTLAND,VT,5701.0,238210.0,4/6/2020
629108,"$150,000-350,000","SARDUCCI'S, INC.",3 Main Street,MONTPELIER,VT,5602.0,722511.0,6/8/2020
629109,"$150,000-350,000","SB WINGS COMPANY, LLC",401 South Beach Road,SOUTH BURLINGTON,VT,5403.0,722513.0,4/27/2020
629110,"$150,000-350,000",SELDOM SCENE INTERIORS INC,2038 MOUNTAIN RD,STOWE,VT,5672.0,541410.0,4/8/2020
629111,"$150,000-350,000",SENIX CORPORATION,10516 ROUTE 116 Suite 300,HINESBURG,VT,5461.0,334519.0,4/7/2020
629112,"$150,000-350,000","SHEETMETAL SPECIALISTS IN HVAC, INC.",38 COMMERCE AVE,SOUTH BURLINGTON,VT,5403.0,238220.0,4/8/2020
629113,"$150,000-350,000","SHELBURNE FARMS, INC.",1611 Harbor Road,SHELBURNE,VT,5482.0,112120.0,4/8/2020
629114,"$150,000-350,000",SHELDON TRUCKS INC,137 AVENUE A,WILLISTON,VT,5495.0,441120.0,4/9/2020
629115,"$150,000-350,000",SHERWIN ELECTRIC COMPANY INC,7a Morse Drive,ESSEX JUNCTION,VT,5452.0,238210.0,4/30/2020
629116,"$150,000-350,000",SHILLEN MACKALL & SELDON LAW OFFICE PC,21710 MAXHAM MEADOW WAY,WOODSTOCK,VT,5091.0,541110.0,4/8/2020
629117,"$150,000-350,000",SHINNERS INC,350 Mountain Rd,STOWE,VT,5672.0,315220.0,4/15/2020
629118,"$150,000-350,000","SHIRES HOUSING, INC.",307 NORTH ST,BENNINGTON,VT,5201.0,531110.0,4/7/2020
629119,"$150,000-350,000",SIERRA ENTERPRISES INC,740 PO BOX 740,DORSET,VT,5251.0,722511.0,4/6/2020
629120,"$150,000-350,000",SILVER CREEK RESTAURANT COMPANY,886 ROUTE 7,MIDDLEBURY,VT,5753.0,722511.0,4/30/2020
629121,"$150,000-350,000",SILVER LEAF IN-HOME CARE,88 Old Stage Road,ESSEX JUNCTION,VT,5452.0,621610.0,4/15/2020
629122,"$150,000-350,000",SIMON OPERATION SERVICES INC,143 S Main St,WATERBURY,VT,5676.0,541618.0,4/9/2020
629123,"$150,000-350,000","SIT AND SLEEP, INC.",700 Highgate Road,SAINT ALBANS,VT,5478.0,453998.0,4/4/2020
629124,"$150,000-350,000",SKI MAGIC LLC,495 MAGIC MTN ACCESS,LONDONDERRY,VT,5148.0,713920.0,4/6/2020
629125,"$150,000-350,000",SLIMAIN HANDYS CONVENIENCE STORES INC,75 South WINOOSKI AVE,BURLINGTON,VT,5401.0,447110.0,4/15/2020
629126,"$150,000-350,000","SMALL DOG ELECTRONICS, INC.",316 FLYNN AVE,BURLINGTON,VT,5401.0,443142.0,4/9/2020
629127,"$150,000-350,000","SMITH & MCCLAIN, INC.","5 Main Street, Suite A",BRISTOL,VT,5443.0,236210.0,4/7/2020
629128,"$150,000-350,000",SNOWFIRE LTD,100 US Route 2,WATERBURY,VT,5676.0,441120.0,4/14/2020
629129,"$150,000-350,000","SOCAPA, INC",2380 Ridge Rd,EAST BURKE,VT,5832.0,923110.0,4/14/2020
629130,"$150,000-350,000",SOH WIND ENGINEERING LLC,141 LEROY RD,WILLISTON,VT,5495.0,541380.0,4/13/2020
629131,"$150,000-350,000",SOJOURNS COMMUNITY CLINIC INC.,4923 US ROUTE 5,WESTMINSTER,VT,5158.0,813910.0,4/9/2020
629132,"$150,000-350,000",SOLAFLECT ENERGY LLC,326 MAIN ST SUITE 4,NORWICH,VT,5055.0,221114.0,4/5/2020
629133,"$150,000-350,000","SOUNDTOYS, INC.",225 Church Street,BURLINGTON,VT,5401.0,451140.0,4/29/2020
629134,"$150,000-350,000",SOUTHERN VERMONT ORCHARDS INC,1126 Carpenter Hill Rd,BENNINGOTN,VT,5201.0,111331.0,4/15/2020
629135,"$150,000-350,000","SPAFFORD & SONS OF WILLISTON, VERMONT, INC.",11 north main st.,JERICHO,VT,5465.0,221310.0,4/11/2020
629136,"$150,000-350,000",SPANO INC,4 Carmichael Street,ESSEX JUNCTION,VT,5452.0,722511.0,4/7/2020
629137,"$150,000-350,000","SPEAK EASY ARTS, LLC",400 Pine Street,BURLINGTON,VT,5401.0,711410.0,4/27/2020
629138,"$150,000-350,000","SPLIT VENTURES, LLC",492 Mountain Road,STOWE,VT,5672.0,722511.0,4/7/2020
629139,"$150,000-350,000",SPRINGFIELD AREA PARENT CHILD CENTER,6 Main St,NORTH SPRINGFIELD,VT,5150.0,624410.0,4/14/2020
629140,"$150,000-350,000","SPRINGFIELD FENCE COMPANY, INC",50 ROUTE 106,NORTH SPRINGFIELD,VT,5150.0,238990.0,4/7/2020
629141,"$150,000-350,000",SPRINGFIELD PHARMACY INC,262 River Street,SPRINGFIELD,VT,5156.0,446110.0,4/6/2020
629142,"$150,000-350,000",SPRUCE MOUNTAIN GRANITES &AMP; CUSTOM SANDBLAST INC.,84 Pitman Road,BARRE,VT,5641.0,327991.0,4/3/2020
629143,"$150,000-350,000","SPRUCE MOUNTAIN INN, INC",155 TOWNE AVE PO BOX 153,PLAINFIELD,VT,5667.0,622210.0,4/8/2020
629144,"$150,000-350,000",ST ONGE TRANSPORT INC,333 Citizens Road,DERBY,VT,5829.0,484110.0,4/6/2020
629145,"$150,000-350,000","ST. ALBANS ELEC APPL CO., INC.",700 Highgate Road,SAINT ALBANS,VT,5478.0,453998.0,4/4/2020
629146,"$150,000-350,000",ST. FRANCIS XAVIER PARISH CHARITABLE TRUST,3 SAINT PETER ST,WINOOSKI,VT,5404.0,813211.0,4/11/2020
629147,"$150,000-350,000","ST. JOHNSBURY CDJR, LLC",500 MEMORIAL DR,SAINT JOHNSBURY,VT,5819.0,441110.0,4/8/2020
629148,"$150,000-350,000",ST. MONICA PARISH,79 Summer St,BARRE,VT,5641.0,813110.0,4/15/2020
629149,"$150,000-350,000","STACKPOLE & FRENCH, PLC",255 Maple Street,STOWE,VT,5672.0,541110.0,4/5/2020
629150,"$150,000-350,000",STARK MOUNTAIN WOODWORKING COMPANY,359 SOUTH ST,NEW HAVEN,VT,5472.0,337110.0,4/4/2020
629151,"$150,000-350,000","STAVE PUZZLES, INC",PO BOX 329,NORWICH,VT,5055.0,423920.0,4/4/2020
629152,"$150,000-350,000","STEPHEN & BURNS, INC",116 Church St,BURLINGTON,VT,5401.0,812199.0,4/9/2020
629153,"$150,000-350,000",STEPHENS OF BENNINGTON,200 Northside Dr,BENNINGTON,VT,5201.0,441110.0,4/9/2020
629154,"$150,000-350,000","STERLING TECHNOLOGIES, INC.",251 Harrel Street,MORRISVILLE,VT,5661.0,339999.0,4/13/2020
629155,"$150,000-350,000","STITZEL PAGE AND FLETCHER, PC",171 Battery Street 2nd Floor,BURLINGTON,VT,5401.0,922130.0,4/16/2020
629156,"$150,000-350,000","STONE PATH ACADEMY, INC.",7286 VT RT 100B,MORETOWN,VT,5660.0,611110.0,4/29/2020
629157,"$150,000-350,000","STOWE HOMECARE MAINTENANCE, INC.",5247 Laporte Road,STOWE,VT,5672.0,561730.0,4/28/2020
629158,"$150,000-350,000",STS INC,80 Commercial Dr,WATERBURY,VT,5676.0,333210.0,4/7/2020
629159,"$150,000-350,000","SUBATOMIC DIGITAL, LLC",151 Blair Park Rd,WILLISTON,VT,5495.0,323117.0,4/13/2020
629160,"$150,000-350,000",SUCH A VOICE LLC,150 Dorset Street,SOUTH BURLINGTON,VT,5403.0,611610.0,4/4/2020
629161,"$150,000-350,000",SUGARBUSH PROPERTY GROUP INC,1939 Sugarbush Access Rd,WARREN,VT,5674.0,561790.0,4/8/2020
629162,"$150,000-350,000","SULLIVAN, POWERS & COMPANY",77 BARRE ST PO Box 947,MONTPELIER,VT,5602.0,541211.0,4/6/2020
629163,"$150,000-350,000","SUMMIT AUTOMOTIVE, INC.",1270 Putney Road,BRATTLEBORO,VT,5301.0,441110.0,4/7/2020
629164,"$150,000-350,000",SUNRISE FAMILY RESOURCE CENTER INC,1517 PO BOX 1517 244 UNION STREET,BENNINGTON,VT,5201.0,624110.0,4/14/2020
629165,"$150,000-350,000","SUPERSTORE FURNITURE SALES, INC.",543 BLAIR PARK RD,WILLISTON,VT,5495.0,442110.0,4/8/2020
629166,"$150,000-350,000",SUSTAINABLE FOOD LABORATORY INC,3 Linden Rd,HARTLAND,VT,5048.0,541380.0,4/15/2020
629167,"$150,000-350,000",SVT MASONRY LLC,1208 HOUGHTON LN,BENNINGTON,VT,5201.0,238140.0,4/6/2020
629168,"$150,000-350,000",SWEENEY AND BELISLE,598 Smugglers View Road,JEFFERSONVILLE,VT,5464.0,236220.0,4/15/2020
629169,"$150,000-350,000","SWISS PRECISION TURNING, INC.",74 COTTON MILL HL UNIT A108,BRATTLEBORO,VT,5301.0,336412.0,4/28/2020
629170,"$150,000-350,000",SYLVAN PARK INN CORP,823 South Main St.,STOWE,VT,5672.0,721110.0,4/12/2020
629171,"$150,000-350,000","TABLE 24, INC",24 Wales St,RUTLAND,VT,5701.0,722410.0,4/15/2020
629172,"$150,000-350,000","TAMARACK FAMILY MEDICINE, LLC",109 PROFESSIONAL DR Suite 3,MORRISVILLE,VT,5661.0,621111.0,4/13/2020
629173,"$150,000-350,000","TB & H JACOBS, INC.",PO BOX 691 86 Main Street,MIDDLEBURY,VT,5753.0,722511.0,4/16/2020
629174,"$150,000-350,000","TCE, INC.",478 Blair Park Road,WILLISTON,VT,5495.0,541330.0,4/6/2020
629175,"$150,000-350,000",TDI REPAIR FACILITY LLC,50 Babbie blvd,SWANTON,VT,5488.0,811310.0,4/8/2020
629176,"$150,000-350,000","TERRACE COMMUNITIES WOODSTOCK, LLC.",456 WOODSTOCK RD,WOODSTOCK,VT,5091.0,623312.0,4/11/2020
629177,"$150,000-350,000","TERRY PRECISION BICYCLES FOR WOMEN, INC.",47 Maple Street Suite 102,BURLINGTON,VT,5401.0,423910.0,4/14/2020
629178,"$150,000-350,000",THE BELDEN COMPANY INC-SBA SMALL 7A TERM,15 Belden Road,RUTLAND,VT,5701.0,,5/3/2020
629179,"$150,000-350,000",THE CARPETBAGGER LTD,800 Marshall Ave Ste 30,WILLISTON,VT,5495.0,238330.0,4/6/2020
629180,"$150,000-350,000",THE CHILL FOUNDATION,180 QUEEN CITY PARK RD,BURLINGTON,VT,5401.0,813410.0,4/8/2020
629181,"$150,000-350,000","THE CHIMNEY SWEEP FIREPLACE SHOP, INC.",3113 SHELBURNE RD,SHELBURNE,VT,5482.0,442299.0,4/15/2020
629182,"$150,000-350,000","THE CIRCUS BARN, INC.",1 Circus Road,GREENSBORO,VT,5841.0,721214.0,4/6/2020
629183,"$150,000-350,000","THE CUSHMAN DESIGN GROUP, INC.",100 Mountain Rd,STOWE,VT,5672.0,541310.0,4/7/2020
629184,"$150,000-350,000","THE DREAM PROGRAM, INC.",87 Elm St. PO Box 361,WINOOSKI,VT,5404.0,624190.0,4/10/2020
629185,"$150,000-350,000",THE FAMILY PLACE,319 US Route 5 South,NORWICH,VT,5055.0,624410.0,4/14/2020
629186,"$150,000-350,000","THE FOUR C'S, INC.",642 Sheldon Road,SAINT ALBANS,VT,5478.0,623312.0,4/6/2020
629187,"$150,000-350,000",THE GRAMMAR SCHOOL INC,69 HICKORY RIDGE RD South,PUTNEY,VT,5346.0,611110.0,4/7/2020
629188,"$150,000-350,000","THE GREEN MOUNTAIN CLUB, INC",4711 Waterbury-Stowe Rd,WATERBURY CENTER,VT,5677.0,813410.0,4/7/2020
629189,"$150,000-350,000","THE INTERVALE CENTER, INC.",180 INTERVAL ROAD,BURLINGTON,VT,5401.0,115116.0,4/10/2020
629190,"$150,000-350,000",THE MOUNTAIN SCHOOL AT WINHALL INC,9 SCHOOL ST,BONDVILLE,VT,5340.0,611110.0,4/14/2020
629191,"$150,000-350,000",THE SCHOOLHOUSE INC,8 CATKIN DR,SOUTH BURLINGTON,VT,5403.0,611110.0,4/5/2020
629192,"$150,000-350,000",THE SHAMROCK PUB COMPANY,28 Walnut Street Suite 140 Box 45,WILLISTON,VT,5495.0,722511.0,4/5/2020
629193,"$150,000-350,000",THE SILVER CORPORATION,148 PROUTY DR,NEWPORT,VT,5855.0,623311.0,4/28/2020
629194,"$150,000-350,000",THE SNYDER GROUP INC.,4076 Shelburne Road Suite 6,SHELBURNE,VT,5482.0,236115.0,4/4/2020
629195,"$150,000-350,000","THE SPOT, LLC",210 SHELBURNE RD,BURLINGTON,VT,5401.0,722511.0,4/7/2020
629196,"$150,000-350,000",THE SUGARMAN OF VERMONT LLC,84 Industrial Park Road,HARDWICK,VT,5843.0,311999.0,4/5/2020
629197,"$150,000-350,000","THE TECH GROUP, INC. DBA COMPUTER SERVICES OF VERMONT",21 Gregory Drive,SOUTH BURLINGTON,VT,5403.0,541512.0,4/13/2020
629198,"$150,000-350,000",THE VERMONT FLANNEL CO.,128 Mill Street,EAST BARRE,VT,5649.0,315990.0,4/3/2020
629199,"$150,000-350,000","THE VILLA REHAB CENTER, LLC",7 Forest Hill Drive,SAINT ALBANS,VT,5478.0,623110.0,4/6/2020
629200,"$150,000-350,000","THE VILLAGE AT WHITE RIVER JUNCTION, LLC",101 Currier St.,WHITE RIVER JUNCTION,VT,5001.0,531110.0,4/7/2020
629201,"$150,000-350,000",THE WADSWORTH COMPANY LLC,10086 VT ROUTE 30,JAMAICA,VT,5343.0,236115.0,4/6/2020
629202,"$150,000-350,000",THE WINSTON PROUTY CENTER FOR CHILD AND FAMILY DEVELOPMENT,209 Austin Drive,BRATTLEBORO,VT,5301.0,611110.0,4/6/2020
629203,"$150,000-350,000","THE WOODSTOCK FOUNDATION, INC.",PO BOX 489 69 Old River Rd,WOODSTOCK,VT,5091.0,712110.0,4/10/2020
629204,"$150,000-350,000",THM PROPERTY MANAGEMENT LLC,129 Lincoln Ave,MANCHESTER CENTER,VT,5255.0,531311.0,4/14/2020
629205,"$150,000-350,000",THOM CORP,2 CHESTER RD,SPRINGFIELD,VT,5156.0,448310.0,4/4/2020
629206,"$150,000-350,000","THORS ELEGANCE, INC.",402 PROSPECT ST,BRANDON,VT,5733.0,337127.0,4/7/2020
629207,"$150,000-350,000",TIMBER LANE ALLERGY & ASTHMA ASSOCIATES,53 TIMBER LN,SOUTH BURLINGTON,VT,5403.0,621111.0,4/9/2020
629208,"$150,000-350,000","TITOS TAQUERIA, LLC",148 Spring Hill Road,GUILFORD,VT,5301.0,722513.0,4/15/2020
629209,"$150,000-350,000",TLS ALBANY LLC,520 EQUINOX ON THE BATTENKILL,MANCHESTER,VT,5254.0,812112.0,4/9/2020
629210,"$150,000-350,000",TRACK INC,1778 VT ROUTE 105,NEWPORT,VT,5855.0,441228.0,4/7/2020
629211,"$150,000-350,000","TRANSACTION RESOURCES, INC.",1070 MAIN ST,RICHMOND,VT,5477.0,561990.0,4/15/2020
629212,"$150,000-350,000",TRAREEBA LTD,164 Main Street,BRADFORD,VT,5033.0,722511.0,4/7/2020
629213,"$150,000-350,000",TREATMENT ASSOCIATES INC,72 Main St Box 39,MONTPELIER,VT,5602.0,621420.0,4/30/2020
629214,"$150,000-350,000",TREE LINE DATA LLC,4310 SNAKE MOUNTAIN RD,WEYBRIDGE,VT,5753.0,541511.0,4/6/2020
629215,"$150,000-350,000",TRES AMIGOS LLC,1190 Mountain Road,STOWE,VT,5672.0,722511.0,4/7/2020
629216,"$150,000-350,000","TRINITY CHILDREN'S CENTER, INC.",34 Fletcher Place,BURLINGTON,VT,5401.0,624410.0,4/15/2020
629217,"$150,000-350,000",TROY MINERALS INC,145 DEPOT ROAD,COLCHESTER,VT,5446.0,212319.0,4/12/2020
629218,"$150,000-350,000","TRUE POINT DENTAL, PLLC",1212 Putney Rd,BRATTLEBORO,VT,5301.0,621210.0,4/9/2020
629219,"$150,000-350,000","TS PECK, LLC",41 IDX Drive Suite 135,SOUTH BURLINGTON,VT,5403.0,524210.0,4/10/2020
629220,"$150,000-350,000",TURTLE ISLAND CHILDREN'S CENTER INC,659 ELM ST,MONTPELIER,VT,5602.0,624410.0,4/10/2020
629221,"$150,000-350,000","TWC, INC,",8749 VT ROUTE 30,SOUTH LONDONDERRY,VT,5155.0,451110.0,4/4/2020
629222,"$150,000-350,000","TWIGGSVT, LLC",24 North Main Street,SAINT ALBANS,VT,5478.0,722511.0,4/3/2020
629223,"$150,000-350,000","TWIN CITY LANES II, INC.",708 US ROUTE 302 BERLIN,BARRE,VT,5641.0,713120.0,4/13/2020
629224,"$150,000-350,000",TWIN PINES HOUSING TRUST,"226 Holiday Drive, Suite 20",WHITE RIVER JUNCTION,VT,5001.0,531110.0,4/5/2020
629225,"$150,000-350,000","UNIFIED TURBINES, INC.",28 Catamount Drive,MILTON,VT,5468.0,811310.0,4/28/2020
629226,"$150,000-350,000","UNIVERSAL PROPERTIES INTERNATIONAL, LLC",68 RANDALL ST,SOUTH BURLINGTON,VT,5403.0,531312.0,4/13/2020
629227,"$150,000-350,000",UPLAND CONSTRUCTION LLC,959 E WOODSTOCK RD,WOODSTOCK,VT,5091.0,236118.0,4/8/2020
629228,"$150,000-350,000","UPPER VALLEY FOOD COOPERATIVE, INC",193 N Main ST,WHITE RIVER JCT,VT,5001.0,445110.0,4/15/2020
629229,"$150,000-350,000",UPPER VALLEY PEDIATRICS,331 UPPER PLN,BRADFORD,VT,5033.0,621111.0,4/7/2020
629230,"$150,000-350,000",UPPER VALLEY WALDORF SCHOOL,80 Bluff Road PO BOX 709,QUECHEE,VT,5059.0,611110.0,4/7/2020
629231,"$150,000-350,000",URSA MAJOR NATURAL CARE LLC,1 STOWE ST FL 2,WATERBURY,VT,5676.0,812990.0,4/14/2020
629232,"$150,000-350,000","UTILITY SERVICES, INC.","1080 Waterbury Stowe Road, Suite 2",WATERBURY,VT,5676.0,541990.0,4/9/2020
629233,"$150,000-350,000","VAILLANCOURT TREELANDSCAPE SERVICE, INC.",810 Route 7,PITTSFORD,VT,5763.0,561730.0,4/28/2020
629234,"$150,000-350,000",VALHALLA CORP,177 WESTERN AVE,SAINT JOHNSBURY,VT,5819.0,517919.0,4/11/2020
629235,"$150,000-350,000","VALLEY CARES, INC.",PO BOX 341,TOWNSHEND,VT,5353.0,623311.0,4/7/2020
629236,"$150,000-350,000","VALLEY FLOORS, INC",WAITS RIVER RD,BRADFORD,VT,5033.0,442210.0,4/5/2020
629237,"$150,000-350,000","VALLEYNET, INC.",415 WATERMAN RD,SOUTH ROYALTON,VT,5068.0,517311.0,4/10/2020
629238,"$150,000-350,000","VDC, LLC",4066 Shelburne Road,SHELBURNE,VT,5482.0,423420.0,4/6/2020
629239,"$150,000-350,000","VENTURECO HOLDINGS, INC.","171 Battery Street, First Floor",BURLINGTON,VT,5401.0,541519.0,4/27/2020
629240,"$150,000-350,000",VERGENNES ANIMAL HOSPITAL INC,20 MAIN ST,VERGENNES,VT,5491.0,541940.0,4/9/2020
629241,"$150,000-350,000","VERILUX, INC.",340 Mad River Park,WAITSFIELD,VT,5673.0,423610.0,4/11/2020
629242,"$150,000-350,000",VERMONT ASSOCIATION OF CONSERVATION DISTRICTS,3756 EAST WARREN RD PO BOX 566,WAITSFIELD,VT,5673.0,541715.0,4/10/2020
629243,"$150,000-350,000",VERMONT CENTER FOR DENTAL IMPLANTS & MAXILLOFACIAL SURGERY,792 college parkway suite 307,COLCHESTER,VT,5446.0,621210.0,5/4/2020
629244,"$150,000-350,000","VERMONT CENTER FOR ECOSTUDIES, INC.",PO BOX 420,NORWICH,VT,5055.0,561499.0,4/4/2020
629245,"$150,000-350,000","VERMONT COFFEE COMPANY, LLC","1197 Exchange Street, Suite 3",MIDDLEBURY,VT,5753.0,311920.0,4/11/2020
629246,"$150,000-350,000",VERMONT COMMONS SCHOOL,75 Green Mountain Drive,SOUTH BURLINGTON,VT,5403.0,611110.0,4/6/2020
629247,"$150,000-350,000","VERMONT COMMUNITY NEWSPAPER GROUP, LLC",49 School Street,STOWE,VT,5672.0,511120.0,4/7/2020
629248,"$150,000-350,000","VERMONT COMPOST COMPANY, INC.",1996 Main Street,MONTPELIER,VT,5602.0,212393.0,4/8/2020
629249,"$150,000-350,000",VERMONT CONSUMERS ENERGY COOPERATIVE,73 PRIM ROAD,COLCHESTER,VT,5446.0,454310.0,4/7/2020
629250,"$150,000-350,000","VERMONT CUSTOM CLOSETS, INC.",17 ECHO PL,WILLISTON,VT,5495.0,238990.0,4/10/2020
629251,"$150,000-350,000","VERMONT DONUT ENTERPRISES IV, LLC",2785 SHELBURNE RD,SHELBURNE,VT,5482.0,722513.0,4/9/2020
629252,"$150,000-350,000","VERMONT DONUT ENTERPRISES V, LLC",PO BOX 64878,BURLINGTON,VT,5406.0,722513.0,4/8/2020
629253,"$150,000-350,000",VERMONT ENERGY CONTRACTING AND SUPPLY CORPORATION,188 Krupp Drive,WILLISTON,VT,5495.0,541330.0,4/7/2020
629254,"$150,000-350,000",VERMONT EYE SURGERY &LASER CENTER,1100 HINESBURG RD SUITE 101,SOUTH BURLINGTON,VT,5403.0,621111.0,4/28/2020
629255,"$150,000-350,000",VERMONT FAMILY NETWORK INC,600 Blair Park Rd Suite 240,WILLISTON,VT,5495.0,624190.0,4/12/2020
629256,"$150,000-350,000","VERMONT FARM TABLE, LLC",74 MUNSILL AVE Suite 103,BRISTOL,VT,5443.0,337122.0,4/9/2020
629257,"$150,000-350,000","VERMONT FURNITURE GALLERIES, INC.",320 Pioneer Dr,WILLISTON,VT,5495.0,442110.0,4/13/2020
629258,"$150,000-350,000","VERMONT GYNECOLOGY, P.C.",1775 WILLISTON RD,SOUTH BURLINGTON,VT,5403.0,621111.0,4/7/2020
629259,"$150,000-350,000",VERMONT HEALTHCARE INFORMATION TECHNOLOGY EDUCATION CENTER INC,158 Commerce St PO Box 1548,WILLISTON,VT,5495.0,541512.0,4/10/2020
629260,"$150,000-350,000","VERMONT HISTORICAL SOCIETY, INC.",60 Washington Street,BARRE,VT,5641.0,712110.0,4/11/2020
629261,"$150,000-350,000","VERMONT INDUSTRIAL PRODUCTS, INC.",5 Corporate Drive,ESSEX JUNCTION,VT,5452.0,339991.0,4/8/2020
629262,"$150,000-350,000",VERMONT INSTITUTE OF NATURAL S,149 Natures Way,QUECHEE,VT,5059.0,712190.0,4/8/2020
629263,"$150,000-350,000",VERMONT ISLANDS,22 Browne Ct,BRATTLEBORO,VT,5301.0,337110.0,4/14/2020
629264,"$150,000-350,000",VERMONT JOURNALISM TRUST,26 State Street,MONTPELIER,VT,5602.0,511120.0,4/6/2020
629265,"$150,000-350,000",VERMONT LIFE SAFETY LC,3504 Theodore Roosevelt Hwy,WATERBURY,VT,5676.0,333999.0,4/27/2020
629266,"$150,000-350,000",VERMONT NATURAL RESOURCES COUNCIL INC,9 Bailey Avenue,MONTPELIER,VT,5602.0,813312.0,4/8/2020
629267,"$150,000-350,000",VERMONT NETWORK AGAINST DOMESTIC SEXUAL VIOLENCE,63 Barre Street,MONTPELIER,VT,5602.0,624221.0,4/8/2020
629268,"$150,000-350,000",VERMONT NEW YORK COMPANY,1298 South BROWNELL RD,WILLISTON,VT,5495.0,423120.0,4/4/2020
629269,"$150,000-350,000",VERMONT NUT FREE CHOCOLATE CO. INC.,146 Brentwood Dr,COLCHESTER,VT,5446.0,311999.0,4/7/2020
629270,"$150,000-350,000","VERMONT POWER TECHNOLOGIES, LLC D/B/A BROOK * FIELD * SERVICE",829 Route 12 South,NORTHFIELD,VT,5663.0,238290.0,4/6/2020
629271,"$150,000-350,000","VERMONT PROTECTIVE COATINGS, INC.",2598 Franklin Street,BRANDON,VT,5733.0,238990.0,4/8/2020
629272,"$150,000-350,000",VERMONT PUBLIC INTEREST RESEARCH AND EDUCATION FUND,141 Main St. Suite 6,MONTPELIER,VT,5602.0,813319.0,4/10/2020
629273,"$150,000-350,000","VERMONT PUBLISHING SERVICES, LLC",673 S Main St #3,STOWE,VT,5672.0,511199.0,4/13/2020
629274,"$150,000-350,000",VERMONT ROADS AND FIELDS LLC,5517 GREENBUSH ROAD,CHARLOTTE,VT,5445.0,238910.0,4/29/2020
629275,"$150,000-350,000",VERMONT SPORTS MEDICINE CENTER,5 Albert Cree Dr,RUTLAND,VT,5701.0,621399.0,4/27/2020
629276,"$150,000-350,000","VERMONT STRUCTURAL SLATE COMPANY, INC.",P.O. Box 98,FAIR HAVEN,VT,5743.0,327991.0,4/11/2020
629277,"$150,000-350,000",VERMONT SUSTAINABLE JOBS FUND INC,3 Pitkin Court Suite 301E,MONTPELIER,VT,5602.0,523999.0,4/14/2020
629278,"$150,000-350,000",VERMONT SYMPHONY ORCHESTRA ASSOCIATION,2 CHURCH ST Suite 3B,BURLINGTON,VT,5401.0,711130.0,4/9/2020
629279,"$150,000-350,000","VERMONT TIMBER WORKS, INC.",16 FAIRBANKS RD,NORTH SPRINGFIELD,VT,5150.0,321991.0,4/11/2020
629280,"$150,000-350,000",VERMONT WHOLESALE TIRE INC,3 Graves St,MONTPELIER,VT,5602.0,423130.0,4/9/2020
629281,"$150,000-350,000",VERMONT WIDE PLANK FLOORING LLC,PO Box 131,BRATTLEBORO,VT,5302.0,321918.0,4/10/2020
629282,"$150,000-350,000",VERMONT WIREFORM INC.,PO BOX 248,CHELSEA,VT,5038.0,332618.0,4/7/2020
629283,"$150,000-350,000",VERMONT WOOD PELLET LLC,1105 Route 7b Central,N CLARENDON,VT,5759.0,321999.0,4/5/2020
629284,"$150,000-350,000","VERMONT WORKS FOR WOMEN, INC.",32 A Malletts Bay Ave,WINOOSKI,VT,5404.0,624310.0,4/6/2020
629285,"$150,000-350,000","VERMONT YOUTH CONSERVATION CORPS, INC.",1949 MAIN ST,RICHMOND,VT,5477.0,813410.0,4/5/2020
629286,"$150,000-350,000",VERMONT-NEW HAMPSHIRE VETERINARY CLINIC,38 East West Rd,EAST DUMMERSTON,VT,5346.0,541940.0,4/6/2020
629287,"$150,000-350,000",VMS CONSTRUCTION INC,103 WALES ST,RUTLAND,VT,5701.0,236210.0,4/4/2020
629288,"$150,000-350,000","VSA, LLC",14 N MAIN ST,BARRE,VT,5641.0,423390.0,4/15/2020
629289,"$150,000-350,000",VT-CBD LABS LLC,133 ELM ST,WINOOSKI,VT,5404.0,325411.0,4/6/2020
629290,"$150,000-350,000","VTKOTO, INC.",792 Shelburne Road,SOUTH BURLINGTON,VT,5403.0,722511.0,4/7/2020
629291,"$150,000-350,000",VURAL OKTAY INC,1 S Main St,WHITE RIVER JUNCTION,VT,5001.0,722511.0,4/13/2020
629292,"$150,000-350,000",W&B MANAGEMENT INC.,164 Route 100,WEST DOVER,VT,5356.0,531312.0,4/14/2020
629293,"$150,000-350,000","W.G. DALEY, INC. D/B/A THE VERMONT COUNTRY STORE",436 Western Avenue,BRATTLEBORO,VT,5301.0,722513.0,4/4/2020
629294,"$150,000-350,000",WAAGS LLC,96 Pond Rd,HINESBURG,VT,5461.0,624410.0,4/6/2020
629295,"$150,000-350,000","WAGNER HOGDSON, INC.",7 Marble Ave,BURLINGTON,VT,5401.0,541320.0,4/27/2020
629296,"$150,000-350,000",WARD LAW PC,3069 Williston Road,SOUTH BURLINGTON,VT,5403.0,541990.0,4/8/2020
629297,"$150,000-350,000",WASHINGTON COUNTY YOUTH SERICE BUREAU BOYS AND GIRLS CLUB,38 ELM ST,MONTPELIER,VT,5602.0,813319.0,4/8/2020
629298,"$150,000-350,000",WAYSIDE RESTAURANT INC,1873 US Route 302,MONTPELIER,VT,5602.0,722511.0,4/28/2020
629299,"$150,000-350,000","WELLS RIVER CHEVROLET, LLC",10 RAILROAD ST,WELLS RIVER,VT,5081.0,441110.0,4/3/2020
629300,"$150,000-350,000",WENDELLS FURNITURE INC,697 Hercules Drive,COLCHESTER,VT,5446.0,442110.0,4/8/2020
629301,"$150,000-350,000",WEST MOUNTAIN ANIMAL HOSPITAL,1726 HARWOOD HILL RD,BENNINGTON,VT,5201.0,541940.0,4/10/2020
629302,"$150,000-350,000","WEST RIVER FAMILY DENTAL, BRATTLEBORO, LLC",911 Putney Road,BRATTLEBORO,VT,5301.0,621210.0,4/28/2020
629303,"$150,000-350,000",WEST RIVER MARINA INC,28 Spring Tree Road,BRATTLEBORO,VT,5301.0,722511.0,4/28/2020
629304,"$150,000-350,000",WESTMINSTER FARMS,4187 US RT 5,WESTMINSTER,VT,5158.0,111998.0,4/14/2020
629305,"$150,000-350,000",WG RUSSELL SUPPLY CORP,9 Gregory Drive,SOUTH BURLINGTON,VT,5407.0,423840.0,4/30/2020
629306,"$150,000-350,000","WHITE MOUNTAIN GROUP, LLC",570 SHELBURNE RD,BURLINGTON,VT,5401.0,812112.0,4/4/2020
629307,"$150,000-350,000",WHITE RIDGE CONSTRUCTION LLC,155 White Ridge Road,MONKTON,VT,5469.0,236118.0,4/11/2020
629308,"$150,000-350,000",WHITE RIVER FAMILY EYECARE PC,58 HARTFORD AVE,WHITE RIVER JUNCTION,VT,5001.0,621320.0,4/10/2020
629309,"$150,000-350,000","WHITE RIVER FAMILY PRACTICE, PC",331 OLCOTT DR Suite 3,WHITE RIVER JUNCTION,VT,5001.0,621111.0,4/5/2020
629310,"$150,000-350,000","WHITE RIVER VALLEY AMBULANCE, INC.",3190 Pleasant Street,BETHEL,VT,5032.0,621910.0,5/21/2020
629311,"$150,000-350,000","WIEMANN-LAMPHERE ARCHITECTS, INC.",525 Hercules Drive Suite 2,COLCHESTER,VT,5446.0,541420.0,4/9/2020
629312,"$150,000-350,000","WILD APPLE GRAPHICS, LTD",2513 W WOODSTOCK RD,WOODSTOCK,VT,5091.0,541430.0,4/9/2020
629313,"$150,000-350,000",WILD BRANCH SOLUTIONS INC,425 TARBOX HILL RD,ORLEANS,VT,5860.0,339999.0,4/10/2020
629314,"$150,000-350,000","WILK PAVING, INC",738 Rutland Road,CENTER RUTLAND,VT,5736.0,236220.0,4/13/2020
629315,"$150,000-350,000","WILKINS ENTERPRISES, INC.",663 South Barre Road,BARRE,VT,5641.0,441228.0,4/4/2020
629316,"$150,000-350,000",WILLARD STREET FAMILY DENTAL,27 NORTH WILLARD ST,BURLINGTON,VT,5401.0,621210.0,4/8/2020
629317,"$150,000-350,000",WILLISTON INN GROUP,66 ZEPHYR RD,WILLISTON,VT,5495.0,721110.0,4/7/2020
629318,"$150,000-350,000",WILLISTON ROAD PIZZA LLC,8 White Street,SOUTH BURLINGTON,VT,5403.0,722511.0,4/6/2020
629319,"$150,000-350,000","WINDHAM & WINDSOR HOUSING TRUST, INC.",68 Birge Street,BRATTLEBORO,VT,5301.0,925110.0,4/7/2020
629320,"$150,000-350,000",WINDHAM FOUNDATION INC,225 TOWNSHEND RD,GRAFTON,VT,5146.0,813319.0,4/7/2020
629321,"$150,000-350,000","WINDHAM LAW, PLC",45 Linden Street,BRATTLEBORO,VT,5301.0,541110.0,4/7/2020
629322,"$150,000-350,000","WINTERSET, INC",128 Winterset Drive,LYNDONVILLE,VT,5851.0,238910.0,4/4/2020
629323,"$150,000-350,000","WOODARD MARINE, INC.",P.O. Box 130,HYDEVILLE,VT,5750.0,441222.0,4/7/2020
629324,"$150,000-350,000",WORTHY KITCHEN LLC,PO BOX 1104,BARNARD,VT,5031.0,722511.0,4/12/2020
629325,"$150,000-350,000",WOWTOYZ INC,103 PANTON RD,VERGENNES,VT,5491.0,451120.0,4/9/2020
629326,"$150,000-350,000","WRAGG BROS. OF VT., INC.",5285 US Route 5,ASCUTNEY,VT,5030.0,237110.0,4/13/2020
629327,"$150,000-350,000","WRIGHT CONSTRUCTION COMPANY, INC.",31 STATION RD,MOUNT HOLLY,VT,5758.0,236220.0,4/5/2020
629328,"$150,000-350,000",WYATT INVESTMENT RESEARCH LLC,65 Railroad St,RICHMOND,VT,5477.0,523930.0,4/27/2020
629329,"$150,000-350,000",WYC LLC,1 South Main Street,WATERBURY,VT,5676.0,722511.0,4/7/2020
629330,"$150,000-350,000",YOUTH SERVICES INC,PO BOX 6008,BRATTLEBORO,VT,5302.0,624110.0,4/4/2020
629331,"$150,000-350,000",ZALUZNY EXCAVATING CORP.,230 FORT BRIDGMAN RD,VERNON,VT,5354.0,238910.0,4/14/2020
629332,"$150,000-350,000","ZG HOLDINGS, LLC",716 Pine Street,BURLINGTON,VT,5401.0,312120.0,4/4/2020
629333,"$150,000-350,000","ZITER MASONRY, INC.",39 Snowbridge Road,BARRE,VT,5641.0,238110.0,4/3/2020
629334,"$150,000-350,000",ZOEY'S DOUBLE HEX INC,1444 PO BOX 1444,MANCHESTER CENTER,VT,5255.0,722511.0,4/5/2020
